<?xml version="1.0" encoding="UTF-8"?>
<gpx xmlns="http://www.topografix.com/GPX/1/1" xmlns:xsi="http://www.w3.org/2001/XMLSchema-instance" xsi:schemaLocation="http://www.topografix.com/GPX/1/1 http://www.topografix.com/GPX/1/1/gpx.xsd" version="1.1" creator="gpx.py -- https://github.com/tkrajina/gpxpy">
  <metadata>
    <name>001</name>
  </metadata>
  <trk>
    <name>001</name>
    <trkseg>
      <trkpt lat="50.73359" lon="7.08688">
      </trkpt>
      <trkpt lat="50.733012" lon="7.087405">
      </trkpt>
      <trkpt lat="50.732466" lon="7.087924">
      </trkpt>
      <trkpt lat="50.731948" lon="7.088595">
      </trkpt>
      <trkpt lat="50.731548" lon="7.08938">
      </trkpt>
      <trkpt lat="50.731093" lon="7.089865">
      </trkpt>
      <trkpt lat="50.730423" lon="7.089284">
      </trkpt>
      <trkpt lat="50.730068" lon="7.088552">
      </trkpt>
      <trkpt lat="50.729719" lon="7.087774">
      </trkpt>
      <trkpt lat="50.729403" lon="7.087079">
      </trkpt>
      <trkpt lat="50.729077" lon="7.086359">
      </trkpt>
      <trkpt lat="50.728634" lon="7.085387">
      </trkpt>
      <trkpt lat="50.728328" lon="7.084587">
      </trkpt>
      <trkpt lat="50.728006" lon="7.083851">
      </trkpt>
      <trkpt lat="50.727674" lon="7.082945">
      </trkpt>
      <trkpt lat="50.727138" lon="7.082562">
      </trkpt>
      <trkpt lat="50.72649" lon="7.083075">
      </trkpt>
      <trkpt lat="50.726089" lon="7.083806">
      </trkpt>
      <trkpt lat="50.725538" lon="7.084277">
      </trkpt>
      <trkpt lat="50.725083" lon="7.084892">
      </trkpt>
      <trkpt lat="50.724558" lon="7.086167">
      </trkpt>
      <trkpt lat="50.723984" lon="7.086302">
      </trkpt>
      <trkpt lat="50.723444" lon="7.086371">
      </trkpt>
      <trkpt lat="50.722907" lon="7.08764">
      </trkpt>
      <trkpt lat="50.722603" lon="7.08873">
      </trkpt>
      <trkpt lat="50.722065" lon="7.088373">
      </trkpt>
      <trkpt lat="50.721421" lon="7.087932">
      </trkpt>
      <trkpt lat="50.720851" lon="7.087517">
      </trkpt>
      <trkpt lat="50.72048" lon="7.088305">
      </trkpt>
      <trkpt lat="50.719932" lon="7.088643">
      </trkpt>
      <trkpt lat="50.719358" lon="7.089001">
      </trkpt>
      <trkpt lat="50.718723" lon="7.089095">
      </trkpt>
      <trkpt lat="50.71863" lon="7.088072">
      </trkpt>
      <trkpt lat="50.718445" lon="7.08696">
      </trkpt>
      <trkpt lat="50.717752" lon="7.087283">
      </trkpt>
      <trkpt lat="50.717223" lon="7.087566">
      </trkpt>
      <trkpt lat="50.716654" lon="7.0881">
      </trkpt>
      <trkpt lat="50.715959" lon="7.088734">
      </trkpt>
      <trkpt lat="50.715302" lon="7.08916">
      </trkpt>
      <trkpt lat="50.714654" lon="7.08962">
      </trkpt>
      <trkpt lat="50.714235" lon="7.090201">
      </trkpt>
      <trkpt lat="50.713668" lon="7.089952">
      </trkpt>
      <trkpt lat="50.713085" lon="7.089682">
      </trkpt>
      <trkpt lat="50.712272" lon="7.089594">
      </trkpt>
      <trkpt lat="50.711416" lon="7.089107">
      </trkpt>
      <trkpt lat="50.710653" lon="7.088825">
      </trkpt>
      <trkpt lat="50.710014" lon="7.088797">
      </trkpt>
      <trkpt lat="50.7094" lon="7.089337">
      </trkpt>
      <trkpt lat="50.70858" lon="7.091095">
      </trkpt>
      <trkpt lat="50.708131" lon="7.091798">
      </trkpt>
      <trkpt lat="50.706466" lon="7.09086">
      </trkpt>
      <trkpt lat="50.705813" lon="7.090543">
      </trkpt>
      <trkpt lat="50.704842" lon="7.090135">
      </trkpt>
      <trkpt lat="50.704135" lon="7.090127">
      </trkpt>
      <trkpt lat="50.703521" lon="7.090033">
      </trkpt>
      <trkpt lat="50.70286" lon="7.090207">
      </trkpt>
      <trkpt lat="50.701742" lon="7.090843">
      </trkpt>
      <trkpt lat="50.701068" lon="7.091094">
      </trkpt>
      <trkpt lat="50.700564" lon="7.091418">
      </trkpt>
      <trkpt lat="50.699926" lon="7.09202">
      </trkpt>
      <trkpt lat="50.699298" lon="7.092563">
      </trkpt>
      <trkpt lat="50.698942" lon="7.093477">
      </trkpt>
      <trkpt lat="50.698517" lon="7.094238">
      </trkpt>
      <trkpt lat="50.698233" lon="7.095354">
      </trkpt>
      <trkpt lat="50.697943" lon="7.096439">
      </trkpt>
      <trkpt lat="50.697508" lon="7.097086">
      </trkpt>
      <trkpt lat="50.696839" lon="7.096833">
      </trkpt>
      <trkpt lat="50.696252" lon="7.096643">
      </trkpt>
      <trkpt lat="50.695695" lon="7.09689">
      </trkpt>
      <trkpt lat="50.694915" lon="7.097783">
      </trkpt>
      <trkpt lat="50.694577" lon="7.098545">
      </trkpt>
      <trkpt lat="50.694007" lon="7.099103">
      </trkpt>
      <trkpt lat="50.693468" lon="7.099312">
      </trkpt>
      <trkpt lat="50.692703" lon="7.099231">
      </trkpt>
      <trkpt lat="50.69204" lon="7.099051">
      </trkpt>
      <trkpt lat="50.69159" lon="7.098178">
      </trkpt>
      <trkpt lat="50.691054" lon="7.096914">
      </trkpt>
      <trkpt lat="50.690619" lon="7.095979">
      </trkpt>
      <trkpt lat="50.690025" lon="7.095447">
      </trkpt>
      <trkpt lat="50.68936" lon="7.095602">
      </trkpt>
      <trkpt lat="50.688575" lon="7.095645">
      </trkpt>
      <trkpt lat="50.68798" lon="7.095921">
      </trkpt>
      <trkpt lat="50.687413" lon="7.095504">
      </trkpt>
      <trkpt lat="50.686512" lon="7.094974">
      </trkpt>
      <trkpt lat="50.686328" lon="7.096243">
      </trkpt>
      <trkpt lat="50.68681" lon="7.097153">
      </trkpt>
      <trkpt lat="50.687281" lon="7.097825">
      </trkpt>
      <trkpt lat="50.687977" lon="7.098504">
      </trkpt>
      <trkpt lat="50.688639" lon="7.099086">
      </trkpt>
      <trkpt lat="50.689075" lon="7.099672">
      </trkpt>
      <trkpt lat="50.689729" lon="7.100092">
      </trkpt>
      <trkpt lat="50.690323" lon="7.100097">
      </trkpt>
      <trkpt lat="50.691192" lon="7.099869">
      </trkpt>
      <trkpt lat="50.690927" lon="7.100738">
      </trkpt>
      <trkpt lat="50.69043" lon="7.101508">
      </trkpt>
      <trkpt lat="50.68999" lon="7.10316">
      </trkpt>
      <trkpt lat="50.68966" lon="7.104331">
      </trkpt>
      <trkpt lat="50.689339" lon="7.105018">
      </trkpt>
      <trkpt lat="50.689696" lon="7.105787">
      </trkpt>
      <trkpt lat="50.690665" lon="7.105945">
      </trkpt>
      <trkpt lat="50.691027" lon="7.106757">
      </trkpt>
      <trkpt lat="50.690496" lon="7.107407">
      </trkpt>
      <trkpt lat="50.689827" lon="7.107172">
      </trkpt>
      <trkpt lat="50.689182" lon="7.107447">
      </trkpt>
      <trkpt lat="50.688501" lon="7.107274">
      </trkpt>
      <trkpt lat="50.687782" lon="7.107011">
      </trkpt>
      <trkpt lat="50.6874" lon="7.108148">
      </trkpt>
      <trkpt lat="50.68611" lon="7.110248">
      </trkpt>
      <trkpt lat="50.683697" lon="7.114166">
      </trkpt>
      <trkpt lat="50.683151" lon="7.115345">
      </trkpt>
      <trkpt lat="50.682572" lon="7.115001">
      </trkpt>
      <trkpt lat="50.682134" lon="7.114364">
      </trkpt>
      <trkpt lat="50.681553" lon="7.114189">
      </trkpt>
      <trkpt lat="50.680747" lon="7.114208">
      </trkpt>
      <trkpt lat="50.680152" lon="7.114272">
      </trkpt>
      <trkpt lat="50.679601" lon="7.114384">
      </trkpt>
      <trkpt lat="50.678985" lon="7.11457">
      </trkpt>
      <trkpt lat="50.680126" lon="7.118024">
      </trkpt>
      <trkpt lat="50.680462" lon="7.119079">
      </trkpt>
      <trkpt lat="50.679917" lon="7.119319">
      </trkpt>
      <trkpt lat="50.678376" lon="7.120414">
      </trkpt>
      <trkpt lat="50.677819" lon="7.120526">
      </trkpt>
      <trkpt lat="50.677332" lon="7.121276">
      </trkpt>
      <trkpt lat="50.677153" lon="7.122088">
      </trkpt>
      <trkpt lat="50.677091" lon="7.123349">
      </trkpt>
      <trkpt lat="50.677485" lon="7.12439">
      </trkpt>
      <trkpt lat="50.677915" lon="7.125238">
      </trkpt>
      <trkpt lat="50.677374" lon="7.125721">
      </trkpt>
      <trkpt lat="50.676883" lon="7.126548">
      </trkpt>
      <trkpt lat="50.676204" lon="7.126527">
      </trkpt>
      <trkpt lat="50.675501" lon="7.126949">
      </trkpt>
      <trkpt lat="50.675096" lon="7.127535">
      </trkpt>
      <trkpt lat="50.674545" lon="7.126431">
      </trkpt>
      <trkpt lat="50.673888" lon="7.124855">
      </trkpt>
      <trkpt lat="50.671882" lon="7.119959">
      </trkpt>
      <trkpt lat="50.671383" lon="7.118835">
      </trkpt>
      <trkpt lat="50.671344" lon="7.11792">
      </trkpt>
      <trkpt lat="50.67109" lon="7.116907">
      </trkpt>
      <trkpt lat="50.670829" lon="7.116141">
      </trkpt>
      <trkpt lat="50.670281" lon="7.116675">
      </trkpt>
      <trkpt lat="50.666455" lon="7.121825">
      </trkpt>
      <trkpt lat="50.664924" lon="7.120157">
      </trkpt>
      <trkpt lat="50.663103" lon="7.116852">
      </trkpt>
      <trkpt lat="50.66226" lon="7.11647">
      </trkpt>
      <trkpt lat="50.661663" lon="7.116113">
      </trkpt>
      <trkpt lat="50.660834" lon="7.114322">
      </trkpt>
      <trkpt lat="50.660277" lon="7.113464">
      </trkpt>
      <trkpt lat="50.659461" lon="7.111593">
      </trkpt>
      <trkpt lat="50.659582" lon="7.109951">
      </trkpt>
      <trkpt lat="50.659714" lon="7.108712">
      </trkpt>
      <trkpt lat="50.659755" lon="7.107544">
      </trkpt>
      <trkpt lat="50.659721" lon="7.10588">
      </trkpt>
      <trkpt lat="50.659253" lon="7.104985">
      </trkpt>
      <trkpt lat="50.658016" lon="7.104107">
      </trkpt>
      <trkpt lat="50.657038" lon="7.101978">
      </trkpt>
      <trkpt lat="50.656731" lon="7.101079">
      </trkpt>
      <trkpt lat="50.656221" lon="7.100073">
      </trkpt>
      <trkpt lat="50.655802" lon="7.09946">
      </trkpt>
      <trkpt lat="50.65505" lon="7.098402">
      </trkpt>
      <trkpt lat="50.653849" lon="7.097429">
      </trkpt>
      <trkpt lat="50.653033" lon="7.09647">
      </trkpt>
      <trkpt lat="50.652512" lon="7.095806">
      </trkpt>
      <trkpt lat="50.65163" lon="7.094382">
      </trkpt>
      <trkpt lat="50.651389" lon="7.093374">
      </trkpt>
      <trkpt lat="50.650896" lon="7.09215">
      </trkpt>
      <trkpt lat="50.650595" lon="7.091268">
      </trkpt>
      <trkpt lat="50.649662" lon="7.089308">
      </trkpt>
      <trkpt lat="50.649078" lon="7.08815">
      </trkpt>
      <trkpt lat="50.648825" lon="7.087077">
      </trkpt>
      <trkpt lat="50.650187" lon="7.086989">
      </trkpt>
      <trkpt lat="50.6519" lon="7.087012">
      </trkpt>
      <trkpt lat="50.653047" lon="7.087257">
      </trkpt>
      <trkpt lat="50.653582" lon="7.087419">
      </trkpt>
      <trkpt lat="50.654958" lon="7.087818">
      </trkpt>
      <trkpt lat="50.656494" lon="7.088037">
      </trkpt>
      <trkpt lat="50.657861" lon="7.088189">
      </trkpt>
      <trkpt lat="50.658756" lon="7.088266">
      </trkpt>
      <trkpt lat="50.659639" lon="7.088268">
      </trkpt>
      <trkpt lat="50.661756" lon="7.088046">
      </trkpt>
      <trkpt lat="50.66261" lon="7.09045">
      </trkpt>
      <trkpt lat="50.663285" lon="7.09235">
      </trkpt>
      <trkpt lat="50.66385" lon="7.09394">
      </trkpt>
      <trkpt lat="50.664473" lon="7.095695">
      </trkpt>
      <trkpt lat="50.667953" lon="7.093629">
      </trkpt>
      <trkpt lat="50.668424" lon="7.094532">
      </trkpt>
      <trkpt lat="50.669016" lon="7.096156">
      </trkpt>
      <trkpt lat="50.66961" lon="7.097769">
      </trkpt>
      <trkpt lat="50.670076" lon="7.099035">
      </trkpt>
      <trkpt lat="50.670566" lon="7.100368">
      </trkpt>
      <trkpt lat="50.671065" lon="7.101746">
      </trkpt>
      <trkpt lat="50.671408" lon="7.102695">
      </trkpt>
      <trkpt lat="50.672515" lon="7.105674">
      </trkpt>
      <trkpt lat="50.673234" lon="7.107609">
      </trkpt>
      <trkpt lat="50.673558" lon="7.108451">
      </trkpt>
      <trkpt lat="50.674123" lon="7.108805">
      </trkpt>
      <trkpt lat="50.67484" lon="7.108388">
      </trkpt>
      <trkpt lat="50.676146" lon="7.109476">
      </trkpt>
      <trkpt lat="50.676779" lon="7.107583">
      </trkpt>
      <trkpt lat="50.677179" lon="7.108828">
      </trkpt>
      <trkpt lat="50.677541" lon="7.110027">
      </trkpt>
      <trkpt lat="50.677819" lon="7.110948">
      </trkpt>
      <trkpt lat="50.678172" lon="7.112046">
      </trkpt>
      <trkpt lat="50.678492" lon="7.113039">
      </trkpt>
      <trkpt lat="50.678802" lon="7.114002">
      </trkpt>
      <trkpt lat="50.679601" lon="7.114384">
      </trkpt>
      <trkpt lat="50.680152" lon="7.114272">
      </trkpt>
      <trkpt lat="50.680747" lon="7.114208">
      </trkpt>
      <trkpt lat="50.681553" lon="7.114189">
      </trkpt>
      <trkpt lat="50.682128" lon="7.114356">
      </trkpt>
      <trkpt lat="50.682572" lon="7.115001">
      </trkpt>
      <trkpt lat="50.683151" lon="7.115345">
      </trkpt>
      <trkpt lat="50.683707" lon="7.116006">
      </trkpt>
      <trkpt lat="50.684119" lon="7.116642">
      </trkpt>
      <trkpt lat="50.685193" lon="7.117816">
      </trkpt>
      <trkpt lat="50.685349" lon="7.119654">
      </trkpt>
      <trkpt lat="50.685149" lon="7.1208">
      </trkpt>
      <trkpt lat="50.685353" lon="7.121624">
      </trkpt>
      <trkpt lat="50.685468" lon="7.122568">
      </trkpt>
      <trkpt lat="50.685796" lon="7.123417">
      </trkpt>
      <trkpt lat="50.6861" lon="7.12418">
      </trkpt>
      <trkpt lat="50.686512" lon="7.125314">
      </trkpt>
      <trkpt lat="50.686688" lon="7.12633">
      </trkpt>
      <trkpt lat="50.68693" lon="7.127253">
      </trkpt>
      <trkpt lat="50.687674" lon="7.128321">
      </trkpt>
      <trkpt lat="50.688227" lon="7.12864">
      </trkpt>
      <trkpt lat="50.688729" lon="7.129328">
      </trkpt>
      <trkpt lat="50.68929" lon="7.129567">
      </trkpt>
      <trkpt lat="50.689926" lon="7.129777">
      </trkpt>
      <trkpt lat="50.690418" lon="7.130246">
      </trkpt>
      <trkpt lat="50.690955" lon="7.130484">
      </trkpt>
      <trkpt lat="50.691571" lon="7.131081">
      </trkpt>
      <trkpt lat="50.692092" lon="7.130837">
      </trkpt>
      <trkpt lat="50.69227" lon="7.129307">
      </trkpt>
      <trkpt lat="50.692729" lon="7.128583">
      </trkpt>
      <trkpt lat="50.693124" lon="7.128002">
      </trkpt>
      <trkpt lat="50.693957" lon="7.126727">
      </trkpt>
      <trkpt lat="50.694662" lon="7.12561">
      </trkpt>
      <trkpt lat="50.695439" lon="7.124434">
      </trkpt>
      <trkpt lat="50.695317" lon="7.123509">
      </trkpt>
      <trkpt lat="50.694748" lon="7.1226">
      </trkpt>
      <trkpt lat="50.694154" lon="7.121719">
      </trkpt>
      <trkpt lat="50.69387" lon="7.120769">
      </trkpt>
      <trkpt lat="50.693572" lon="7.119905">
      </trkpt>
      <trkpt lat="50.6931" lon="7.118931">
      </trkpt>
      <trkpt lat="50.69267" lon="7.117307">
      </trkpt>
      <trkpt lat="50.692403" lon="7.114712">
      </trkpt>
      <trkpt lat="50.692009" lon="7.113927">
      </trkpt>
      <trkpt lat="50.691844" lon="7.114832">
      </trkpt>
      <trkpt lat="50.691336" lon="7.115543">
      </trkpt>
      <trkpt lat="50.690662" lon="7.114104">
      </trkpt>
      <trkpt lat="50.690221" lon="7.113495">
      </trkpt>
      <trkpt lat="50.689602" lon="7.11372">
      </trkpt>
      <trkpt lat="50.689054" lon="7.113241">
      </trkpt>
      <trkpt lat="50.688749" lon="7.112379">
      </trkpt>
      <trkpt lat="50.687589" lon="7.112224">
      </trkpt>
      <trkpt lat="50.68611" lon="7.110248">
      </trkpt>
      <trkpt lat="50.6874" lon="7.108148">
      </trkpt>
      <trkpt lat="50.687621" lon="7.107243">
      </trkpt>
      <trkpt lat="50.688501" lon="7.107274">
      </trkpt>
      <trkpt lat="50.689182" lon="7.107447">
      </trkpt>
      <trkpt lat="50.689827" lon="7.107172">
      </trkpt>
      <trkpt lat="50.690496" lon="7.107407">
      </trkpt>
      <trkpt lat="50.690942" lon="7.106879">
      </trkpt>
      <trkpt lat="50.691871" lon="7.106156">
      </trkpt>
      <trkpt lat="50.692515" lon="7.105945">
      </trkpt>
      <trkpt lat="50.693307" lon="7.106932">
      </trkpt>
      <trkpt lat="50.693813" lon="7.10733">
      </trkpt>
      <trkpt lat="50.694492" lon="7.107933">
      </trkpt>
      <trkpt lat="50.695831" lon="7.108615">
      </trkpt>
      <trkpt lat="50.69651" lon="7.10913">
      </trkpt>
      <trkpt lat="50.697046" lon="7.109237">
      </trkpt>
      <trkpt lat="50.697809" lon="7.109112">
      </trkpt>
      <trkpt lat="50.698488" lon="7.108919">
      </trkpt>
      <trkpt lat="50.698942" lon="7.108235">
      </trkpt>
      <trkpt lat="50.69948" lon="7.108482">
      </trkpt>
      <trkpt lat="50.700096" lon="7.108813">
      </trkpt>
      <trkpt lat="50.700665" lon="7.10852">
      </trkpt>
      <trkpt lat="50.701427" lon="7.108169">
      </trkpt>
      <trkpt lat="50.70224" lon="7.108329">
      </trkpt>
      <trkpt lat="50.702596" lon="7.107444">
      </trkpt>
      <trkpt lat="50.703384" lon="7.107151">
      </trkpt>
      <trkpt lat="50.703449" lon="7.106088">
      </trkpt>
      <trkpt lat="50.704139" lon="7.105683">
      </trkpt>
      <trkpt lat="50.704643" lon="7.105348">
      </trkpt>
      <trkpt lat="50.70553" lon="7.105474">
      </trkpt>
      <trkpt lat="50.705976" lon="7.104826">
      </trkpt>
      <trkpt lat="50.706445" lon="7.104255">
      </trkpt>
      <trkpt lat="50.706654" lon="7.103341">
      </trkpt>
      <trkpt lat="50.707169" lon="7.102502">
      </trkpt>
      <trkpt lat="50.707776" lon="7.102533">
      </trkpt>
      <trkpt lat="50.708298" lon="7.102149">
      </trkpt>
      <trkpt lat="50.708833" lon="7.101985">
      </trkpt>
      <trkpt lat="50.709524" lon="7.101695">
      </trkpt>
      <trkpt lat="50.710109" lon="7.101621">
      </trkpt>
      <trkpt lat="50.710341" lon="7.100576">
      </trkpt>
      <trkpt lat="50.710787" lon="7.100054">
      </trkpt>
      <trkpt lat="50.711188" lon="7.099484">
      </trkpt>
      <trkpt lat="50.71168" lon="7.098486">
      </trkpt>
      <trkpt lat="50.712249" lon="7.098264">
      </trkpt>
      <trkpt lat="50.712927" lon="7.098267">
      </trkpt>
      <trkpt lat="50.713653" lon="7.09903">
      </trkpt>
      <trkpt lat="50.714193" lon="7.09934">
      </trkpt>
      <trkpt lat="50.714902" lon="7.098613">
      </trkpt>
      <trkpt lat="50.715524" lon="7.09818">
      </trkpt>
      <trkpt lat="50.716117" lon="7.097062">
      </trkpt>
      <trkpt lat="50.716615" lon="7.096596">
      </trkpt>
      <trkpt lat="50.717114" lon="7.095722">
      </trkpt>
      <trkpt lat="50.717818" lon="7.095238">
      </trkpt>
      <trkpt lat="50.71803" lon="7.096062">
      </trkpt>
      <trkpt lat="50.718615" lon="7.095685">
      </trkpt>
      <trkpt lat="50.718936" lon="7.094825">
      </trkpt>
      <trkpt lat="50.719333" lon="7.093075">
      </trkpt>
      <trkpt lat="50.720366" lon="7.092511">
      </trkpt>
      <trkpt lat="50.720739" lon="7.091766">
      </trkpt>
      <trkpt lat="50.721394" lon="7.090391">
      </trkpt>
      <trkpt lat="50.721725" lon="7.089528">
      </trkpt>
      <trkpt lat="50.721988" lon="7.088658">
      </trkpt>
    </trkseg>
  </trk>
</gpx>