<?xml version="1.0" encoding="UTF-8"?>
<gpx xmlns="http://www.topografix.com/GPX/1/1" xmlns:xsi="http://www.w3.org/2001/XMLSchema-instance" xsi:schemaLocation="http://www.topografix.com/GPX/1/1 http://www.topografix.com/GPX/1/1/gpx.xsd" version="1.1" creator="gpx.py -- https://github.com/tkrajina/gpxpy">
  <metadata>
    <name>002</name>
  </metadata>
  <trk>
    <name>002</name>
    <trkseg>
      <trkpt lat="50.737704" lon="7.107098">
      </trkpt>
      <trkpt lat="50.737496" lon="7.106241">
      </trkpt>
      <trkpt lat="50.737002" lon="7.105805">
      </trkpt>
      <trkpt lat="50.736138" lon="7.106072">
      </trkpt>
      <trkpt lat="50.73573" lon="7.105041">
      </trkpt>
      <trkpt lat="50.735328" lon="7.103957">
      </trkpt>
      <trkpt lat="50.734964" lon="7.103314">
      </trkpt>
      <trkpt lat="50.734617" lon="7.102507">
      </trkpt>
      <trkpt lat="50.734056" lon="7.101758">
      </trkpt>
      <trkpt lat="50.733564" lon="7.101111">
      </trkpt>
      <trkpt lat="50.733166" lon="7.100229">
      </trkpt>
      <trkpt lat="50.732522" lon="7.099696">
      </trkpt>
      <trkpt lat="50.7323" lon="7.09888">
      </trkpt>
      <trkpt lat="50.731609" lon="7.099425">
      </trkpt>
      <trkpt lat="50.731128" lon="7.098938">
      </trkpt>
      <trkpt lat="50.729749" lon="7.097762">
      </trkpt>
      <trkpt lat="50.7282" lon="7.095811">
      </trkpt>
      <trkpt lat="50.727562" lon="7.095">
      </trkpt>
      <trkpt lat="50.727031" lon="7.094314">
      </trkpt>
      <trkpt lat="50.72652" lon="7.093734">
      </trkpt>
      <trkpt lat="50.726498" lon="7.092863">
      </trkpt>
      <trkpt lat="50.725873" lon="7.091868">
      </trkpt>
      <trkpt lat="50.724947" lon="7.090719">
      </trkpt>
      <trkpt lat="50.724237" lon="7.09003">
      </trkpt>
      <trkpt lat="50.723345" lon="7.089266">
      </trkpt>
      <trkpt lat="50.722603" lon="7.08873">
      </trkpt>
      <trkpt lat="50.722065" lon="7.088373">
      </trkpt>
      <trkpt lat="50.721421" lon="7.087932">
      </trkpt>
      <trkpt lat="50.720851" lon="7.087517">
      </trkpt>
      <trkpt lat="50.720145" lon="7.087193">
      </trkpt>
      <trkpt lat="50.71944" lon="7.086374">
      </trkpt>
      <trkpt lat="50.718858" lon="7.085769">
      </trkpt>
      <trkpt lat="50.718294" lon="7.085822">
      </trkpt>
      <trkpt lat="50.717698" lon="7.085838">
      </trkpt>
      <trkpt lat="50.717011" lon="7.086158">
      </trkpt>
      <trkpt lat="50.716455" lon="7.086438">
      </trkpt>
      <trkpt lat="50.715499" lon="7.086711">
      </trkpt>
      <trkpt lat="50.714891" lon="7.086815">
      </trkpt>
      <trkpt lat="50.714204" lon="7.087492">
      </trkpt>
      <trkpt lat="50.713392" lon="7.088064">
      </trkpt>
      <trkpt lat="50.712641" lon="7.088091">
      </trkpt>
      <trkpt lat="50.712068" lon="7.087966">
      </trkpt>
      <trkpt lat="50.711483" lon="7.088014">
      </trkpt>
      <trkpt lat="50.711331" lon="7.088892">
      </trkpt>
      <trkpt lat="50.710653" lon="7.088825">
      </trkpt>
      <trkpt lat="50.710014" lon="7.088797">
      </trkpt>
      <trkpt lat="50.7094" lon="7.089337">
      </trkpt>
      <trkpt lat="50.70858" lon="7.091095">
      </trkpt>
      <trkpt lat="50.708131" lon="7.091798">
      </trkpt>
      <trkpt lat="50.706466" lon="7.09086">
      </trkpt>
      <trkpt lat="50.705813" lon="7.090543">
      </trkpt>
      <trkpt lat="50.704842" lon="7.090135">
      </trkpt>
      <trkpt lat="50.704135" lon="7.090127">
      </trkpt>
      <trkpt lat="50.703521" lon="7.090033">
      </trkpt>
      <trkpt lat="50.702504" lon="7.090629">
      </trkpt>
      <trkpt lat="50.70179" lon="7.091192">
      </trkpt>
      <trkpt lat="50.701077" lon="7.091755">
      </trkpt>
      <trkpt lat="50.700364" lon="7.092318">
      </trkpt>
      <trkpt lat="50.69965" lon="7.092881">
      </trkpt>
      <trkpt lat="50.698937" lon="7.093444">
      </trkpt>
      <trkpt lat="50.69965" lon="7.092881">
      </trkpt>
      <trkpt lat="50.700363" lon="7.092318">
      </trkpt>
      <trkpt lat="50.701077" lon="7.091755">
      </trkpt>
      <trkpt lat="50.70179" lon="7.091192">
      </trkpt>
      <trkpt lat="50.702504" lon="7.090629">
      </trkpt>
      <trkpt lat="50.703217" lon="7.090066">
      </trkpt>
      <trkpt lat="50.702504" lon="7.090629">
      </trkpt>
      <trkpt lat="50.70179" lon="7.091192">
      </trkpt>
      <trkpt lat="50.701077" lon="7.091755">
      </trkpt>
      <trkpt lat="50.700364" lon="7.092318">
      </trkpt>
      <trkpt lat="50.69965" lon="7.092881">
      </trkpt>
      <trkpt lat="50.698937" lon="7.093444">
      </trkpt>
      <trkpt lat="50.69965" lon="7.092881">
      </trkpt>
      <trkpt lat="50.700364" lon="7.092318">
      </trkpt>
      <trkpt lat="50.701077" lon="7.091755">
      </trkpt>
      <trkpt lat="50.701791" lon="7.091192">
      </trkpt>
      <trkpt lat="50.702504" lon="7.090629">
      </trkpt>
      <trkpt lat="50.703217" lon="7.090066">
      </trkpt>
      <trkpt lat="50.702504" lon="7.090629">
      </trkpt>
      <trkpt lat="50.70179" lon="7.091192">
      </trkpt>
      <trkpt lat="50.701077" lon="7.091755">
      </trkpt>
      <trkpt lat="50.700364" lon="7.092318">
      </trkpt>
      <trkpt lat="50.69965" lon="7.092881">
      </trkpt>
      <trkpt lat="50.698937" lon="7.093444">
      </trkpt>
      <trkpt lat="50.698587" lon="7.094623">
      </trkpt>
      <trkpt lat="50.698237" lon="7.095801">
      </trkpt>
      <trkpt lat="50.697887" lon="7.09698">
      </trkpt>
      <trkpt lat="50.698237" lon="7.095801">
      </trkpt>
      <trkpt lat="50.698587" lon="7.094622">
      </trkpt>
      <trkpt lat="50.698937" lon="7.093444">
      </trkpt>
      <trkpt lat="50.698587" lon="7.094623">
      </trkpt>
      <trkpt lat="50.698237" lon="7.095801">
      </trkpt>
      <trkpt lat="50.697887" lon="7.09698">
      </trkpt>
      <trkpt lat="50.698237" lon="7.095802">
      </trkpt>
      <trkpt lat="50.698587" lon="7.094623">
      </trkpt>
      <trkpt lat="50.698937" lon="7.093444">
      </trkpt>
      <trkpt lat="50.698587" lon="7.094623">
      </trkpt>
      <trkpt lat="50.698237" lon="7.095801">
      </trkpt>
      <trkpt lat="50.697887" lon="7.09698">
      </trkpt>
      <trkpt lat="50.696998" lon="7.096817">
      </trkpt>
      <trkpt lat="50.696252" lon="7.096643">
      </trkpt>
      <trkpt lat="50.695695" lon="7.09689">
      </trkpt>
      <trkpt lat="50.694915" lon="7.097783">
      </trkpt>
      <trkpt lat="50.694577" lon="7.098545">
      </trkpt>
      <trkpt lat="50.694007" lon="7.099103">
      </trkpt>
      <trkpt lat="50.693468" lon="7.099312">
      </trkpt>
      <trkpt lat="50.692703" lon="7.099231">
      </trkpt>
      <trkpt lat="50.69204" lon="7.099051">
      </trkpt>
      <trkpt lat="50.69159" lon="7.098178">
      </trkpt>
      <trkpt lat="50.691054" lon="7.096914">
      </trkpt>
      <trkpt lat="50.690619" lon="7.095979">
      </trkpt>
      <trkpt lat="50.689968" lon="7.094712">
      </trkpt>
      <trkpt lat="50.689394" lon="7.093753">
      </trkpt>
      <trkpt lat="50.688921" lon="7.09281">
      </trkpt>
      <trkpt lat="50.688638" lon="7.091996">
      </trkpt>
      <trkpt lat="50.688079" lon="7.091162">
      </trkpt>
      <trkpt lat="50.687821" lon="7.09019">
      </trkpt>
      <trkpt lat="50.686429" lon="7.087388">
      </trkpt>
      <trkpt lat="50.685855" lon="7.086231">
      </trkpt>
      <trkpt lat="50.684871" lon="7.084251">
      </trkpt>
      <trkpt lat="50.684364" lon="7.083714">
      </trkpt>
      <trkpt lat="50.683305" lon="7.083974">
      </trkpt>
      <trkpt lat="50.682625" lon="7.084286">
      </trkpt>
      <trkpt lat="50.681979" lon="7.084536">
      </trkpt>
      <trkpt lat="50.681598" lon="7.085273">
      </trkpt>
      <trkpt lat="50.681184" lon="7.085897">
      </trkpt>
      <trkpt lat="50.680644" lon="7.085788">
      </trkpt>
      <trkpt lat="50.680036" lon="7.086061">
      </trkpt>
      <trkpt lat="50.679462" lon="7.086239">
      </trkpt>
      <trkpt lat="50.678921" lon="7.086251">
      </trkpt>
      <trkpt lat="50.677444" lon="7.085232">
      </trkpt>
      <trkpt lat="50.676662" lon="7.08449">
      </trkpt>
      <trkpt lat="50.675997" lon="7.084295">
      </trkpt>
      <trkpt lat="50.674776" lon="7.083894">
      </trkpt>
      <trkpt lat="50.674091" lon="7.084173">
      </trkpt>
      <trkpt lat="50.673241" lon="7.083752">
      </trkpt>
      <trkpt lat="50.67271" lon="7.083114">
      </trkpt>
      <trkpt lat="50.672089" lon="7.082508">
      </trkpt>
      <trkpt lat="50.671639" lon="7.082021">
      </trkpt>
      <trkpt lat="50.66901" lon="7.084142">
      </trkpt>
      <trkpt lat="50.668555" lon="7.082766">
      </trkpt>
      <trkpt lat="50.66784" lon="7.080565">
      </trkpt>
      <trkpt lat="50.666528" lon="7.07652">
      </trkpt>
      <trkpt lat="50.666464" lon="7.075564">
      </trkpt>
      <trkpt lat="50.668209" lon="7.070577">
      </trkpt>
      <trkpt lat="50.6694" lon="7.067182">
      </trkpt>
      <trkpt lat="50.669686" lon="7.066404">
      </trkpt>
      <trkpt lat="50.670536" lon="7.064004">
      </trkpt>
      <trkpt lat="50.671127" lon="7.062628">
      </trkpt>
      <trkpt lat="50.671461" lon="7.061849">
      </trkpt>
      <trkpt lat="50.673252" lon="7.057829">
      </trkpt>
      <trkpt lat="50.673946" lon="7.056246">
      </trkpt>
      <trkpt lat="50.671896" lon="7.049262">
      </trkpt>
      <trkpt lat="50.669666" lon="7.041974">
      </trkpt>
      <trkpt lat="50.668559" lon="7.038361">
      </trkpt>
      <trkpt lat="50.66805" lon="7.036566">
      </trkpt>
      <trkpt lat="50.667764" lon="7.035711">
      </trkpt>
      <trkpt lat="50.665203" lon="7.027298">
      </trkpt>
      <trkpt lat="50.664494" lon="7.024858">
      </trkpt>
      <trkpt lat="50.663986" lon="7.023397">
      </trkpt>
      <trkpt lat="50.664788" lon="7.022644">
      </trkpt>
      <trkpt lat="50.665508" lon="7.022431">
      </trkpt>
      <trkpt lat="50.666289" lon="7.022099">
      </trkpt>
      <trkpt lat="50.666635" lon="7.021344">
      </trkpt>
      <trkpt lat="50.667299" lon="7.019143">
      </trkpt>
      <trkpt lat="50.667583" lon="7.018179">
      </trkpt>
      <trkpt lat="50.668704" lon="7.014381">
      </trkpt>
      <trkpt lat="50.670994" lon="7.011945">
      </trkpt>
      <trkpt lat="50.668948" lon="7.008038">
      </trkpt>
      <trkpt lat="50.66762" lon="7.006747">
      </trkpt>
      <trkpt lat="50.668205" lon="7.005678">
      </trkpt>
      <trkpt lat="50.67046" lon="7.00196">
      </trkpt>
      <trkpt lat="50.670882" lon="7.00117">
      </trkpt>
      <trkpt lat="50.672151" lon="6.998651">
      </trkpt>
      <trkpt lat="50.672793" lon="6.997612">
      </trkpt>
      <trkpt lat="50.673271" lon="6.996681">
      </trkpt>
      <trkpt lat="50.675281" lon="6.99347">
      </trkpt>
      <trkpt lat="50.676189" lon="6.992259">
      </trkpt>
      <trkpt lat="50.67694" lon="6.989325">
      </trkpt>
      <trkpt lat="50.677472" lon="6.987733">
      </trkpt>
      <trkpt lat="50.679277" lon="6.990347">
      </trkpt>
      <trkpt lat="50.681806" lon="6.991903">
      </trkpt>
      <trkpt lat="50.682589" lon="6.991141">
      </trkpt>
      <trkpt lat="50.682914" lon="6.990434">
      </trkpt>
      <trkpt lat="50.683504" lon="6.989821">
      </trkpt>
      <trkpt lat="50.685389" lon="6.988582">
      </trkpt>
      <trkpt lat="50.686709" lon="6.987024">
      </trkpt>
      <trkpt lat="50.687246" lon="6.988662">
      </trkpt>
      <trkpt lat="50.68835" lon="6.986706">
      </trkpt>
      <trkpt lat="50.689128" lon="6.985115">
      </trkpt>
      <trkpt lat="50.690025" lon="6.983235">
      </trkpt>
      <trkpt lat="50.692284" lon="6.982427">
      </trkpt>
      <trkpt lat="50.693682" lon="6.981567">
      </trkpt>
      <trkpt lat="50.69745" lon="6.977884">
      </trkpt>
      <trkpt lat="50.698978" lon="6.983341">
      </trkpt>
      <trkpt lat="50.6995" lon="6.98574">
      </trkpt>
      <trkpt lat="50.699911" lon="6.986889">
      </trkpt>
      <trkpt lat="50.700181" lon="6.988169">
      </trkpt>
      <trkpt lat="50.700568" lon="6.988864">
      </trkpt>
      <trkpt lat="50.701034" lon="6.989691">
      </trkpt>
      <trkpt lat="50.70145" lon="6.990394">
      </trkpt>
      <trkpt lat="50.702041" lon="6.99159">
      </trkpt>
      <trkpt lat="50.702773" lon="6.992719">
      </trkpt>
      <trkpt lat="50.70281" lon="6.993707">
      </trkpt>
      <trkpt lat="50.702788" lon="6.994938">
      </trkpt>
      <trkpt lat="50.703258" lon="6.995805">
      </trkpt>
      <trkpt lat="50.703658" lon="6.996411">
      </trkpt>
      <trkpt lat="50.704246" lon="6.997133">
      </trkpt>
      <trkpt lat="50.704795" lon="6.99748">
      </trkpt>
      <trkpt lat="50.70542" lon="6.997602">
      </trkpt>
      <trkpt lat="50.705876" lon="6.998114">
      </trkpt>
      <trkpt lat="50.706467" lon="6.998265">
      </trkpt>
      <trkpt lat="50.707403" lon="6.998055">
      </trkpt>
      <trkpt lat="50.708106" lon="6.998941">
      </trkpt>
      <trkpt lat="50.708503" lon="7.000161">
      </trkpt>
      <trkpt lat="50.708707" lon="6.99933">
      </trkpt>
      <trkpt lat="50.70907" lon="6.998455">
      </trkpt>
      <trkpt lat="50.709113" lon="6.997427">
      </trkpt>
      <trkpt lat="50.708918" lon="6.995678">
      </trkpt>
      <trkpt lat="50.708922" lon="6.994637">
      </trkpt>
      <trkpt lat="50.709286" lon="6.992687">
      </trkpt>
      <trkpt lat="50.708916" lon="6.991936">
      </trkpt>
      <trkpt lat="50.708147" lon="6.990386">
      </trkpt>
      <trkpt lat="50.711904" lon="6.979961">
      </trkpt>
      <trkpt lat="50.712325" lon="6.98105">
      </trkpt>
      <trkpt lat="50.712886" lon="6.982926">
      </trkpt>
      <trkpt lat="50.713205" lon="6.983719">
      </trkpt>
      <trkpt lat="50.713062" lon="6.984617">
      </trkpt>
      <trkpt lat="50.712628" lon="6.985155">
      </trkpt>
      <trkpt lat="50.712813" lon="6.987893">
      </trkpt>
      <trkpt lat="50.712797" lon="6.989153">
      </trkpt>
      <trkpt lat="50.712925" lon="6.989998">
      </trkpt>
      <trkpt lat="50.712837" lon="6.990861">
      </trkpt>
      <trkpt lat="50.713492" lon="6.993681">
      </trkpt>
      <trkpt lat="50.7139" lon="6.995142">
      </trkpt>
      <trkpt lat="50.714377" lon="6.995903">
      </trkpt>
      <trkpt lat="50.715023" lon="6.996337">
      </trkpt>
      <trkpt lat="50.715859" lon="6.997296">
      </trkpt>
      <trkpt lat="50.716282" lon="6.997976">
      </trkpt>
      <trkpt lat="50.716742" lon="6.999001">
      </trkpt>
      <trkpt lat="50.717116" lon="6.999886">
      </trkpt>
      <trkpt lat="50.717327" lon="7.001443">
      </trkpt>
      <trkpt lat="50.717609" lon="7.002795">
      </trkpt>
      <trkpt lat="50.71841" lon="7.005015">
      </trkpt>
      <trkpt lat="50.719101" lon="7.004423">
      </trkpt>
      <trkpt lat="50.71978" lon="7.003972">
      </trkpt>
      <trkpt lat="50.72021" lon="7.003196">
      </trkpt>
      <trkpt lat="50.721002" lon="7.001299">
      </trkpt>
      <trkpt lat="50.720641" lon="7.000184">
      </trkpt>
      <trkpt lat="50.720182" lon="6.999493">
      </trkpt>
      <trkpt lat="50.719535" lon="6.998562">
      </trkpt>
      <trkpt lat="50.718973" lon="6.997644">
      </trkpt>
      <trkpt lat="50.718211" lon="6.99575">
      </trkpt>
      <trkpt lat="50.718796" lon="6.994974">
      </trkpt>
      <trkpt lat="50.719367" lon="6.994651">
      </trkpt>
      <trkpt lat="50.719697" lon="6.993906">
      </trkpt>
      <trkpt lat="50.720088" lon="6.993057">
      </trkpt>
      <trkpt lat="50.720897" lon="6.99255">
      </trkpt>
      <trkpt lat="50.721443" lon="6.991921">
      </trkpt>
      <trkpt lat="50.72179" lon="6.991109">
      </trkpt>
      <trkpt lat="50.722553" lon="6.990581">
      </trkpt>
      <trkpt lat="50.723288" lon="6.989986">
      </trkpt>
      <trkpt lat="50.723494" lon="6.989183">
      </trkpt>
      <trkpt lat="50.72385" lon="6.98798">
      </trkpt>
      <trkpt lat="50.724092" lon="6.987109">
      </trkpt>
      <trkpt lat="50.72329" lon="6.985578">
      </trkpt>
      <trkpt lat="50.721965" lon="6.98453">
      </trkpt>
      <trkpt lat="50.721165" lon="6.983251">
      </trkpt>
      <trkpt lat="50.720382" lon="6.982409">
      </trkpt>
      <trkpt lat="50.719897" lon="6.981132">
      </trkpt>
      <trkpt lat="50.719229" lon="6.97969">
      </trkpt>
      <trkpt lat="50.718812" lon="6.978434">
      </trkpt>
      <trkpt lat="50.718437" lon="6.977397">
      </trkpt>
      <trkpt lat="50.718296" lon="6.97643">
      </trkpt>
      <trkpt lat="50.717731" lon="6.975003">
      </trkpt>
      <trkpt lat="50.716385" lon="6.973048">
      </trkpt>
      <trkpt lat="50.715808" lon="6.972488">
      </trkpt>
      <trkpt lat="50.714906" lon="6.971997">
      </trkpt>
      <trkpt lat="50.71422" lon="6.971056">
      </trkpt>
      <trkpt lat="50.713416" lon="6.970301">
      </trkpt>
      <trkpt lat="50.712531" lon="6.969725">
      </trkpt>
      <trkpt lat="50.711722" lon="6.968029">
      </trkpt>
      <trkpt lat="50.71096" lon="6.965562">
      </trkpt>
      <trkpt lat="50.711755" lon="6.965828">
      </trkpt>
      <trkpt lat="50.712393" lon="6.965751">
      </trkpt>
      <trkpt lat="50.713179" lon="6.966193">
      </trkpt>
      <trkpt lat="50.713681" lon="6.966639">
      </trkpt>
      <trkpt lat="50.714242" lon="6.967049">
      </trkpt>
      <trkpt lat="50.714792" lon="6.967641">
      </trkpt>
      <trkpt lat="50.715363" lon="6.968272">
      </trkpt>
      <trkpt lat="50.715869" lon="6.96911">
      </trkpt>
      <trkpt lat="50.716481" lon="6.969509">
      </trkpt>
      <trkpt lat="50.717155" lon="6.969579">
      </trkpt>
      <trkpt lat="50.717847" lon="6.969616">
      </trkpt>
      <trkpt lat="50.718497" lon="6.969951">
      </trkpt>
      <trkpt lat="50.718977" lon="6.970399">
      </trkpt>
      <trkpt lat="50.719677" lon="6.970653">
      </trkpt>
      <trkpt lat="50.720365" lon="6.97086">
      </trkpt>
      <trkpt lat="50.720968" lon="6.971251">
      </trkpt>
      <trkpt lat="50.722205" lon="6.971691">
      </trkpt>
      <trkpt lat="50.723922" lon="6.972173">
      </trkpt>
      <trkpt lat="50.724676" lon="6.97234">
      </trkpt>
      <trkpt lat="50.725643" lon="6.972646">
      </trkpt>
      <trkpt lat="50.725956" lon="6.973473">
      </trkpt>
      <trkpt lat="50.726374" lon="6.974342">
      </trkpt>
      <trkpt lat="50.727543" lon="6.976206">
      </trkpt>
      <trkpt lat="50.728333" lon="6.977754">
      </trkpt>
      <trkpt lat="50.729249" lon="6.979022">
      </trkpt>
      <trkpt lat="50.730331" lon="6.980151">
      </trkpt>
      <trkpt lat="50.731446" lon="6.981011">
      </trkpt>
      <trkpt lat="50.733715" lon="6.977493">
      </trkpt>
      <trkpt lat="50.732966" lon="6.97708">
      </trkpt>
      <trkpt lat="50.732144" lon="6.976005">
      </trkpt>
      <trkpt lat="50.731647" lon="6.975097">
      </trkpt>
      <trkpt lat="50.73135" lon="6.974285">
      </trkpt>
      <trkpt lat="50.730637" lon="6.973246">
      </trkpt>
      <trkpt lat="50.730295" lon="6.972344">
      </trkpt>
      <trkpt lat="50.729897" lon="6.971711">
      </trkpt>
      <trkpt lat="50.729313" lon="6.971361">
      </trkpt>
      <trkpt lat="50.728583" lon="6.971338">
      </trkpt>
      <trkpt lat="50.727748" lon="6.971553">
      </trkpt>
      <trkpt lat="50.727094" lon="6.971813">
      </trkpt>
      <trkpt lat="50.725994" lon="6.972299">
      </trkpt>
      <trkpt lat="50.725842" lon="6.971082">
      </trkpt>
      <trkpt lat="50.725726" lon="6.970087">
      </trkpt>
      <trkpt lat="50.725441" lon="6.968769">
      </trkpt>
      <trkpt lat="50.725046" lon="6.967813">
      </trkpt>
      <trkpt lat="50.723622" lon="6.966761">
      </trkpt>
      <trkpt lat="50.722235" lon="6.965606">
      </trkpt>
      <trkpt lat="50.721572" lon="6.965287">
      </trkpt>
      <trkpt lat="50.720942" lon="6.965226">
      </trkpt>
      <trkpt lat="50.720017" lon="6.964928">
      </trkpt>
      <trkpt lat="50.718429" lon="6.963572">
      </trkpt>
      <trkpt lat="50.719062" lon="6.960539">
      </trkpt>
      <trkpt lat="50.719441" lon="6.959377">
      </trkpt>
      <trkpt lat="50.719833" lon="6.958394">
      </trkpt>
      <trkpt lat="50.72015" lon="6.957407">
      </trkpt>
      <trkpt lat="50.72076" lon="6.955798">
      </trkpt>
      <trkpt lat="50.724827" lon="6.960797">
      </trkpt>
      <trkpt lat="50.725625" lon="6.961809">
      </trkpt>
      <trkpt lat="50.726284" lon="6.961641">
      </trkpt>
      <trkpt lat="50.726919" lon="6.962589">
      </trkpt>
      <trkpt lat="50.727567" lon="6.963113">
      </trkpt>
      <trkpt lat="50.728137" lon="6.96229">
      </trkpt>
      <trkpt lat="50.729522" lon="6.963188">
      </trkpt>
      <trkpt lat="50.729913" lon="6.964096">
      </trkpt>
      <trkpt lat="50.73082" lon="6.965315">
      </trkpt>
      <trkpt lat="50.73097" lon="6.966492">
      </trkpt>
      <trkpt lat="50.731828" lon="6.967716">
      </trkpt>
      <trkpt lat="50.732258" lon="6.969554">
      </trkpt>
      <trkpt lat="50.733134" lon="6.971081">
      </trkpt>
      <trkpt lat="50.733433" lon="6.971856">
      </trkpt>
      <trkpt lat="50.734728" lon="6.972627">
      </trkpt>
      <trkpt lat="50.735873" lon="6.972849">
      </trkpt>
      <trkpt lat="50.736733" lon="6.973519">
      </trkpt>
      <trkpt lat="50.73671" lon="6.974697">
      </trkpt>
      <trkpt lat="50.736553" lon="6.975581">
      </trkpt>
      <trkpt lat="50.735963" lon="6.975766">
      </trkpt>
      <trkpt lat="50.735581" lon="6.976895">
      </trkpt>
      <trkpt lat="50.736158" lon="6.97785">
      </trkpt>
      <trkpt lat="50.736688" lon="6.979014">
      </trkpt>
      <trkpt lat="50.737302" lon="6.979447">
      </trkpt>
      <trkpt lat="50.738256" lon="6.979956">
      </trkpt>
      <trkpt lat="50.740014" lon="6.981085">
      </trkpt>
      <trkpt lat="50.740771" lon="6.981502">
      </trkpt>
      <trkpt lat="50.74163" lon="6.982332">
      </trkpt>
      <trkpt lat="50.742293" lon="6.983567">
      </trkpt>
      <trkpt lat="50.742994" lon="6.984591">
      </trkpt>
      <trkpt lat="50.744011" lon="6.986143">
      </trkpt>
      <trkpt lat="50.744503" lon="6.98728">
      </trkpt>
      <trkpt lat="50.742891" lon="6.99044">
      </trkpt>
      <trkpt lat="50.742516" lon="6.991205">
      </trkpt>
      <trkpt lat="50.74196" lon="6.99388">
      </trkpt>
      <trkpt lat="50.741488" lon="6.99587">
      </trkpt>
      <trkpt lat="50.741099" lon="6.996542">
      </trkpt>
      <trkpt lat="50.74091" lon="6.997721">
      </trkpt>
      <trkpt lat="50.741009" lon="6.998649">
      </trkpt>
      <trkpt lat="50.741453" lon="6.999827">
      </trkpt>
      <trkpt lat="50.741636" lon="7.000903">
      </trkpt>
      <trkpt lat="50.741493" lon="7.002001">
      </trkpt>
      <trkpt lat="50.741029" lon="7.002844">
      </trkpt>
      <trkpt lat="50.74079" lon="7.004187">
      </trkpt>
      <trkpt lat="50.740255" lon="7.005234">
      </trkpt>
      <trkpt lat="50.7395" lon="7.005867">
      </trkpt>
      <trkpt lat="50.739853" lon="7.007265">
      </trkpt>
      <trkpt lat="50.740105" lon="7.008513">
      </trkpt>
      <trkpt lat="50.73937" lon="7.009093">
      </trkpt>
      <trkpt lat="50.73932" lon="7.010092">
      </trkpt>
      <trkpt lat="50.739196" lon="7.011289">
      </trkpt>
      <trkpt lat="50.73851" lon="7.011562">
      </trkpt>
      <trkpt lat="50.737789" lon="7.011716">
      </trkpt>
      <trkpt lat="50.737382" lon="7.012482">
      </trkpt>
      <trkpt lat="50.736698" lon="7.013792">
      </trkpt>
      <trkpt lat="50.73615" lon="7.014891">
      </trkpt>
      <trkpt lat="50.73602" lon="7.016582">
      </trkpt>
      <trkpt lat="50.735988" lon="7.017578">
      </trkpt>
      <trkpt lat="50.735894" lon="7.020086">
      </trkpt>
      <trkpt lat="50.735782" lon="7.021043">
      </trkpt>
      <trkpt lat="50.73559" lon="7.021951">
      </trkpt>
      <trkpt lat="50.735321" lon="7.022803">
      </trkpt>
      <trkpt lat="50.734707" lon="7.024382">
      </trkpt>
      <trkpt lat="50.734336" lon="7.025832">
      </trkpt>
      <trkpt lat="50.733998" lon="7.0274">
      </trkpt>
      <trkpt lat="50.733775" lon="7.028897">
      </trkpt>
      <trkpt lat="50.733689" lon="7.030276">
      </trkpt>
      <trkpt lat="50.73375" lon="7.032018">
      </trkpt>
      <trkpt lat="50.733636" lon="7.033024">
      </trkpt>
      <trkpt lat="50.733979" lon="7.033779">
      </trkpt>
      <trkpt lat="50.734249" lon="7.035284">
      </trkpt>
      <trkpt lat="50.734678" lon="7.037236">
      </trkpt>
      <trkpt lat="50.734899" lon="7.038218">
      </trkpt>
      <trkpt lat="50.735201" lon="7.039637">
      </trkpt>
      <trkpt lat="50.735414" lon="7.041312">
      </trkpt>
      <trkpt lat="50.735519" lon="7.042248">
      </trkpt>
      <trkpt lat="50.735711" lon="7.044036">
      </trkpt>
      <trkpt lat="50.735766" lon="7.04525">
      </trkpt>
      <trkpt lat="50.735798" lon="7.046485">
      </trkpt>
      <trkpt lat="50.736068" lon="7.047499">
      </trkpt>
      <trkpt lat="50.736036" lon="7.048527">
      </trkpt>
      <trkpt lat="50.735979" lon="7.049631">
      </trkpt>
      <trkpt lat="50.735975" lon="7.050569">
      </trkpt>
      <trkpt lat="50.73594" lon="7.051443">
      </trkpt>
      <trkpt lat="50.735892" lon="7.052446">
      </trkpt>
      <trkpt lat="50.735854" lon="7.05354">
      </trkpt>
      <trkpt lat="50.735816" lon="7.054655">
      </trkpt>
      <trkpt lat="50.735782" lon="7.055724">
      </trkpt>
      <trkpt lat="50.735749" lon="7.056742">
      </trkpt>
      <trkpt lat="50.735699" lon="7.057977">
      </trkpt>
      <trkpt lat="50.735633" lon="7.059135">
      </trkpt>
      <trkpt lat="50.735437" lon="7.060251">
      </trkpt>
      <trkpt lat="50.735157" lon="7.061175">
      </trkpt>
      <trkpt lat="50.734711" lon="7.062383">
      </trkpt>
      <trkpt lat="50.734173" lon="7.063569">
      </trkpt>
      <trkpt lat="50.733782" lon="7.064375">
      </trkpt>
      <trkpt lat="50.733159" lon="7.065644">
      </trkpt>
      <trkpt lat="50.732851" lon="7.066344">
      </trkpt>
      <trkpt lat="50.732538" lon="7.067138">
      </trkpt>
      <trkpt lat="50.731994" lon="7.068522">
      </trkpt>
      <trkpt lat="50.731662" lon="7.069253">
      </trkpt>
      <trkpt lat="50.731259" lon="7.069927">
      </trkpt>
      <trkpt lat="50.730855" lon="7.070554">
      </trkpt>
      <trkpt lat="50.73037" lon="7.071307">
      </trkpt>
      <trkpt lat="50.729703" lon="7.072156">
      </trkpt>
      <trkpt lat="50.728731" lon="7.073123">
      </trkpt>
      <trkpt lat="50.728246" lon="7.073506">
      </trkpt>
      <trkpt lat="50.727764" lon="7.0741">
      </trkpt>
      <trkpt lat="50.728266" lon="7.075263">
      </trkpt>
      <trkpt lat="50.728681" lon="7.076226">
      </trkpt>
      <trkpt lat="50.729035" lon="7.077064">
      </trkpt>
      <trkpt lat="50.72929" lon="7.077872">
      </trkpt>
      <trkpt lat="50.729786" lon="7.078351">
      </trkpt>
      <trkpt lat="50.73016" lon="7.079083">
      </trkpt>
      <trkpt lat="50.730591" lon="7.079806">
      </trkpt>
      <trkpt lat="50.731068" lon="7.08051">
      </trkpt>
      <trkpt lat="50.731701" lon="7.081398">
      </trkpt>
      <trkpt lat="50.732146" lon="7.082082">
      </trkpt>
      <trkpt lat="50.732454" lon="7.082926">
      </trkpt>
      <trkpt lat="50.732727" lon="7.083788">
      </trkpt>
      <trkpt lat="50.733343" lon="7.085141">
      </trkpt>
      <trkpt lat="50.73371" lon="7.085827">
      </trkpt>
    </trkseg>
  </trk>
</gpx>