<?xml version="1.0" encoding="UTF-8"?>
<gpx xmlns="http://www.topografix.com/GPX/1/1" xmlns:xsi="http://www.w3.org/2001/XMLSchema-instance" xsi:schemaLocation="http://www.topografix.com/GPX/1/1 http://www.topografix.com/GPX/1/1/gpx.xsd" version="1.1" creator="gpx.py -- https://github.com/tkrajina/gpxpy">
  <metadata>
    <name>003</name>
  </metadata>
  <trk>
    <name>003</name>
    <trkseg>
      <trkpt lat="50.734326" lon="7.103988">
      </trkpt>
      <trkpt lat="50.734816" lon="7.10298">
      </trkpt>
      <trkpt lat="50.734437" lon="7.102231">
      </trkpt>
      <trkpt lat="50.733698" lon="7.101282">
      </trkpt>
      <trkpt lat="50.733282" lon="7.100581">
      </trkpt>
      <trkpt lat="50.732864" lon="7.099906">
      </trkpt>
      <trkpt lat="50.732297" lon="7.099563">
      </trkpt>
      <trkpt lat="50.732411" lon="7.098517">
      </trkpt>
      <trkpt lat="50.732445" lon="7.09708">
      </trkpt>
      <trkpt lat="50.732601" lon="7.096185">
      </trkpt>
      <trkpt lat="50.732809" lon="7.095334">
      </trkpt>
      <trkpt lat="50.732647" lon="7.094429">
      </trkpt>
      <trkpt lat="50.733027" lon="7.093275">
      </trkpt>
      <trkpt lat="50.732791" lon="7.092437">
      </trkpt>
      <trkpt lat="50.732414" lon="7.091073">
      </trkpt>
      <trkpt lat="50.732811" lon="7.09004">
      </trkpt>
      <trkpt lat="50.733164" lon="7.08879">
      </trkpt>
      <trkpt lat="50.734007" lon="7.087659">
      </trkpt>
      <trkpt lat="50.733859" lon="7.086625">
      </trkpt>
      <trkpt lat="50.733675" lon="7.085758">
      </trkpt>
      <trkpt lat="50.733022" lon="7.084477">
      </trkpt>
      <trkpt lat="50.732647" lon="7.083299">
      </trkpt>
      <trkpt lat="50.732391" lon="7.082385">
      </trkpt>
      <trkpt lat="50.731974" lon="7.081636">
      </trkpt>
      <trkpt lat="50.731237" lon="7.080571">
      </trkpt>
      <trkpt lat="50.730727" lon="7.079808">
      </trkpt>
      <trkpt lat="50.730257" lon="7.07896">
      </trkpt>
      <trkpt lat="50.72983" lon="7.077902">
      </trkpt>
      <trkpt lat="50.729666" lon="7.077077">
      </trkpt>
      <trkpt lat="50.729082" lon="7.076491">
      </trkpt>
      <trkpt lat="50.728627" lon="7.074658">
      </trkpt>
      <trkpt lat="50.728372" lon="7.073579">
      </trkpt>
      <trkpt lat="50.728899" lon="7.072972">
      </trkpt>
      <trkpt lat="50.729703" lon="7.072156">
      </trkpt>
      <trkpt lat="50.730294" lon="7.071425">
      </trkpt>
      <trkpt lat="50.730797" lon="7.070643">
      </trkpt>
      <trkpt lat="50.731189" lon="7.070033">
      </trkpt>
      <trkpt lat="50.730731" lon="7.06926">
      </trkpt>
      <trkpt lat="50.73036" lon="7.06864">
      </trkpt>
      <trkpt lat="50.730217" lon="7.06764">
      </trkpt>
      <trkpt lat="50.730066" lon="7.066368">
      </trkpt>
      <trkpt lat="50.729965" lon="7.065503">
      </trkpt>
      <trkpt lat="50.729733" lon="7.063161">
      </trkpt>
      <trkpt lat="50.729379" lon="7.060553">
      </trkpt>
      <trkpt lat="50.729159" lon="7.05943">
      </trkpt>
      <trkpt lat="50.729037" lon="7.057268">
      </trkpt>
      <trkpt lat="50.728956" lon="7.054797">
      </trkpt>
      <trkpt lat="50.728923" lon="7.051328">
      </trkpt>
      <trkpt lat="50.728977" lon="7.049666">
      </trkpt>
      <trkpt lat="50.728936" lon="7.048384">
      </trkpt>
      <trkpt lat="50.728937" lon="7.047526">
      </trkpt>
      <trkpt lat="50.728417" lon="7.046615">
      </trkpt>
      <trkpt lat="50.728336" lon="7.044582">
      </trkpt>
      <trkpt lat="50.728566" lon="7.042969">
      </trkpt>
      <trkpt lat="50.727935" lon="7.041853">
      </trkpt>
      <trkpt lat="50.727471" lon="7.040162">
      </trkpt>
      <trkpt lat="50.727111" lon="7.039116">
      </trkpt>
      <trkpt lat="50.726774" lon="7.037907">
      </trkpt>
      <trkpt lat="50.726608" lon="7.03668">
      </trkpt>
      <trkpt lat="50.726352" lon="7.035724">
      </trkpt>
      <trkpt lat="50.725848" lon="7.034459">
      </trkpt>
      <trkpt lat="50.726212" lon="7.033722">
      </trkpt>
      <trkpt lat="50.727071" lon="7.032173">
      </trkpt>
      <trkpt lat="50.727683" lon="7.030622">
      </trkpt>
      <trkpt lat="50.727" lon="7.030116">
      </trkpt>
      <trkpt lat="50.726077" lon="7.029603">
      </trkpt>
      <trkpt lat="50.726208" lon="7.027984">
      </trkpt>
      <trkpt lat="50.72625" lon="7.027069">
      </trkpt>
      <trkpt lat="50.726222" lon="7.026129">
      </trkpt>
      <trkpt lat="50.726336" lon="7.024397">
      </trkpt>
      <trkpt lat="50.726595" lon="7.023501">
      </trkpt>
      <trkpt lat="50.726286" lon="7.022693">
      </trkpt>
      <trkpt lat="50.72612" lon="7.021569">
      </trkpt>
      <trkpt lat="50.7259" lon="7.019925">
      </trkpt>
      <trkpt lat="50.7255" lon="7.019241">
      </trkpt>
      <trkpt lat="50.725436" lon="7.018266">
      </trkpt>
      <trkpt lat="50.725273" lon="7.017151">
      </trkpt>
      <trkpt lat="50.724989" lon="7.016383">
      </trkpt>
      <trkpt lat="50.725246" lon="7.015536">
      </trkpt>
      <trkpt lat="50.725874" lon="7.013973">
      </trkpt>
      <trkpt lat="50.725766" lon="7.013056">
      </trkpt>
      <trkpt lat="50.725146" lon="7.012158">
      </trkpt>
      <trkpt lat="50.724649" lon="7.01164">
      </trkpt>
      <trkpt lat="50.724071" lon="7.010837">
      </trkpt>
      <trkpt lat="50.723779" lon="7.010075">
      </trkpt>
      <trkpt lat="50.723337" lon="7.008745">
      </trkpt>
      <trkpt lat="50.722772" lon="7.008151">
      </trkpt>
      <trkpt lat="50.722241" lon="7.007994">
      </trkpt>
      <trkpt lat="50.721338" lon="7.007921">
      </trkpt>
      <trkpt lat="50.721458" lon="7.006831">
      </trkpt>
      <trkpt lat="50.721583" lon="7.005681">
      </trkpt>
      <trkpt lat="50.721289" lon="7.004471">
      </trkpt>
      <trkpt lat="50.720768" lon="7.003372">
      </trkpt>
      <trkpt lat="50.72021" lon="7.003196">
      </trkpt>
      <trkpt lat="50.71978" lon="7.003972">
      </trkpt>
      <trkpt lat="50.719101" lon="7.004423">
      </trkpt>
      <trkpt lat="50.71841" lon="7.005015">
      </trkpt>
      <trkpt lat="50.717609" lon="7.002795">
      </trkpt>
      <trkpt lat="50.717375" lon="7.001755">
      </trkpt>
      <trkpt lat="50.717261" lon="7.000373">
      </trkpt>
      <trkpt lat="50.716742" lon="6.999001">
      </trkpt>
      <trkpt lat="50.716282" lon="6.997976">
      </trkpt>
      <trkpt lat="50.715859" lon="6.997296">
      </trkpt>
      <trkpt lat="50.715023" lon="6.996337">
      </trkpt>
      <trkpt lat="50.714377" lon="6.995903">
      </trkpt>
      <trkpt lat="50.7139" lon="6.995142">
      </trkpt>
      <trkpt lat="50.713634" lon="6.994337">
      </trkpt>
      <trkpt lat="50.712923" lon="6.991573">
      </trkpt>
      <trkpt lat="50.712812" lon="6.990593">
      </trkpt>
      <trkpt lat="50.712903" lon="6.989745">
      </trkpt>
      <trkpt lat="50.712613" lon="6.988585">
      </trkpt>
      <trkpt lat="50.712795" lon="6.987651">
      </trkpt>
      <trkpt lat="50.712621" lon="6.98527">
      </trkpt>
      <trkpt lat="50.713062" lon="6.984617">
      </trkpt>
      <trkpt lat="50.713205" lon="6.983719">
      </trkpt>
      <trkpt lat="50.712886" lon="6.982926">
      </trkpt>
      <trkpt lat="50.712573" lon="6.981763">
      </trkpt>
      <trkpt lat="50.712159" lon="6.980395">
      </trkpt>
      <trkpt lat="50.709453" lon="6.986562">
      </trkpt>
      <trkpt lat="50.708066" lon="6.990299">
      </trkpt>
      <trkpt lat="50.705553" lon="6.997302">
      </trkpt>
      <trkpt lat="50.704795" lon="6.99748">
      </trkpt>
      <trkpt lat="50.704246" lon="6.997133">
      </trkpt>
      <trkpt lat="50.703658" lon="6.996411">
      </trkpt>
      <trkpt lat="50.703258" lon="6.995805">
      </trkpt>
      <trkpt lat="50.702788" lon="6.994938">
      </trkpt>
      <trkpt lat="50.70281" lon="6.993707">
      </trkpt>
      <trkpt lat="50.702773" lon="6.992719">
      </trkpt>
      <trkpt lat="50.702041" lon="6.99159">
      </trkpt>
      <trkpt lat="50.70145" lon="6.990394">
      </trkpt>
      <trkpt lat="50.701034" lon="6.989691">
      </trkpt>
      <trkpt lat="50.70067" lon="6.988944">
      </trkpt>
      <trkpt lat="50.700181" lon="6.988169">
      </trkpt>
      <trkpt lat="50.699911" lon="6.986889">
      </trkpt>
      <trkpt lat="50.699579" lon="6.985817">
      </trkpt>
      <trkpt lat="50.698936" lon="6.983487">
      </trkpt>
      <trkpt lat="50.696002" lon="6.986439">
      </trkpt>
      <trkpt lat="50.695057" lon="6.987381">
      </trkpt>
      <trkpt lat="50.69537" lon="6.988582">
      </trkpt>
      <trkpt lat="50.695312" lon="6.989989">
      </trkpt>
      <trkpt lat="50.696146" lon="6.991359">
      </trkpt>
      <trkpt lat="50.696412" lon="6.992104">
      </trkpt>
      <trkpt lat="50.696702" lon="6.993137">
      </trkpt>
      <trkpt lat="50.697057" lon="6.993876">
      </trkpt>
      <trkpt lat="50.697274" lon="6.995479">
      </trkpt>
      <trkpt lat="50.697655" lon="6.996132">
      </trkpt>
      <trkpt lat="50.696953" lon="6.996528">
      </trkpt>
      <trkpt lat="50.696352" lon="6.996908">
      </trkpt>
      <trkpt lat="50.695796" lon="6.997419">
      </trkpt>
      <trkpt lat="50.695386" lon="6.998187">
      </trkpt>
      <trkpt lat="50.694611" lon="6.997894">
      </trkpt>
      <trkpt lat="50.694023" lon="6.998335">
      </trkpt>
      <trkpt lat="50.693332" lon="6.998882">
      </trkpt>
      <trkpt lat="50.692593" lon="6.998786">
      </trkpt>
      <trkpt lat="50.692283" lon="6.997832">
      </trkpt>
      <trkpt lat="50.691539" lon="6.997139">
      </trkpt>
      <trkpt lat="50.691092" lon="6.99624">
      </trkpt>
      <trkpt lat="50.690765" lon="6.995537">
      </trkpt>
      <trkpt lat="50.690296" lon="6.994025">
      </trkpt>
      <trkpt lat="50.690103" lon="6.993122">
      </trkpt>
      <trkpt lat="50.689504" lon="6.993032">
      </trkpt>
      <trkpt lat="50.688967" lon="6.993556">
      </trkpt>
      <trkpt lat="50.687311" lon="6.995287">
      </trkpt>
      <trkpt lat="50.686641" lon="6.995339">
      </trkpt>
      <trkpt lat="50.6859" lon="6.994998">
      </trkpt>
      <trkpt lat="50.685355" lon="6.994833">
      </trkpt>
      <trkpt lat="50.684741" lon="6.993944">
      </trkpt>
      <trkpt lat="50.684538" lon="6.992082">
      </trkpt>
      <trkpt lat="50.683773" lon="6.991936">
      </trkpt>
      <trkpt lat="50.682748" lon="6.99174">
      </trkpt>
      <trkpt lat="50.681946" lon="6.991849">
      </trkpt>
      <trkpt lat="50.682092" lon="6.99307">
      </trkpt>
      <trkpt lat="50.681997" lon="6.99407">
      </trkpt>
      <trkpt lat="50.682041" lon="6.994971">
      </trkpt>
      <trkpt lat="50.681853" lon="6.995799">
      </trkpt>
      <trkpt lat="50.681713" lon="6.996824">
      </trkpt>
      <trkpt lat="50.681423" lon="6.997728">
      </trkpt>
      <trkpt lat="50.680978" lon="6.999166">
      </trkpt>
      <trkpt lat="50.680705" lon="6.999917">
      </trkpt>
      <trkpt lat="50.680249" lon="7.0006">
      </trkpt>
      <trkpt lat="50.681075" lon="7.001586">
      </trkpt>
      <trkpt lat="50.679202" lon="7.003596">
      </trkpt>
      <trkpt lat="50.677448" lon="7.005379">
      </trkpt>
      <trkpt lat="50.675798" lon="7.007083">
      </trkpt>
      <trkpt lat="50.67496" lon="7.007902">
      </trkpt>
      <trkpt lat="50.673179" lon="7.009742">
      </trkpt>
      <trkpt lat="50.672166" lon="7.01079">
      </trkpt>
      <trkpt lat="50.671126" lon="7.011812">
      </trkpt>
      <trkpt lat="50.668948" lon="7.008038">
      </trkpt>
      <trkpt lat="50.66762" lon="7.006747">
      </trkpt>
      <trkpt lat="50.666827" lon="7.007977">
      </trkpt>
      <trkpt lat="50.666184" lon="7.008896">
      </trkpt>
      <trkpt lat="50.665078" lon="7.01069">
      </trkpt>
      <trkpt lat="50.664229" lon="7.011939">
      </trkpt>
      <trkpt lat="50.663624" lon="7.012939">
      </trkpt>
      <trkpt lat="50.6631" lon="7.014519">
      </trkpt>
      <trkpt lat="50.662728" lon="7.015811">
      </trkpt>
      <trkpt lat="50.662441" lon="7.016672">
      </trkpt>
      <trkpt lat="50.662127" lon="7.01738">
      </trkpt>
      <trkpt lat="50.660749" lon="7.018648">
      </trkpt>
      <trkpt lat="50.660138" lon="7.019506">
      </trkpt>
      <trkpt lat="50.659333" lon="7.017714">
      </trkpt>
      <trkpt lat="50.658078" lon="7.01811">
      </trkpt>
      <trkpt lat="50.655648" lon="7.019361">
      </trkpt>
      <trkpt lat="50.65257" lon="7.020778">
      </trkpt>
      <trkpt lat="50.653892" lon="7.024296">
      </trkpt>
      <trkpt lat="50.653933" lon="7.025722">
      </trkpt>
      <trkpt lat="50.651572" lon="7.026866">
      </trkpt>
      <trkpt lat="50.648661" lon="7.02753">
      </trkpt>
      <trkpt lat="50.647397" lon="7.028743">
      </trkpt>
      <trkpt lat="50.647917" lon="7.029373">
      </trkpt>
      <trkpt lat="50.648338" lon="7.029914">
      </trkpt>
      <trkpt lat="50.649566" lon="7.030585">
      </trkpt>
      <trkpt lat="50.649714" lon="7.03172">
      </trkpt>
      <trkpt lat="50.650212" lon="7.032273">
      </trkpt>
      <trkpt lat="50.650667" lon="7.033652">
      </trkpt>
      <trkpt lat="50.650854" lon="7.035237">
      </trkpt>
      <trkpt lat="50.651142" lon="7.036194">
      </trkpt>
      <trkpt lat="50.651434" lon="7.037174">
      </trkpt>
      <trkpt lat="50.65181" lon="7.038807">
      </trkpt>
      <trkpt lat="50.652121" lon="7.040681">
      </trkpt>
      <trkpt lat="50.652448" lon="7.041488">
      </trkpt>
      <trkpt lat="50.653919" lon="7.042993">
      </trkpt>
      <trkpt lat="50.654443" lon="7.04353">
      </trkpt>
      <trkpt lat="50.653203" lon="7.046842">
      </trkpt>
      <trkpt lat="50.65555" lon="7.048978">
      </trkpt>
      <trkpt lat="50.656153" lon="7.049528">
      </trkpt>
      <trkpt lat="50.655844" lon="7.050342">
      </trkpt>
      <trkpt lat="50.655706" lon="7.051622">
      </trkpt>
      <trkpt lat="50.655087" lon="7.056757">
      </trkpt>
      <trkpt lat="50.652888" lon="7.05558">
      </trkpt>
      <trkpt lat="50.65177" lon="7.054981">
      </trkpt>
      <trkpt lat="50.648094" lon="7.052977">
      </trkpt>
      <trkpt lat="50.644115" lon="7.050776">
      </trkpt>
      <trkpt lat="50.64211" lon="7.049723">
      </trkpt>
      <trkpt lat="50.641609" lon="7.050385">
      </trkpt>
      <trkpt lat="50.639272" lon="7.053897">
      </trkpt>
      <trkpt lat="50.63686" lon="7.057446">
      </trkpt>
      <trkpt lat="50.636106" lon="7.058427">
      </trkpt>
      <trkpt lat="50.63674" lon="7.058681">
      </trkpt>
      <trkpt lat="50.636181" lon="7.058735">
      </trkpt>
      <trkpt lat="50.635384" lon="7.058255">
      </trkpt>
      <trkpt lat="50.63477" lon="7.057849">
      </trkpt>
      <trkpt lat="50.634888" lon="7.056775">
      </trkpt>
      <trkpt lat="50.63466" lon="7.055229">
      </trkpt>
      <trkpt lat="50.634022" lon="7.055473">
      </trkpt>
      <trkpt lat="50.633395" lon="7.055713">
      </trkpt>
      <trkpt lat="50.632735" lon="7.055951">
      </trkpt>
      <trkpt lat="50.632098" lon="7.056176">
      </trkpt>
      <trkpt lat="50.631446" lon="7.0564">
      </trkpt>
      <trkpt lat="50.631071" lon="7.057116">
      </trkpt>
      <trkpt lat="50.630479" lon="7.05748">
      </trkpt>
      <trkpt lat="50.629919" lon="7.05747">
      </trkpt>
      <trkpt lat="50.629377" lon="7.057507">
      </trkpt>
      <trkpt lat="50.629113" lon="7.058404">
      </trkpt>
      <trkpt lat="50.629263" lon="7.059322">
      </trkpt>
      <trkpt lat="50.629857" lon="7.059646">
      </trkpt>
      <trkpt lat="50.630359" lon="7.061111">
      </trkpt>
      <trkpt lat="50.629792" lon="7.061258">
      </trkpt>
      <trkpt lat="50.629775" lon="7.062138">
      </trkpt>
      <trkpt lat="50.629388" lon="7.063116">
      </trkpt>
      <trkpt lat="50.628724" lon="7.064541">
      </trkpt>
      <trkpt lat="50.62825" lon="7.065305">
      </trkpt>
      <trkpt lat="50.627854" lon="7.066569">
      </trkpt>
      <trkpt lat="50.627174" lon="7.068853">
      </trkpt>
      <trkpt lat="50.626955" lon="7.070033">
      </trkpt>
      <trkpt lat="50.627013" lon="7.071286">
      </trkpt>
      <trkpt lat="50.626838" lon="7.072225">
      </trkpt>
      <trkpt lat="50.627422" lon="7.073228">
      </trkpt>
      <trkpt lat="50.627843" lon="7.074358">
      </trkpt>
      <trkpt lat="50.628227" lon="7.075217">
      </trkpt>
      <trkpt lat="50.628893" lon="7.07724">
      </trkpt>
      <trkpt lat="50.629112" lon="7.078315">
      </trkpt>
      <trkpt lat="50.629495" lon="7.079127">
      </trkpt>
      <trkpt lat="50.629938" lon="7.0799">
      </trkpt>
      <trkpt lat="50.629396" lon="7.080556">
      </trkpt>
      <trkpt lat="50.629334" lon="7.082168">
      </trkpt>
      <trkpt lat="50.629968" lon="7.082783">
      </trkpt>
      <trkpt lat="50.630811" lon="7.084313">
      </trkpt>
      <trkpt lat="50.631521" lon="7.086729">
      </trkpt>
      <trkpt lat="50.631834" lon="7.087519">
      </trkpt>
      <trkpt lat="50.632284" lon="7.088785">
      </trkpt>
      <trkpt lat="50.633195" lon="7.089706">
      </trkpt>
      <trkpt lat="50.63373" lon="7.08955">
      </trkpt>
      <trkpt lat="50.632863" lon="7.092796">
      </trkpt>
      <trkpt lat="50.632684" lon="7.093651">
      </trkpt>
      <trkpt lat="50.632698" lon="7.094678">
      </trkpt>
      <trkpt lat="50.633284" lon="7.095269">
      </trkpt>
      <trkpt lat="50.633812" lon="7.095834">
      </trkpt>
      <trkpt lat="50.633098" lon="7.096472">
      </trkpt>
      <trkpt lat="50.633079" lon="7.099205">
      </trkpt>
      <trkpt lat="50.633356" lon="7.100895">
      </trkpt>
      <trkpt lat="50.632012" lon="7.101609">
      </trkpt>
      <trkpt lat="50.632305" lon="7.10337">
      </trkpt>
      <trkpt lat="50.632587" lon="7.104831">
      </trkpt>
      <trkpt lat="50.632744" lon="7.106908">
      </trkpt>
      <trkpt lat="50.632861" lon="7.108767">
      </trkpt>
      <trkpt lat="50.632939" lon="7.110008">
      </trkpt>
      <trkpt lat="50.633039" lon="7.114576">
      </trkpt>
      <trkpt lat="50.633617" lon="7.120372">
      </trkpt>
      <trkpt lat="50.634479" lon="7.120149">
      </trkpt>
      <trkpt lat="50.635266" lon="7.119948">
      </trkpt>
      <trkpt lat="50.637257" lon="7.119422">
      </trkpt>
      <trkpt lat="50.638909" lon="7.118985">
      </trkpt>
      <trkpt lat="50.640146" lon="7.119503">
      </trkpt>
      <trkpt lat="50.641527" lon="7.119482">
      </trkpt>
      <trkpt lat="50.642792" lon="7.11945">
      </trkpt>
      <trkpt lat="50.643976" lon="7.119493">
      </trkpt>
      <trkpt lat="50.644609" lon="7.119471">
      </trkpt>
      <trkpt lat="50.646336" lon="7.117124">
      </trkpt>
      <trkpt lat="50.646876" lon="7.116429">
      </trkpt>
      <trkpt lat="50.647435" lon="7.118102">
      </trkpt>
      <trkpt lat="50.648312" lon="7.117603">
      </trkpt>
      <trkpt lat="50.649396" lon="7.116943">
      </trkpt>
      <trkpt lat="50.649547" lon="7.117874">
      </trkpt>
      <trkpt lat="50.650052" lon="7.119091">
      </trkpt>
      <trkpt lat="50.650389" lon="7.119909">
      </trkpt>
      <trkpt lat="50.651035" lon="7.11912">
      </trkpt>
      <trkpt lat="50.651645" lon="7.118411">
      </trkpt>
      <trkpt lat="50.652394" lon="7.11944">
      </trkpt>
      <trkpt lat="50.65295" lon="7.11947">
      </trkpt>
      <trkpt lat="50.653755" lon="7.120411">
      </trkpt>
      <trkpt lat="50.653863" lon="7.121363">
      </trkpt>
      <trkpt lat="50.653878" lon="7.122298">
      </trkpt>
      <trkpt lat="50.6535" lon="7.124592">
      </trkpt>
      <trkpt lat="50.653016" lon="7.125237">
      </trkpt>
      <trkpt lat="50.652684" lon="7.126162">
      </trkpt>
      <trkpt lat="50.652603" lon="7.127027">
      </trkpt>
      <trkpt lat="50.652165" lon="7.127756">
      </trkpt>
      <trkpt lat="50.651884" lon="7.128743">
      </trkpt>
      <trkpt lat="50.65179" lon="7.12959">
      </trkpt>
      <trkpt lat="50.651451" lon="7.130365">
      </trkpt>
      <trkpt lat="50.651483" lon="7.131554">
      </trkpt>
      <trkpt lat="50.651845" lon="7.132609">
      </trkpt>
      <trkpt lat="50.652376" lon="7.13348">
      </trkpt>
      <trkpt lat="50.652995" lon="7.134883">
      </trkpt>
      <trkpt lat="50.654271" lon="7.13603">
      </trkpt>
      <trkpt lat="50.655082" lon="7.136718">
      </trkpt>
      <trkpt lat="50.655843" lon="7.137031">
      </trkpt>
      <trkpt lat="50.656384" lon="7.137443">
      </trkpt>
      <trkpt lat="50.657116" lon="7.137958">
      </trkpt>
      <trkpt lat="50.657759" lon="7.138851">
      </trkpt>
      <trkpt lat="50.658303" lon="7.140378">
      </trkpt>
      <trkpt lat="50.65874" lon="7.141058">
      </trkpt>
      <trkpt lat="50.659771" lon="7.142227">
      </trkpt>
      <trkpt lat="50.66055" lon="7.142941">
      </trkpt>
      <trkpt lat="50.66105" lon="7.143749">
      </trkpt>
      <trkpt lat="50.661913" lon="7.143823">
      </trkpt>
      <trkpt lat="50.662466" lon="7.143183">
      </trkpt>
      <trkpt lat="50.662951" lon="7.142483">
      </trkpt>
      <trkpt lat="50.662659" lon="7.141328">
      </trkpt>
      <trkpt lat="50.661988" lon="7.139131">
      </trkpt>
      <trkpt lat="50.662716" lon="7.13957">
      </trkpt>
      <trkpt lat="50.663696" lon="7.14034">
      </trkpt>
      <trkpt lat="50.664267" lon="7.140428">
      </trkpt>
      <trkpt lat="50.665191" lon="7.141479">
      </trkpt>
      <trkpt lat="50.666053" lon="7.141751">
      </trkpt>
      <trkpt lat="50.667674" lon="7.14078">
      </trkpt>
      <trkpt lat="50.66988" lon="7.138359">
      </trkpt>
      <trkpt lat="50.670593" lon="7.138051">
      </trkpt>
      <trkpt lat="50.671333" lon="7.137961">
      </trkpt>
      <trkpt lat="50.671918" lon="7.137645">
      </trkpt>
      <trkpt lat="50.672706" lon="7.138232">
      </trkpt>
      <trkpt lat="50.67293" lon="7.1394">
      </trkpt>
      <trkpt lat="50.673361" lon="7.139939">
      </trkpt>
      <trkpt lat="50.673918" lon="7.140962">
      </trkpt>
      <trkpt lat="50.674773" lon="7.14279">
      </trkpt>
      <trkpt lat="50.675049" lon="7.143529">
      </trkpt>
      <trkpt lat="50.675493" lon="7.14411">
      </trkpt>
      <trkpt lat="50.676038" lon="7.144746">
      </trkpt>
      <trkpt lat="50.677106" lon="7.144647">
      </trkpt>
      <trkpt lat="50.677724" lon="7.145031">
      </trkpt>
      <trkpt lat="50.678361" lon="7.145559">
      </trkpt>
      <trkpt lat="50.678864" lon="7.146638">
      </trkpt>
      <trkpt lat="50.679372" lon="7.1475">
      </trkpt>
      <trkpt lat="50.679867" lon="7.147954">
      </trkpt>
      <trkpt lat="50.679866" lon="7.146968">
      </trkpt>
      <trkpt lat="50.680493" lon="7.147114">
      </trkpt>
      <trkpt lat="50.681072" lon="7.14739">
      </trkpt>
      <trkpt lat="50.681539" lon="7.147826">
      </trkpt>
      <trkpt lat="50.682075" lon="7.148608">
      </trkpt>
      <trkpt lat="50.682783" lon="7.149532">
      </trkpt>
      <trkpt lat="50.683386" lon="7.15005">
      </trkpt>
      <trkpt lat="50.684353" lon="7.151608">
      </trkpt>
      <trkpt lat="50.684825" lon="7.152347">
      </trkpt>
      <trkpt lat="50.685329" lon="7.152745">
      </trkpt>
      <trkpt lat="50.685913" lon="7.153137">
      </trkpt>
      <trkpt lat="50.686447" lon="7.153488">
      </trkpt>
      <trkpt lat="50.686232" lon="7.154568">
      </trkpt>
      <trkpt lat="50.685803" lon="7.155811">
      </trkpt>
      <trkpt lat="50.68624" lon="7.156428">
      </trkpt>
      <trkpt lat="50.686684" lon="7.157372">
      </trkpt>
      <trkpt lat="50.687255" lon="7.157935">
      </trkpt>
      <trkpt lat="50.688086" lon="7.158873">
      </trkpt>
      <trkpt lat="50.688884" lon="7.159474">
      </trkpt>
      <trkpt lat="50.689522" lon="7.159736">
      </trkpt>
      <trkpt lat="50.690224" lon="7.160018">
      </trkpt>
      <trkpt lat="50.690996" lon="7.160258">
      </trkpt>
      <trkpt lat="50.692102" lon="7.160515">
      </trkpt>
      <trkpt lat="50.692821" lon="7.160668">
      </trkpt>
      <trkpt lat="50.69402" lon="7.16091">
      </trkpt>
      <trkpt lat="50.694854" lon="7.16068">
      </trkpt>
      <trkpt lat="50.695288" lon="7.161339">
      </trkpt>
      <trkpt lat="50.695887" lon="7.162522">
      </trkpt>
      <trkpt lat="50.696179" lon="7.163741">
      </trkpt>
      <trkpt lat="50.696536" lon="7.164502">
      </trkpt>
      <trkpt lat="50.696949" lon="7.165065">
      </trkpt>
      <trkpt lat="50.697485" lon="7.166215">
      </trkpt>
      <trkpt lat="50.698133" lon="7.16714">
      </trkpt>
      <trkpt lat="50.698153" lon="7.168176">
      </trkpt>
      <trkpt lat="50.698976" lon="7.167825">
      </trkpt>
      <trkpt lat="50.699699" lon="7.167583">
      </trkpt>
      <trkpt lat="50.699087" lon="7.167845">
      </trkpt>
      <trkpt lat="50.699791" lon="7.167468">
      </trkpt>
      <trkpt lat="50.700823" lon="7.166879">
      </trkpt>
      <trkpt lat="50.701675" lon="7.16634">
      </trkpt>
      <trkpt lat="50.70217" lon="7.165921">
      </trkpt>
      <trkpt lat="50.702676" lon="7.165454">
      </trkpt>
      <trkpt lat="50.703354" lon="7.164878">
      </trkpt>
      <trkpt lat="50.704123" lon="7.164219">
      </trkpt>
      <trkpt lat="50.705486" lon="7.162954">
      </trkpt>
      <trkpt lat="50.706476" lon="7.161883">
      </trkpt>
      <trkpt lat="50.707754" lon="7.160382">
      </trkpt>
      <trkpt lat="50.708746" lon="7.159113">
      </trkpt>
      <trkpt lat="50.70928" lon="7.158308">
      </trkpt>
      <trkpt lat="50.710338" lon="7.156615">
      </trkpt>
      <trkpt lat="50.71148" lon="7.154646">
      </trkpt>
      <trkpt lat="50.712412" lon="7.152675">
      </trkpt>
      <trkpt lat="50.712806" lon="7.151862">
      </trkpt>
      <trkpt lat="50.713838" lon="7.149382">
      </trkpt>
      <trkpt lat="50.714553" lon="7.147642">
      </trkpt>
      <trkpt lat="50.715172" lon="7.14581">
      </trkpt>
      <trkpt lat="50.715404" lon="7.144886">
      </trkpt>
      <trkpt lat="50.715639" lon="7.143867">
      </trkpt>
      <trkpt lat="50.715943" lon="7.142589">
      </trkpt>
      <trkpt lat="50.716194" lon="7.141491">
      </trkpt>
      <trkpt lat="50.716603" lon="7.139981">
      </trkpt>
      <trkpt lat="50.71686" lon="7.138911">
      </trkpt>
      <trkpt lat="50.717082" lon="7.137919">
      </trkpt>
      <trkpt lat="50.71728" lon="7.13705">
      </trkpt>
      <trkpt lat="50.717621" lon="7.135722">
      </trkpt>
      <trkpt lat="50.718193" lon="7.133175">
      </trkpt>
      <trkpt lat="50.718401" lon="7.132125">
      </trkpt>
      <trkpt lat="50.718674" lon="7.130745">
      </trkpt>
      <trkpt lat="50.71893" lon="7.1294">
      </trkpt>
      <trkpt lat="50.719158" lon="7.128439">
      </trkpt>
      <trkpt lat="50.719587" lon="7.126695">
      </trkpt>
      <trkpt lat="50.719859" lon="7.125743">
      </trkpt>
      <trkpt lat="50.720185" lon="7.124757">
      </trkpt>
      <trkpt lat="50.720912" lon="7.12284">
      </trkpt>
      <trkpt lat="50.721427" lon="7.121617">
      </trkpt>
      <trkpt lat="50.722446" lon="7.119719">
      </trkpt>
      <trkpt lat="50.723829" lon="7.117462">
      </trkpt>
      <trkpt lat="50.725152" lon="7.115492">
      </trkpt>
      <trkpt lat="50.725684" lon="7.11475">
      </trkpt>
      <trkpt lat="50.727075" lon="7.113114">
      </trkpt>
      <trkpt lat="50.727889" lon="7.112297">
      </trkpt>
      <trkpt lat="50.72845" lon="7.111791">
      </trkpt>
      <trkpt lat="50.729885" lon="7.110769">
      </trkpt>
    </trkseg>
  </trk>
</gpx>