<?xml version="1.0" encoding="UTF-8"?>
<gpx xmlns="http://www.topografix.com/GPX/1/1" xmlns:xsi="http://www.w3.org/2001/XMLSchema-instance" xsi:schemaLocation="http://www.topografix.com/GPX/1/1 http://www.topografix.com/GPX/1/1/gpx.xsd" version="1.1" creator="gpx.py -- https://github.com/tkrajina/gpxpy">
  <metadata>
    <name>004</name>
  </metadata>
  <trk>
    <name>004</name>
    <trkseg>
      <trkpt lat="50.733915" lon="7.103843">
      </trkpt>
      <trkpt lat="50.733367" lon="7.103149">
      </trkpt>
      <trkpt lat="50.73292" lon="7.102594">
      </trkpt>
      <trkpt lat="50.732472" lon="7.102061">
      </trkpt>
      <trkpt lat="50.731828" lon="7.101104">
      </trkpt>
      <trkpt lat="50.731935" lon="7.10005">
      </trkpt>
      <trkpt lat="50.732145" lon="7.099024">
      </trkpt>
      <trkpt lat="50.731609" lon="7.099425">
      </trkpt>
      <trkpt lat="50.731128" lon="7.098938">
      </trkpt>
      <trkpt lat="50.729749" lon="7.097762">
      </trkpt>
      <trkpt lat="50.7282" lon="7.095811">
      </trkpt>
      <trkpt lat="50.727562" lon="7.095">
      </trkpt>
      <trkpt lat="50.727031" lon="7.094314">
      </trkpt>
      <trkpt lat="50.72652" lon="7.093734">
      </trkpt>
      <trkpt lat="50.726498" lon="7.092863">
      </trkpt>
      <trkpt lat="50.725873" lon="7.091868">
      </trkpt>
      <trkpt lat="50.724947" lon="7.090719">
      </trkpt>
      <trkpt lat="50.724237" lon="7.09003">
      </trkpt>
      <trkpt lat="50.723586" lon="7.089555">
      </trkpt>
      <trkpt lat="50.722937" lon="7.089094">
      </trkpt>
      <trkpt lat="50.722247" lon="7.088652">
      </trkpt>
      <trkpt lat="50.721627" lon="7.088231">
      </trkpt>
      <trkpt lat="50.72103" lon="7.088813">
      </trkpt>
      <trkpt lat="50.720494" lon="7.089333">
      </trkpt>
      <trkpt lat="50.720073" lon="7.090525">
      </trkpt>
      <trkpt lat="50.719774" lon="7.091731">
      </trkpt>
      <trkpt lat="50.719448" lon="7.092525">
      </trkpt>
      <trkpt lat="50.71908" lon="7.094313">
      </trkpt>
      <trkpt lat="50.718615" lon="7.095685">
      </trkpt>
      <trkpt lat="50.718184" lon="7.096325">
      </trkpt>
      <trkpt lat="50.717631" lon="7.096557">
      </trkpt>
      <trkpt lat="50.717053" lon="7.096968">
      </trkpt>
      <trkpt lat="50.716252" lon="7.098751">
      </trkpt>
      <trkpt lat="50.715705" lon="7.098775">
      </trkpt>
      <trkpt lat="50.714902" lon="7.098613">
      </trkpt>
      <trkpt lat="50.71443" lon="7.099319">
      </trkpt>
      <trkpt lat="50.713653" lon="7.09903">
      </trkpt>
      <trkpt lat="50.713121" lon="7.09835">
      </trkpt>
      <trkpt lat="50.712475" lon="7.098343">
      </trkpt>
      <trkpt lat="50.711655" lon="7.097787">
      </trkpt>
      <trkpt lat="50.711113" lon="7.097656">
      </trkpt>
      <trkpt lat="50.710161" lon="7.099145">
      </trkpt>
      <trkpt lat="50.709698" lon="7.100062">
      </trkpt>
      <trkpt lat="50.709346" lon="7.100813">
      </trkpt>
      <trkpt lat="50.708801" lon="7.100854">
      </trkpt>
      <trkpt lat="50.708145" lon="7.100771">
      </trkpt>
      <trkpt lat="50.707543" lon="7.100274">
      </trkpt>
      <trkpt lat="50.706819" lon="7.099519">
      </trkpt>
      <trkpt lat="50.706403" lon="7.098677">
      </trkpt>
      <trkpt lat="50.705967" lon="7.099236">
      </trkpt>
      <trkpt lat="50.705881" lon="7.100184">
      </trkpt>
      <trkpt lat="50.705851" lon="7.101521">
      </trkpt>
      <trkpt lat="50.70567" lon="7.102864">
      </trkpt>
      <trkpt lat="50.705145" lon="7.103426">
      </trkpt>
      <trkpt lat="50.704239" lon="7.103624">
      </trkpt>
      <trkpt lat="50.703672" lon="7.104058">
      </trkpt>
      <trkpt lat="50.703018" lon="7.104459">
      </trkpt>
      <trkpt lat="50.70252" lon="7.104884">
      </trkpt>
      <trkpt lat="50.702044" lon="7.105695">
      </trkpt>
      <trkpt lat="50.701615" lon="7.10658">
      </trkpt>
      <trkpt lat="50.701241" lon="7.107247">
      </trkpt>
      <trkpt lat="50.700575" lon="7.107553">
      </trkpt>
      <trkpt lat="50.699805" lon="7.107807">
      </trkpt>
      <trkpt lat="50.699244" lon="7.107649">
      </trkpt>
      <trkpt lat="50.697455" lon="7.10836">
      </trkpt>
      <trkpt lat="50.696903" lon="7.108707">
      </trkpt>
      <trkpt lat="50.696166" lon="7.108604">
      </trkpt>
      <trkpt lat="50.694492" lon="7.107933">
      </trkpt>
      <trkpt lat="50.693813" lon="7.10733">
      </trkpt>
      <trkpt lat="50.693307" lon="7.106932">
      </trkpt>
      <trkpt lat="50.692776" lon="7.106071">
      </trkpt>
      <trkpt lat="50.692026" lon="7.106154">
      </trkpt>
      <trkpt lat="50.691027" lon="7.106757">
      </trkpt>
      <trkpt lat="50.690496" lon="7.107407">
      </trkpt>
      <trkpt lat="50.689827" lon="7.107172">
      </trkpt>
      <trkpt lat="50.689182" lon="7.107447">
      </trkpt>
      <trkpt lat="50.688501" lon="7.107274">
      </trkpt>
      <trkpt lat="50.687782" lon="7.107011">
      </trkpt>
      <trkpt lat="50.6874" lon="7.108148">
      </trkpt>
      <trkpt lat="50.68611" lon="7.110248">
      </trkpt>
      <trkpt lat="50.683526" lon="7.114443">
      </trkpt>
      <trkpt lat="50.683151" lon="7.115345">
      </trkpt>
      <trkpt lat="50.682644" lon="7.116548">
      </trkpt>
      <trkpt lat="50.682065" lon="7.117767">
      </trkpt>
      <trkpt lat="50.681978" lon="7.118711">
      </trkpt>
      <trkpt lat="50.680126" lon="7.118024">
      </trkpt>
      <trkpt lat="50.678985" lon="7.11457">
      </trkpt>
      <trkpt lat="50.677996" lon="7.114151">
      </trkpt>
      <trkpt lat="50.677366" lon="7.113996">
      </trkpt>
      <trkpt lat="50.67644" lon="7.113757">
      </trkpt>
      <trkpt lat="50.676525" lon="7.116115">
      </trkpt>
      <trkpt lat="50.675675" lon="7.115487">
      </trkpt>
      <trkpt lat="50.674106" lon="7.115095">
      </trkpt>
      <trkpt lat="50.673491" lon="7.114942">
      </trkpt>
      <trkpt lat="50.670829" lon="7.116141">
      </trkpt>
      <trkpt lat="50.669939" lon="7.117005">
      </trkpt>
      <trkpt lat="50.670348" lon="7.116139">
      </trkpt>
      <trkpt lat="50.670108" lon="7.117021">
      </trkpt>
      <trkpt lat="50.666207" lon="7.12215">
      </trkpt>
      <trkpt lat="50.664924" lon="7.120157">
      </trkpt>
      <trkpt lat="50.663103" lon="7.116852">
      </trkpt>
      <trkpt lat="50.66226" lon="7.11647">
      </trkpt>
      <trkpt lat="50.661663" lon="7.116113">
      </trkpt>
      <trkpt lat="50.663169" lon="7.116715">
      </trkpt>
      <trkpt lat="50.662171" lon="7.116302">
      </trkpt>
      <trkpt lat="50.661428" lon="7.115677">
      </trkpt>
      <trkpt lat="50.660834" lon="7.114322">
      </trkpt>
      <trkpt lat="50.660277" lon="7.113464">
      </trkpt>
      <trkpt lat="50.659461" lon="7.111593">
      </trkpt>
      <trkpt lat="50.659582" lon="7.109951">
      </trkpt>
      <trkpt lat="50.659714" lon="7.108712">
      </trkpt>
      <trkpt lat="50.659755" lon="7.107544">
      </trkpt>
      <trkpt lat="50.659721" lon="7.10588">
      </trkpt>
      <trkpt lat="50.659253" lon="7.104985">
      </trkpt>
      <trkpt lat="50.658016" lon="7.104107">
      </trkpt>
      <trkpt lat="50.656882" lon="7.104649">
      </trkpt>
      <trkpt lat="50.656339" lon="7.107709">
      </trkpt>
      <trkpt lat="50.656158" lon="7.108602">
      </trkpt>
      <trkpt lat="50.655973" lon="7.109775">
      </trkpt>
      <trkpt lat="50.656241" lon="7.111544">
      </trkpt>
      <trkpt lat="50.656132" lon="7.112813">
      </trkpt>
      <trkpt lat="50.655651" lon="7.114202">
      </trkpt>
      <trkpt lat="50.655448" lon="7.115135">
      </trkpt>
      <trkpt lat="50.655124" lon="7.11627">
      </trkpt>
      <trkpt lat="50.654824" lon="7.117238">
      </trkpt>
      <trkpt lat="50.654845" lon="7.118287">
      </trkpt>
      <trkpt lat="50.654071" lon="7.118391">
      </trkpt>
      <trkpt lat="50.653399" lon="7.11768">
      </trkpt>
      <trkpt lat="50.652824" lon="7.117815">
      </trkpt>
      <trkpt lat="50.653147" lon="7.118539">
      </trkpt>
      <trkpt lat="50.653053" lon="7.119402">
      </trkpt>
      <trkpt lat="50.653755" lon="7.120411">
      </trkpt>
      <trkpt lat="50.653863" lon="7.121363">
      </trkpt>
      <trkpt lat="50.65301" lon="7.122779">
      </trkpt>
      <trkpt lat="50.652269" lon="7.12327">
      </trkpt>
      <trkpt lat="50.651568" lon="7.12327">
      </trkpt>
      <trkpt lat="50.651057" lon="7.123765">
      </trkpt>
      <trkpt lat="50.650483" lon="7.124591">
      </trkpt>
      <trkpt lat="50.649615" lon="7.124998">
      </trkpt>
      <trkpt lat="50.649123" lon="7.125382">
      </trkpt>
      <trkpt lat="50.648397" lon="7.125717">
      </trkpt>
      <trkpt lat="50.6477" lon="7.125668">
      </trkpt>
      <trkpt lat="50.646839" lon="7.125939">
      </trkpt>
      <trkpt lat="50.64625" lon="7.126147">
      </trkpt>
      <trkpt lat="50.645472" lon="7.126804">
      </trkpt>
      <trkpt lat="50.645003" lon="7.127318">
      </trkpt>
      <trkpt lat="50.643984" lon="7.128148">
      </trkpt>
      <trkpt lat="50.64328" lon="7.128603">
      </trkpt>
      <trkpt lat="50.642532" lon="7.128332">
      </trkpt>
      <trkpt lat="50.641973" lon="7.128254">
      </trkpt>
      <trkpt lat="50.641375" lon="7.12829">
      </trkpt>
      <trkpt lat="50.640248" lon="7.131044">
      </trkpt>
      <trkpt lat="50.639803" lon="7.132012">
      </trkpt>
      <trkpt lat="50.639003" lon="7.13345">
      </trkpt>
      <trkpt lat="50.637922" lon="7.132699">
      </trkpt>
      <trkpt lat="50.636965" lon="7.131994">
      </trkpt>
      <trkpt lat="50.636422" lon="7.131298">
      </trkpt>
      <trkpt lat="50.634722" lon="7.129425">
      </trkpt>
      <trkpt lat="50.633271" lon="7.128152">
      </trkpt>
      <trkpt lat="50.631616" lon="7.127325">
      </trkpt>
      <trkpt lat="50.630803" lon="7.127027">
      </trkpt>
      <trkpt lat="50.63017" lon="7.125837">
      </trkpt>
      <trkpt lat="50.629606" lon="7.124729">
      </trkpt>
      <trkpt lat="50.628852" lon="7.125815">
      </trkpt>
      <trkpt lat="50.628189" lon="7.126419">
      </trkpt>
      <trkpt lat="50.627533" lon="7.127298">
      </trkpt>
      <trkpt lat="50.628527" lon="7.12833">
      </trkpt>
      <trkpt lat="50.628695" lon="7.129423">
      </trkpt>
      <trkpt lat="50.628709" lon="7.13029">
      </trkpt>
      <trkpt lat="50.629206" lon="7.130687">
      </trkpt>
      <trkpt lat="50.629165" lon="7.13162">
      </trkpt>
      <trkpt lat="50.628898" lon="7.133368">
      </trkpt>
      <trkpt lat="50.628367" lon="7.134197">
      </trkpt>
      <trkpt lat="50.627869" lon="7.133409">
      </trkpt>
      <trkpt lat="50.626825" lon="7.132118">
      </trkpt>
      <trkpt lat="50.625989" lon="7.131176">
      </trkpt>
      <trkpt lat="50.6257" lon="7.132069">
      </trkpt>
      <trkpt lat="50.625347" lon="7.132725">
      </trkpt>
      <trkpt lat="50.624806" lon="7.133597">
      </trkpt>
      <trkpt lat="50.624302" lon="7.134407">
      </trkpt>
      <trkpt lat="50.623452" lon="7.133804">
      </trkpt>
      <trkpt lat="50.622765" lon="7.133646">
      </trkpt>
      <trkpt lat="50.622563" lon="7.134616">
      </trkpt>
      <trkpt lat="50.621593" lon="7.135954">
      </trkpt>
      <trkpt lat="50.620577" lon="7.136479">
      </trkpt>
      <trkpt lat="50.619993" lon="7.136554">
      </trkpt>
      <trkpt lat="50.619638" lon="7.135907">
      </trkpt>
      <trkpt lat="50.619892" lon="7.137349">
      </trkpt>
      <trkpt lat="50.619189" lon="7.138088">
      </trkpt>
      <trkpt lat="50.618658" lon="7.137138">
      </trkpt>
      <trkpt lat="50.61816" lon="7.137879">
      </trkpt>
      <trkpt lat="50.617801" lon="7.138755">
      </trkpt>
      <trkpt lat="50.617967" lon="7.140147">
      </trkpt>
      <trkpt lat="50.618262" lon="7.140951">
      </trkpt>
      <trkpt lat="50.618602" lon="7.141847">
      </trkpt>
      <trkpt lat="50.619022" lon="7.142937">
      </trkpt>
      <trkpt lat="50.619729" lon="7.144328">
      </trkpt>
      <trkpt lat="50.620067" lon="7.145176">
      </trkpt>
      <trkpt lat="50.620444" lon="7.14707">
      </trkpt>
      <trkpt lat="50.620561" lon="7.147971">
      </trkpt>
      <trkpt lat="50.620414" lon="7.148854">
      </trkpt>
      <trkpt lat="50.620018" lon="7.150401">
      </trkpt>
      <trkpt lat="50.619453" lon="7.152633">
      </trkpt>
      <trkpt lat="50.619107" lon="7.153841">
      </trkpt>
      <trkpt lat="50.61893" lon="7.154776">
      </trkpt>
      <trkpt lat="50.618668" lon="7.155703">
      </trkpt>
      <trkpt lat="50.618324" lon="7.156404">
      </trkpt>
      <trkpt lat="50.618531" lon="7.157278">
      </trkpt>
      <trkpt lat="50.618299" lon="7.158045">
      </trkpt>
      <trkpt lat="50.618498" lon="7.158991">
      </trkpt>
      <trkpt lat="50.619337" lon="7.159601">
      </trkpt>
      <trkpt lat="50.620195" lon="7.161011">
      </trkpt>
      <trkpt lat="50.620778" lon="7.161785">
      </trkpt>
      <trkpt lat="50.621318" lon="7.162089">
      </trkpt>
      <trkpt lat="50.621786" lon="7.162641">
      </trkpt>
      <trkpt lat="50.622876" lon="7.162971">
      </trkpt>
      <trkpt lat="50.623994" lon="7.163385">
      </trkpt>
      <trkpt lat="50.624606" lon="7.163599">
      </trkpt>
      <trkpt lat="50.625815" lon="7.163163">
      </trkpt>
      <trkpt lat="50.626527" lon="7.162968">
      </trkpt>
      <trkpt lat="50.627225" lon="7.164193">
      </trkpt>
      <trkpt lat="50.627872" lon="7.165515">
      </trkpt>
      <trkpt lat="50.628364" lon="7.166338">
      </trkpt>
      <trkpt lat="50.627667" lon="7.167228">
      </trkpt>
      <trkpt lat="50.627175" lon="7.167862">
      </trkpt>
      <trkpt lat="50.6263" lon="7.169532">
      </trkpt>
      <trkpt lat="50.625921" lon="7.170622">
      </trkpt>
      <trkpt lat="50.625412" lon="7.172492">
      </trkpt>
      <trkpt lat="50.62526" lon="7.173764">
      </trkpt>
      <trkpt lat="50.625937" lon="7.177396">
      </trkpt>
      <trkpt lat="50.626332" lon="7.179736">
      </trkpt>
      <trkpt lat="50.626856" lon="7.181749">
      </trkpt>
      <trkpt lat="50.627381" lon="7.184131">
      </trkpt>
      <trkpt lat="50.627083" lon="7.185619">
      </trkpt>
      <trkpt lat="50.627725" lon="7.18663">
      </trkpt>
      <trkpt lat="50.628506" lon="7.188156">
      </trkpt>
      <trkpt lat="50.629659" lon="7.188973">
      </trkpt>
      <trkpt lat="50.630576" lon="7.189359">
      </trkpt>
      <trkpt lat="50.631427" lon="7.189636">
      </trkpt>
      <trkpt lat="50.632852" lon="7.189958">
      </trkpt>
      <trkpt lat="50.63455" lon="7.19026">
      </trkpt>
      <trkpt lat="50.634961" lon="7.190997">
      </trkpt>
      <trkpt lat="50.635532" lon="7.191319">
      </trkpt>
      <trkpt lat="50.635983" lon="7.19257">
      </trkpt>
      <trkpt lat="50.636926" lon="7.193053">
      </trkpt>
      <trkpt lat="50.637457" lon="7.19358">
      </trkpt>
      <trkpt lat="50.638024" lon="7.194325">
      </trkpt>
      <trkpt lat="50.638671" lon="7.196729">
      </trkpt>
      <trkpt lat="50.638903" lon="7.197702">
      </trkpt>
      <trkpt lat="50.639128" lon="7.198527">
      </trkpt>
      <trkpt lat="50.640398" lon="7.200852">
      </trkpt>
      <trkpt lat="50.640361" lon="7.202559">
      </trkpt>
      <trkpt lat="50.640921" lon="7.203297">
      </trkpt>
      <trkpt lat="50.641499" lon="7.203782">
      </trkpt>
      <trkpt lat="50.642144" lon="7.203879">
      </trkpt>
      <trkpt lat="50.642489" lon="7.203186">
      </trkpt>
      <trkpt lat="50.643403" lon="7.204293">
      </trkpt>
      <trkpt lat="50.644187" lon="7.204727">
      </trkpt>
      <trkpt lat="50.644015" lon="7.205803">
      </trkpt>
      <trkpt lat="50.644736" lon="7.206276">
      </trkpt>
      <trkpt lat="50.6454" lon="7.205971">
      </trkpt>
      <trkpt lat="50.645629" lon="7.205172">
      </trkpt>
      <trkpt lat="50.646197" lon="7.204969">
      </trkpt>
      <trkpt lat="50.646772" lon="7.204769">
      </trkpt>
      <trkpt lat="50.647424" lon="7.204446">
      </trkpt>
      <trkpt lat="50.648207" lon="7.204018">
      </trkpt>
      <trkpt lat="50.648987" lon="7.203025">
      </trkpt>
      <trkpt lat="50.649398" lon="7.20185">
      </trkpt>
      <trkpt lat="50.651029" lon="7.201421">
      </trkpt>
      <trkpt lat="50.65228" lon="7.200506">
      </trkpt>
      <trkpt lat="50.652747" lon="7.202097">
      </trkpt>
      <trkpt lat="50.653319" lon="7.201674">
      </trkpt>
      <trkpt lat="50.653921" lon="7.201241">
      </trkpt>
      <trkpt lat="50.655409" lon="7.200135">
      </trkpt>
      <trkpt lat="50.656508" lon="7.199327">
      </trkpt>
      <trkpt lat="50.656815" lon="7.200393">
      </trkpt>
      <trkpt lat="50.657068" lon="7.201267">
      </trkpt>
      <trkpt lat="50.657612" lon="7.20073">
      </trkpt>
      <trkpt lat="50.658452" lon="7.199696">
      </trkpt>
      <trkpt lat="50.658962" lon="7.19909">
      </trkpt>
      <trkpt lat="50.660486" lon="7.197748">
      </trkpt>
      <trkpt lat="50.661274" lon="7.197041">
      </trkpt>
      <trkpt lat="50.662356" lon="7.195974">
      </trkpt>
      <trkpt lat="50.663318" lon="7.194989">
      </trkpt>
      <trkpt lat="50.664195" lon="7.194046">
      </trkpt>
      <trkpt lat="50.664679" lon="7.193569">
      </trkpt>
      <trkpt lat="50.665435" lon="7.192744">
      </trkpt>
      <trkpt lat="50.666313" lon="7.192151">
      </trkpt>
      <trkpt lat="50.666951" lon="7.191524">
      </trkpt>
      <trkpt lat="50.667567" lon="7.191139">
      </trkpt>
      <trkpt lat="50.668016" lon="7.190583">
      </trkpt>
      <trkpt lat="50.66857" lon="7.19021">
      </trkpt>
      <trkpt lat="50.669157" lon="7.189455">
      </trkpt>
      <trkpt lat="50.669691" lon="7.189021">
      </trkpt>
      <trkpt lat="50.670441" lon="7.188383">
      </trkpt>
      <trkpt lat="50.673441" lon="7.185979">
      </trkpt>
      <trkpt lat="50.677368" lon="7.182599">
      </trkpt>
      <trkpt lat="50.677982" lon="7.182027">
      </trkpt>
      <trkpt lat="50.678922" lon="7.181087">
      </trkpt>
      <trkpt lat="50.679729" lon="7.180219">
      </trkpt>
      <trkpt lat="50.680254" lon="7.179664">
      </trkpt>
      <trkpt lat="50.681296" lon="7.178658">
      </trkpt>
      <trkpt lat="50.682695" lon="7.177228">
      </trkpt>
      <trkpt lat="50.683874" lon="7.175762">
      </trkpt>
      <trkpt lat="50.684966" lon="7.174671">
      </trkpt>
      <trkpt lat="50.685663" lon="7.174115">
      </trkpt>
      <trkpt lat="50.688418" lon="7.172622">
      </trkpt>
      <trkpt lat="50.689074" lon="7.172311">
      </trkpt>
      <trkpt lat="50.689642" lon="7.172034">
      </trkpt>
      <trkpt lat="50.69025" lon="7.171733">
      </trkpt>
      <trkpt lat="50.690923" lon="7.171427">
      </trkpt>
      <trkpt lat="50.690612" lon="7.170519">
      </trkpt>
      <trkpt lat="50.691176" lon="7.17038">
      </trkpt>
      <trkpt lat="50.691735" lon="7.170628">
      </trkpt>
      <trkpt lat="50.692019" lon="7.169848">
      </trkpt>
      <trkpt lat="50.692223" lon="7.168882">
      </trkpt>
      <trkpt lat="50.692403" lon="7.168021">
      </trkpt>
      <trkpt lat="50.693058" lon="7.167973">
      </trkpt>
      <trkpt lat="50.693574" lon="7.168219">
      </trkpt>
      <trkpt lat="50.694245" lon="7.16796">
      </trkpt>
      <trkpt lat="50.694767" lon="7.167428">
      </trkpt>
      <trkpt lat="50.69537" lon="7.167553">
      </trkpt>
      <trkpt lat="50.695711" lon="7.168286">
      </trkpt>
      <trkpt lat="50.69653" lon="7.167679">
      </trkpt>
      <trkpt lat="50.697276" lon="7.166891">
      </trkpt>
      <trkpt lat="50.697811" lon="7.166551">
      </trkpt>
      <trkpt lat="50.698148" lon="7.167276">
      </trkpt>
      <trkpt lat="50.698153" lon="7.168176">
      </trkpt>
      <trkpt lat="50.698976" lon="7.167825">
      </trkpt>
      <trkpt lat="50.699791" lon="7.167468">
      </trkpt>
      <trkpt lat="50.700823" lon="7.166879">
      </trkpt>
      <trkpt lat="50.70167" lon="7.166327">
      </trkpt>
      <trkpt lat="50.702134" lon="7.165872">
      </trkpt>
      <trkpt lat="50.7026" lon="7.165343">
      </trkpt>
      <trkpt lat="50.703233" lon="7.164775">
      </trkpt>
      <trkpt lat="50.703744" lon="7.164266">
      </trkpt>
      <trkpt lat="50.704267" lon="7.163888">
      </trkpt>
      <trkpt lat="50.704744" lon="7.163491">
      </trkpt>
      <trkpt lat="50.705201" lon="7.162948">
      </trkpt>
      <trkpt lat="50.705986" lon="7.162434">
      </trkpt>
      <trkpt lat="50.706476" lon="7.161883">
      </trkpt>
      <trkpt lat="50.707754" lon="7.160382">
      </trkpt>
      <trkpt lat="50.708746" lon="7.159113">
      </trkpt>
      <trkpt lat="50.70928" lon="7.158308">
      </trkpt>
      <trkpt lat="50.710338" lon="7.156615">
      </trkpt>
      <trkpt lat="50.711708" lon="7.154154">
      </trkpt>
      <trkpt lat="50.711846" lon="7.15301">
      </trkpt>
      <trkpt lat="50.712011" lon="7.151675">
      </trkpt>
      <trkpt lat="50.712223" lon="7.150211">
      </trkpt>
      <trkpt lat="50.712633" lon="7.149463">
      </trkpt>
      <trkpt lat="50.713146" lon="7.148884">
      </trkpt>
      <trkpt lat="50.713689" lon="7.148301">
      </trkpt>
      <trkpt lat="50.714021" lon="7.147384">
      </trkpt>
      <trkpt lat="50.71385" lon="7.146568">
      </trkpt>
      <trkpt lat="50.714218" lon="7.14573">
      </trkpt>
      <trkpt lat="50.714424" lon="7.144835">
      </trkpt>
      <trkpt lat="50.714289" lon="7.143945">
      </trkpt>
      <trkpt lat="50.713904" lon="7.143129">
      </trkpt>
      <trkpt lat="50.713421" lon="7.142597">
      </trkpt>
      <trkpt lat="50.713746" lon="7.141312">
      </trkpt>
      <trkpt lat="50.714075" lon="7.14013">
      </trkpt>
      <trkpt lat="50.714455" lon="7.139362">
      </trkpt>
      <trkpt lat="50.715059" lon="7.139315">
      </trkpt>
      <trkpt lat="50.715398" lon="7.138407">
      </trkpt>
      <trkpt lat="50.715655" lon="7.137492">
      </trkpt>
      <trkpt lat="50.715737" lon="7.136624">
      </trkpt>
      <trkpt lat="50.715638" lon="7.135719">
      </trkpt>
      <trkpt lat="50.715649" lon="7.134851">
      </trkpt>
      <trkpt lat="50.715574" lon="7.133902">
      </trkpt>
      <trkpt lat="50.716046" lon="7.133459">
      </trkpt>
      <trkpt lat="50.71713" lon="7.133051">
      </trkpt>
      <trkpt lat="50.717609" lon="7.132228">
      </trkpt>
      <trkpt lat="50.717875" lon="7.131348">
      </trkpt>
      <trkpt lat="50.718142" lon="7.130513">
      </trkpt>
      <trkpt lat="50.71858" lon="7.129488">
      </trkpt>
      <trkpt lat="50.718882" lon="7.128744">
      </trkpt>
      <trkpt lat="50.719327" lon="7.127751">
      </trkpt>
      <trkpt lat="50.719587" lon="7.126695">
      </trkpt>
      <trkpt lat="50.719859" lon="7.125743">
      </trkpt>
      <trkpt lat="50.720185" lon="7.124757">
      </trkpt>
      <trkpt lat="50.720912" lon="7.12284">
      </trkpt>
      <trkpt lat="50.721427" lon="7.121617">
      </trkpt>
      <trkpt lat="50.722446" lon="7.119719">
      </trkpt>
      <trkpt lat="50.723829" lon="7.117462">
      </trkpt>
      <trkpt lat="50.725152" lon="7.115492">
      </trkpt>
      <trkpt lat="50.725684" lon="7.11475">
      </trkpt>
      <trkpt lat="50.727075" lon="7.113114">
      </trkpt>
      <trkpt lat="50.727889" lon="7.112297">
      </trkpt>
      <trkpt lat="50.72845" lon="7.111791">
      </trkpt>
      <trkpt lat="50.729885" lon="7.110769">
      </trkpt>
      <trkpt lat="50.731859" lon="7.109381">
      </trkpt>
      <trkpt lat="50.732309" lon="7.108688">
      </trkpt>
      <trkpt lat="50.732091" lon="7.107617">
      </trkpt>
      <trkpt lat="50.732913" lon="7.106671">
      </trkpt>
      <trkpt lat="50.733675" lon="7.106209">
      </trkpt>
      <trkpt lat="50.734248" lon="7.106488">
      </trkpt>
      <trkpt lat="50.733879" lon="7.107121">
      </trkpt>
    </trkseg>
  </trk>
</gpx>