<?xml version="1.0" encoding="UTF-8"?>
<gpx xmlns="http://www.topografix.com/GPX/1/1" xmlns:xsi="http://www.w3.org/2001/XMLSchema-instance" xsi:schemaLocation="http://www.topografix.com/GPX/1/1 http://www.topografix.com/GPX/1/1/gpx.xsd" version="1.1" creator="gpx.py -- https://github.com/tkrajina/gpxpy">
  <metadata>
    <name>006</name>
  </metadata>
  <trk>
    <name>006</name>
    <trkseg>
      <trkpt lat="50.73409" lon="7.104331">
      </trkpt>
      <trkpt lat="50.733665" lon="7.103773">
      </trkpt>
      <trkpt lat="50.733184" lon="7.10317">
      </trkpt>
      <trkpt lat="50.732521" lon="7.102312">
      </trkpt>
      <trkpt lat="50.732138" lon="7.101498">
      </trkpt>
      <trkpt lat="50.731709" lon="7.100973">
      </trkpt>
      <trkpt lat="50.731715" lon="7.100055">
      </trkpt>
      <trkpt lat="50.731871" lon="7.098896">
      </trkpt>
      <trkpt lat="50.73216" lon="7.097979">
      </trkpt>
      <trkpt lat="50.732445" lon="7.09708">
      </trkpt>
      <trkpt lat="50.732601" lon="7.096185">
      </trkpt>
      <trkpt lat="50.732809" lon="7.095334">
      </trkpt>
      <trkpt lat="50.732647" lon="7.094429">
      </trkpt>
      <trkpt lat="50.733027" lon="7.093275">
      </trkpt>
      <trkpt lat="50.732791" lon="7.092437">
      </trkpt>
      <trkpt lat="50.732414" lon="7.091073">
      </trkpt>
      <trkpt lat="50.731805" lon="7.090399">
      </trkpt>
      <trkpt lat="50.731257" lon="7.089924">
      </trkpt>
      <trkpt lat="50.730657" lon="7.089715">
      </trkpt>
      <trkpt lat="50.730141" lon="7.088714">
      </trkpt>
      <trkpt lat="50.729719" lon="7.087774">
      </trkpt>
      <trkpt lat="50.729403" lon="7.087079">
      </trkpt>
      <trkpt lat="50.729077" lon="7.086359">
      </trkpt>
      <trkpt lat="50.728634" lon="7.085387">
      </trkpt>
      <trkpt lat="50.728328" lon="7.084587">
      </trkpt>
      <trkpt lat="50.728006" lon="7.083851">
      </trkpt>
      <trkpt lat="50.727674" lon="7.082945">
      </trkpt>
      <trkpt lat="50.727485" lon="7.081997">
      </trkpt>
      <trkpt lat="50.727446" lon="7.08093">
      </trkpt>
      <trkpt lat="50.727315" lon="7.079974">
      </trkpt>
      <trkpt lat="50.727187" lon="7.078748">
      </trkpt>
      <trkpt lat="50.727073" lon="7.077889">
      </trkpt>
      <trkpt lat="50.72696" lon="7.077035">
      </trkpt>
      <trkpt lat="50.726569" lon="7.076192">
      </trkpt>
      <trkpt lat="50.727056" lon="7.07554">
      </trkpt>
      <trkpt lat="50.727308" lon="7.074738">
      </trkpt>
      <trkpt lat="50.727764" lon="7.0741">
      </trkpt>
      <trkpt lat="50.728246" lon="7.073506">
      </trkpt>
      <trkpt lat="50.728731" lon="7.073123">
      </trkpt>
      <trkpt lat="50.729703" lon="7.072156">
      </trkpt>
      <trkpt lat="50.730294" lon="7.071425">
      </trkpt>
      <trkpt lat="50.730797" lon="7.070643">
      </trkpt>
      <trkpt lat="50.731189" lon="7.070033">
      </trkpt>
      <trkpt lat="50.730731" lon="7.06926">
      </trkpt>
      <trkpt lat="50.73036" lon="7.06864">
      </trkpt>
      <trkpt lat="50.730217" lon="7.06764">
      </trkpt>
      <trkpt lat="50.730066" lon="7.066368">
      </trkpt>
      <trkpt lat="50.729965" lon="7.065503">
      </trkpt>
      <trkpt lat="50.729669" lon="7.062495">
      </trkpt>
      <trkpt lat="50.729379" lon="7.060553">
      </trkpt>
      <trkpt lat="50.729159" lon="7.05943">
      </trkpt>
      <trkpt lat="50.729037" lon="7.057268">
      </trkpt>
      <trkpt lat="50.728956" lon="7.054797">
      </trkpt>
      <trkpt lat="50.72894" lon="7.05313">
      </trkpt>
      <trkpt lat="50.728923" lon="7.051328">
      </trkpt>
      <trkpt lat="50.728977" lon="7.049666">
      </trkpt>
      <trkpt lat="50.728936" lon="7.048384">
      </trkpt>
      <trkpt lat="50.728937" lon="7.047526">
      </trkpt>
      <trkpt lat="50.728417" lon="7.046615">
      </trkpt>
      <trkpt lat="50.728336" lon="7.044582">
      </trkpt>
      <trkpt lat="50.728566" lon="7.042969">
      </trkpt>
      <trkpt lat="50.727935" lon="7.041853">
      </trkpt>
      <trkpt lat="50.727471" lon="7.040162">
      </trkpt>
      <trkpt lat="50.727111" lon="7.039116">
      </trkpt>
      <trkpt lat="50.726774" lon="7.037907">
      </trkpt>
      <trkpt lat="50.726608" lon="7.03668">
      </trkpt>
      <trkpt lat="50.726352" lon="7.035724">
      </trkpt>
      <trkpt lat="50.725848" lon="7.034459">
      </trkpt>
      <trkpt lat="50.725487" lon="7.03352">
      </trkpt>
      <trkpt lat="50.724807" lon="7.033201">
      </trkpt>
      <trkpt lat="50.724205" lon="7.032773">
      </trkpt>
      <trkpt lat="50.723898" lon="7.030279">
      </trkpt>
      <trkpt lat="50.723775" lon="7.02852">
      </trkpt>
      <trkpt lat="50.723692" lon="7.027537">
      </trkpt>
      <trkpt lat="50.723563" lon="7.026479">
      </trkpt>
      <trkpt lat="50.723254" lon="7.025673">
      </trkpt>
      <trkpt lat="50.724028" lon="7.024787">
      </trkpt>
      <trkpt lat="50.723596" lon="7.023643">
      </trkpt>
      <trkpt lat="50.723658" lon="7.022554">
      </trkpt>
      <trkpt lat="50.723415" lon="7.021653">
      </trkpt>
      <trkpt lat="50.724152" lon="7.020623">
      </trkpt>
      <trkpt lat="50.724719" lon="7.020008">
      </trkpt>
      <trkpt lat="50.72489" lon="7.019161">
      </trkpt>
      <trkpt lat="50.725561" lon="7.019318">
      </trkpt>
      <trkpt lat="50.725398" lon="7.018495">
      </trkpt>
      <trkpt lat="50.725562" lon="7.017679">
      </trkpt>
      <trkpt lat="50.725101" lon="7.01685">
      </trkpt>
      <trkpt lat="50.725119" lon="7.015888">
      </trkpt>
      <trkpt lat="50.725874" lon="7.013973">
      </trkpt>
      <trkpt lat="50.725766" lon="7.013056">
      </trkpt>
      <trkpt lat="50.725146" lon="7.012158">
      </trkpt>
      <trkpt lat="50.724649" lon="7.01164">
      </trkpt>
      <trkpt lat="50.724071" lon="7.010837">
      </trkpt>
      <trkpt lat="50.723779" lon="7.010075">
      </trkpt>
      <trkpt lat="50.723337" lon="7.008745">
      </trkpt>
      <trkpt lat="50.722789" lon="7.008168">
      </trkpt>
      <trkpt lat="50.722077" lon="7.007895">
      </trkpt>
      <trkpt lat="50.721338" lon="7.007921">
      </trkpt>
      <trkpt lat="50.720643" lon="7.007928">
      </trkpt>
      <trkpt lat="50.720087" lon="7.008738">
      </trkpt>
      <trkpt lat="50.719442" lon="7.008884">
      </trkpt>
      <trkpt lat="50.719109" lon="7.007235">
      </trkpt>
      <trkpt lat="50.71841" lon="7.005015">
      </trkpt>
      <trkpt lat="50.717464" lon="7.005276">
      </trkpt>
      <trkpt lat="50.716868" lon="7.005347">
      </trkpt>
      <trkpt lat="50.716313" lon="7.00487">
      </trkpt>
      <trkpt lat="50.716299" lon="7.004002">
      </trkpt>
      <trkpt lat="50.715854" lon="7.003462">
      </trkpt>
      <trkpt lat="50.715191" lon="7.003251">
      </trkpt>
      <trkpt lat="50.71457" lon="7.003777">
      </trkpt>
      <trkpt lat="50.71407" lon="7.00333">
      </trkpt>
      <trkpt lat="50.713861" lon="7.002194">
      </trkpt>
      <trkpt lat="50.713887" lon="7.001088">
      </trkpt>
      <trkpt lat="50.713418" lon="6.999531">
      </trkpt>
      <trkpt lat="50.713108" lon="6.998516">
      </trkpt>
      <trkpt lat="50.712747" lon="6.997184">
      </trkpt>
      <trkpt lat="50.712387" lon="6.996384">
      </trkpt>
      <trkpt lat="50.712036" lon="6.995671">
      </trkpt>
      <trkpt lat="50.711641" lon="6.994243">
      </trkpt>
      <trkpt lat="50.711813" lon="6.993428">
      </trkpt>
      <trkpt lat="50.711598" lon="6.992468">
      </trkpt>
      <trkpt lat="50.711537" lon="6.991182">
      </trkpt>
      <trkpt lat="50.71262" lon="6.990724">
      </trkpt>
      <trkpt lat="50.712925" lon="6.989998">
      </trkpt>
      <trkpt lat="50.712797" lon="6.989153">
      </trkpt>
      <trkpt lat="50.712807" lon="6.988093">
      </trkpt>
      <trkpt lat="50.712621" lon="6.98527">
      </trkpt>
      <trkpt lat="50.713062" lon="6.984617">
      </trkpt>
      <trkpt lat="50.713205" lon="6.983719">
      </trkpt>
      <trkpt lat="50.712886" lon="6.982926">
      </trkpt>
      <trkpt lat="50.712573" lon="6.981763">
      </trkpt>
      <trkpt lat="50.712159" lon="6.980395">
      </trkpt>
      <trkpt lat="50.714849" lon="6.97193">
      </trkpt>
      <trkpt lat="50.71422" lon="6.971056">
      </trkpt>
      <trkpt lat="50.713416" lon="6.970301">
      </trkpt>
      <trkpt lat="50.712531" lon="6.969725">
      </trkpt>
      <trkpt lat="50.710043" lon="6.972114">
      </trkpt>
      <trkpt lat="50.707236" lon="6.975038">
      </trkpt>
      <trkpt lat="50.706128" lon="6.976106">
      </trkpt>
      <trkpt lat="50.703921" lon="6.978373">
      </trkpt>
      <trkpt lat="50.701536" lon="6.980823">
      </trkpt>
      <trkpt lat="50.701644" lon="6.982227">
      </trkpt>
      <trkpt lat="50.701633" lon="6.98382">
      </trkpt>
      <trkpt lat="50.701617" lon="6.984755">
      </trkpt>
      <trkpt lat="50.70203" lon="6.986101">
      </trkpt>
      <trkpt lat="50.702269" lon="6.987042">
      </trkpt>
      <trkpt lat="50.702525" lon="6.987932">
      </trkpt>
      <trkpt lat="50.702541" lon="6.988799">
      </trkpt>
      <trkpt lat="50.703299" lon="6.990296">
      </trkpt>
      <trkpt lat="50.703878" lon="6.992544">
      </trkpt>
      <trkpt lat="50.703907" lon="6.994297">
      </trkpt>
      <trkpt lat="50.704277" lon="6.995108">
      </trkpt>
      <trkpt lat="50.704996" lon="6.996242">
      </trkpt>
      <trkpt lat="50.705441" lon="6.997149">
      </trkpt>
      <trkpt lat="50.704446" lon="7.000351">
      </trkpt>
      <trkpt lat="50.704237" lon="7.001317">
      </trkpt>
      <trkpt lat="50.704299" lon="7.002186">
      </trkpt>
      <trkpt lat="50.70465" lon="7.003758">
      </trkpt>
      <trkpt lat="50.705336" lon="7.006497">
      </trkpt>
      <trkpt lat="50.705804" lon="7.009013">
      </trkpt>
      <trkpt lat="50.706168" lon="7.012242">
      </trkpt>
      <trkpt lat="50.706225" lon="7.013874">
      </trkpt>
      <trkpt lat="50.706016" lon="7.014762">
      </trkpt>
      <trkpt lat="50.705099" lon="7.015462">
      </trkpt>
      <trkpt lat="50.704597" lon="7.01582">
      </trkpt>
      <trkpt lat="50.705053" lon="7.016642">
      </trkpt>
      <trkpt lat="50.705656" lon="7.017849">
      </trkpt>
      <trkpt lat="50.706402" lon="7.018183">
      </trkpt>
      <trkpt lat="50.706871" lon="7.018698">
      </trkpt>
      <trkpt lat="50.707246" lon="7.01942">
      </trkpt>
      <trkpt lat="50.706155" lon="7.02011">
      </trkpt>
      <trkpt lat="50.705484" lon="7.020684">
      </trkpt>
      <trkpt lat="50.704132" lon="7.021758">
      </trkpt>
      <trkpt lat="50.704378" lon="7.022936">
      </trkpt>
      <trkpt lat="50.704932" lon="7.023332">
      </trkpt>
      <trkpt lat="50.705992" lon="7.022852">
      </trkpt>
      <trkpt lat="50.706563" lon="7.022657">
      </trkpt>
      <trkpt lat="50.706933" lon="7.023359">
      </trkpt>
      <trkpt lat="50.707698" lon="7.024844">
      </trkpt>
      <trkpt lat="50.70816" lon="7.025413">
      </trkpt>
      <trkpt lat="50.708545" lon="7.026016">
      </trkpt>
      <trkpt lat="50.707673" lon="7.025906">
      </trkpt>
      <trkpt lat="50.707013" lon="7.026151">
      </trkpt>
      <trkpt lat="50.70637" lon="7.026246">
      </trkpt>
      <trkpt lat="50.705832" lon="7.026082">
      </trkpt>
      <trkpt lat="50.705264" lon="7.026838">
      </trkpt>
      <trkpt lat="50.704701" lon="7.027774">
      </trkpt>
      <trkpt lat="50.704253" lon="7.028605">
      </trkpt>
      <trkpt lat="50.703557" lon="7.029037">
      </trkpt>
      <trkpt lat="50.703042" lon="7.029293">
      </trkpt>
      <trkpt lat="50.702604" lon="7.029839">
      </trkpt>
      <trkpt lat="50.70163" lon="7.030184">
      </trkpt>
      <trkpt lat="50.700837" lon="7.029907">
      </trkpt>
      <trkpt lat="50.70012" lon="7.029888">
      </trkpt>
      <trkpt lat="50.6994" lon="7.029612">
      </trkpt>
      <trkpt lat="50.698743" lon="7.029719">
      </trkpt>
      <trkpt lat="50.698154" lon="7.030411">
      </trkpt>
      <trkpt lat="50.697222" lon="7.030549">
      </trkpt>
      <trkpt lat="50.696663" lon="7.030948">
      </trkpt>
      <trkpt lat="50.69588" lon="7.030764">
      </trkpt>
      <trkpt lat="50.695154" lon="7.0303">
      </trkpt>
      <trkpt lat="50.694474" lon="7.029914">
      </trkpt>
      <trkpt lat="50.693753" lon="7.03017">
      </trkpt>
      <trkpt lat="50.692967" lon="7.03137">
      </trkpt>
      <trkpt lat="50.692616" lon="7.032133">
      </trkpt>
      <trkpt lat="50.692112" lon="7.033494">
      </trkpt>
      <trkpt lat="50.691652" lon="7.034745">
      </trkpt>
      <trkpt lat="50.690927" lon="7.036716">
      </trkpt>
      <trkpt lat="50.690495" lon="7.037926">
      </trkpt>
      <trkpt lat="50.690093" lon="7.039029">
      </trkpt>
      <trkpt lat="50.68953" lon="7.040572">
      </trkpt>
      <trkpt lat="50.689208" lon="7.041437">
      </trkpt>
      <trkpt lat="50.688618" lon="7.043016">
      </trkpt>
      <trkpt lat="50.688351" lon="7.043767">
      </trkpt>
      <trkpt lat="50.687983" lon="7.044889">
      </trkpt>
      <trkpt lat="50.687277" lon="7.04682">
      </trkpt>
      <trkpt lat="50.686447" lon="7.04909">
      </trkpt>
      <trkpt lat="50.684398" lon="7.054648">
      </trkpt>
      <trkpt lat="50.68365" lon="7.056673">
      </trkpt>
      <trkpt lat="50.683378" lon="7.057437">
      </trkpt>
      <trkpt lat="50.682783" lon="7.058954">
      </trkpt>
      <trkpt lat="50.681536" lon="7.062067">
      </trkpt>
      <trkpt lat="50.680489" lon="7.06498">
      </trkpt>
      <trkpt lat="50.679957" lon="7.066496">
      </trkpt>
      <trkpt lat="50.679294" lon="7.068341">
      </trkpt>
      <trkpt lat="50.678417" lon="7.068498">
      </trkpt>
      <trkpt lat="50.677653" lon="7.068509">
      </trkpt>
      <trkpt lat="50.67715" lon="7.068817">
      </trkpt>
      <trkpt lat="50.676687" lon="7.069267">
      </trkpt>
      <trkpt lat="50.67724" lon="7.070129">
      </trkpt>
      <trkpt lat="50.677304" lon="7.071335">
      </trkpt>
      <trkpt lat="50.676634" lon="7.071617">
      </trkpt>
      <trkpt lat="50.675442" lon="7.072148">
      </trkpt>
      <trkpt lat="50.674958" lon="7.072977">
      </trkpt>
      <trkpt lat="50.674517" lon="7.073515">
      </trkpt>
      <trkpt lat="50.67405" lon="7.074021">
      </trkpt>
      <trkpt lat="50.673327" lon="7.074897">
      </trkpt>
      <trkpt lat="50.67279" lon="7.075552">
      </trkpt>
      <trkpt lat="50.672627" lon="7.076449">
      </trkpt>
      <trkpt lat="50.672959" lon="7.077445">
      </trkpt>
      <trkpt lat="50.672571" lon="7.078399">
      </trkpt>
      <trkpt lat="50.672091" lon="7.078929">
      </trkpt>
      <trkpt lat="50.672665" lon="7.079314">
      </trkpt>
      <trkpt lat="50.673506" lon="7.079893">
      </trkpt>
      <trkpt lat="50.674" lon="7.080408">
      </trkpt>
      <trkpt lat="50.674669" lon="7.080546">
      </trkpt>
      <trkpt lat="50.675233" lon="7.080835">
      </trkpt>
      <trkpt lat="50.675699" lon="7.081322">
      </trkpt>
      <trkpt lat="50.676133" lon="7.081929">
      </trkpt>
      <trkpt lat="50.676632" lon="7.082268">
      </trkpt>
      <trkpt lat="50.677257" lon="7.082067">
      </trkpt>
      <trkpt lat="50.677816" lon="7.081917">
      </trkpt>
      <trkpt lat="50.678435" lon="7.082409">
      </trkpt>
      <trkpt lat="50.678929" lon="7.08299">
      </trkpt>
      <trkpt lat="50.679468" lon="7.083669">
      </trkpt>
      <trkpt lat="50.680073" lon="7.083808">
      </trkpt>
      <trkpt lat="50.680627" lon="7.083808">
      </trkpt>
      <trkpt lat="50.681145" lon="7.083437">
      </trkpt>
      <trkpt lat="50.681724" lon="7.083">
      </trkpt>
      <trkpt lat="50.682196" lon="7.082392">
      </trkpt>
      <trkpt lat="50.682785" lon="7.08212">
      </trkpt>
      <trkpt lat="50.683399" lon="7.081968">
      </trkpt>
      <trkpt lat="50.683183" lon="7.082878">
      </trkpt>
      <trkpt lat="50.683723" lon="7.083197">
      </trkpt>
      <trkpt lat="50.684184" lon="7.083654">
      </trkpt>
      <trkpt lat="50.684871" lon="7.084251">
      </trkpt>
      <trkpt lat="50.685855" lon="7.086231">
      </trkpt>
      <trkpt lat="50.686365" lon="7.087247">
      </trkpt>
      <trkpt lat="50.687821" lon="7.09019">
      </trkpt>
      <trkpt lat="50.688104" lon="7.09108">
      </trkpt>
      <trkpt lat="50.688517" lon="7.09172">
      </trkpt>
      <trkpt lat="50.688921" lon="7.09281">
      </trkpt>
      <trkpt lat="50.689394" lon="7.093753">
      </trkpt>
      <trkpt lat="50.689968" lon="7.094712">
      </trkpt>
      <trkpt lat="50.690373" lon="7.095501">
      </trkpt>
      <trkpt lat="50.69101" lon="7.096832">
      </trkpt>
      <trkpt lat="50.69159" lon="7.098178">
      </trkpt>
      <trkpt lat="50.692031" lon="7.099056">
      </trkpt>
      <trkpt lat="50.692476" lon="7.09985">
      </trkpt>
      <trkpt lat="50.693127" lon="7.101193">
      </trkpt>
      <trkpt lat="50.693633" lon="7.102222">
      </trkpt>
      <trkpt lat="50.694177" lon="7.103244">
      </trkpt>
      <trkpt lat="50.694567" lon="7.104055">
      </trkpt>
      <trkpt lat="50.694916" lon="7.104812">
      </trkpt>
      <trkpt lat="50.695306" lon="7.105626">
      </trkpt>
      <trkpt lat="50.696197" lon="7.107486">
      </trkpt>
      <trkpt lat="50.695895" lon="7.108262">
      </trkpt>
      <trkpt lat="50.69651" lon="7.10913">
      </trkpt>
      <trkpt lat="50.697046" lon="7.109237">
      </trkpt>
      <trkpt lat="50.697939" lon="7.10909">
      </trkpt>
      <trkpt lat="50.698488" lon="7.108919">
      </trkpt>
      <trkpt lat="50.698942" lon="7.108235">
      </trkpt>
      <trkpt lat="50.69948" lon="7.108482">
      </trkpt>
      <trkpt lat="50.700096" lon="7.108813">
      </trkpt>
      <trkpt lat="50.700665" lon="7.10852">
      </trkpt>
      <trkpt lat="50.701427" lon="7.108169">
      </trkpt>
      <trkpt lat="50.70224" lon="7.108329">
      </trkpt>
      <trkpt lat="50.702596" lon="7.107444">
      </trkpt>
      <trkpt lat="50.703384" lon="7.107151">
      </trkpt>
      <trkpt lat="50.703449" lon="7.106088">
      </trkpt>
      <trkpt lat="50.704139" lon="7.105683">
      </trkpt>
      <trkpt lat="50.704705" lon="7.105331">
      </trkpt>
      <trkpt lat="50.70553" lon="7.105474">
      </trkpt>
      <trkpt lat="50.705976" lon="7.104826">
      </trkpt>
      <trkpt lat="50.706445" lon="7.104255">
      </trkpt>
      <trkpt lat="50.707034" lon="7.102976">
      </trkpt>
      <trkpt lat="50.707406" lon="7.102342">
      </trkpt>
      <trkpt lat="50.707935" lon="7.102536">
      </trkpt>
      <trkpt lat="50.708428" lon="7.102146">
      </trkpt>
      <trkpt lat="50.709524" lon="7.101695">
      </trkpt>
      <trkpt lat="50.710109" lon="7.101621">
      </trkpt>
      <trkpt lat="50.710341" lon="7.100576">
      </trkpt>
      <trkpt lat="50.710787" lon="7.100054">
      </trkpt>
      <trkpt lat="50.711188" lon="7.099484">
      </trkpt>
      <trkpt lat="50.71168" lon="7.098486">
      </trkpt>
      <trkpt lat="50.712249" lon="7.098264">
      </trkpt>
      <trkpt lat="50.712855" lon="7.098279">
      </trkpt>
      <trkpt lat="50.713653" lon="7.09903">
      </trkpt>
      <trkpt lat="50.714193" lon="7.09934">
      </trkpt>
      <trkpt lat="50.714902" lon="7.098613">
      </trkpt>
      <trkpt lat="50.715524" lon="7.09818">
      </trkpt>
      <trkpt lat="50.716117" lon="7.097062">
      </trkpt>
      <trkpt lat="50.715885" lon="7.09823">
      </trkpt>
      <trkpt lat="50.716803" lon="7.09773">
      </trkpt>
      <trkpt lat="50.717053" lon="7.096968">
      </trkpt>
      <trkpt lat="50.717571" lon="7.096707">
      </trkpt>
      <trkpt lat="50.717753" lon="7.097711">
      </trkpt>
      <trkpt lat="50.718404" lon="7.097438">
      </trkpt>
      <trkpt lat="50.719061" lon="7.097197">
      </trkpt>
      <trkpt lat="50.719408" lon="7.096531">
      </trkpt>
      <trkpt lat="50.720122" lon="7.096672">
      </trkpt>
      <trkpt lat="50.720699" lon="7.097293">
      </trkpt>
      <trkpt lat="50.721226" lon="7.097859">
      </trkpt>
      <trkpt lat="50.721789" lon="7.09827">
      </trkpt>
      <trkpt lat="50.722364" lon="7.098637">
      </trkpt>
      <trkpt lat="50.723118" lon="7.098853">
      </trkpt>
      <trkpt lat="50.724062" lon="7.099028">
      </trkpt>
      <trkpt lat="50.724628" lon="7.099086">
      </trkpt>
      <trkpt lat="50.725226" lon="7.09912">
      </trkpt>
      <trkpt lat="50.725805" lon="7.098637">
      </trkpt>
      <trkpt lat="50.726642" lon="7.097886">
      </trkpt>
      <trkpt lat="50.727619" lon="7.096548">
      </trkpt>
      <trkpt lat="50.728454" lon="7.096756">
      </trkpt>
      <trkpt lat="50.728956" lon="7.097254">
      </trkpt>
      <trkpt lat="50.729351" lon="7.097853">
      </trkpt>
      <trkpt lat="50.730551" lon="7.099416">
      </trkpt>
      <trkpt lat="50.730332" lon="7.100256">
      </trkpt>
      <trkpt lat="50.729622" lon="7.101456">
      </trkpt>
      <trkpt lat="50.728775" lon="7.102487">
      </trkpt>
      <trkpt lat="50.729003" lon="7.1036">
      </trkpt>
      <trkpt lat="50.73026" lon="7.103028">
      </trkpt>
      <trkpt lat="50.730651" lon="7.103868">
      </trkpt>
      <trkpt lat="50.730954" lon="7.104696">
      </trkpt>
      <trkpt lat="50.731318" lon="7.105695">
      </trkpt>
    </trkseg>
  </trk>
</gpx>