<?xml version="1.0" encoding="UTF-8"?>
<gpx xmlns="http://www.topografix.com/GPX/1/1" xmlns:xsi="http://www.w3.org/2001/XMLSchema-instance" xsi:schemaLocation="http://www.topografix.com/GPX/1/1 http://www.topografix.com/GPX/1/1/gpx.xsd" version="1.1" creator="gpx.py -- https://github.com/tkrajina/gpxpy">
  <metadata>
    <name>009</name>
  </metadata>
  <trk>
    <name>009</name>
    <trkseg>
      <trkpt lat="50.73397" lon="7.104312">
      </trkpt>
      <trkpt lat="50.734518" lon="7.104149">
      </trkpt>
      <trkpt lat="50.735062" lon="7.104058">
      </trkpt>
      <trkpt lat="50.735547" lon="7.104471">
      </trkpt>
      <trkpt lat="50.735939" lon="7.105724">
      </trkpt>
      <trkpt lat="50.7366" lon="7.105918">
      </trkpt>
      <trkpt lat="50.737277" lon="7.105735">
      </trkpt>
      <trkpt lat="50.73765" lon="7.106707">
      </trkpt>
      <trkpt lat="50.738118" lon="7.110063">
      </trkpt>
      <trkpt lat="50.738574" lon="7.11341">
      </trkpt>
      <trkpt lat="50.738727" lon="7.114479">
      </trkpt>
      <trkpt lat="50.738828" lon="7.115368">
      </trkpt>
      <trkpt lat="50.738415" lon="7.116284">
      </trkpt>
      <trkpt lat="50.738223" lon="7.115354">
      </trkpt>
      <trkpt lat="50.737996" lon="7.114226">
      </trkpt>
      <trkpt lat="50.737831" lon="7.1134">
      </trkpt>
      <trkpt lat="50.73689" lon="7.113659">
      </trkpt>
      <trkpt lat="50.736263" lon="7.113798">
      </trkpt>
      <trkpt lat="50.735249" lon="7.114155">
      </trkpt>
      <trkpt lat="50.734708" lon="7.114426">
      </trkpt>
      <trkpt lat="50.733366" lon="7.115084">
      </trkpt>
      <trkpt lat="50.73256" lon="7.115431">
      </trkpt>
      <trkpt lat="50.731719" lon="7.115917">
      </trkpt>
      <trkpt lat="50.73106" lon="7.116373">
      </trkpt>
      <trkpt lat="50.730463" lon="7.116905">
      </trkpt>
      <trkpt lat="50.729058" lon="7.118407">
      </trkpt>
      <trkpt lat="50.72865" lon="7.11907">
      </trkpt>
      <trkpt lat="50.7281" lon="7.119906">
      </trkpt>
      <trkpt lat="50.72714" lon="7.121482">
      </trkpt>
      <trkpt lat="50.726608" lon="7.12186">
      </trkpt>
      <trkpt lat="50.726296" lon="7.122872">
      </trkpt>
      <trkpt lat="50.725924" lon="7.124011">
      </trkpt>
      <trkpt lat="50.725457" lon="7.124907">
      </trkpt>
      <trkpt lat="50.724901" lon="7.126089">
      </trkpt>
      <trkpt lat="50.724686" lon="7.127102">
      </trkpt>
      <trkpt lat="50.724311" lon="7.127783">
      </trkpt>
      <trkpt lat="50.724122" lon="7.128739">
      </trkpt>
      <trkpt lat="50.723776" lon="7.129941">
      </trkpt>
      <trkpt lat="50.724139" lon="7.131136">
      </trkpt>
      <trkpt lat="50.724613" lon="7.131565">
      </trkpt>
      <trkpt lat="50.724927" lon="7.132421">
      </trkpt>
      <trkpt lat="50.725513" lon="7.133161">
      </trkpt>
      <trkpt lat="50.725948" lon="7.13368">
      </trkpt>
      <trkpt lat="50.726808" lon="7.134715">
      </trkpt>
      <trkpt lat="50.726883" lon="7.137705">
      </trkpt>
      <trkpt lat="50.727001" lon="7.138667">
      </trkpt>
      <trkpt lat="50.727067" lon="7.139867">
      </trkpt>
      <trkpt lat="50.727419" lon="7.141244">
      </trkpt>
      <trkpt lat="50.726893" lon="7.141929">
      </trkpt>
      <trkpt lat="50.725862" lon="7.144309">
      </trkpt>
      <trkpt lat="50.725897" lon="7.145441">
      </trkpt>
      <trkpt lat="50.725528" lon="7.146213">
      </trkpt>
      <trkpt lat="50.725047" lon="7.148412">
      </trkpt>
      <trkpt lat="50.72475" lon="7.149357">
      </trkpt>
      <trkpt lat="50.724466" lon="7.150172">
      </trkpt>
      <trkpt lat="50.72417" lon="7.150959">
      </trkpt>
      <trkpt lat="50.723817" lon="7.152017">
      </trkpt>
      <trkpt lat="50.723518" lon="7.153049">
      </trkpt>
      <trkpt lat="50.723554" lon="7.154241">
      </trkpt>
      <trkpt lat="50.72386" lon="7.155352">
      </trkpt>
      <trkpt lat="50.724075" lon="7.15622">
      </trkpt>
      <trkpt lat="50.724386" lon="7.157474">
      </trkpt>
      <trkpt lat="50.723904" lon="7.15794">
      </trkpt>
      <trkpt lat="50.723363" lon="7.158503">
      </trkpt>
      <trkpt lat="50.722808" lon="7.159347">
      </trkpt>
      <trkpt lat="50.72213" lon="7.160147">
      </trkpt>
      <trkpt lat="50.72153" lon="7.161223">
      </trkpt>
      <trkpt lat="50.721333" lon="7.162253">
      </trkpt>
      <trkpt lat="50.720739" lon="7.162887">
      </trkpt>
      <trkpt lat="50.720148" lon="7.163801">
      </trkpt>
      <trkpt lat="50.719635" lon="7.164113">
      </trkpt>
      <trkpt lat="50.71896" lon="7.164761">
      </trkpt>
      <trkpt lat="50.718441" lon="7.165302">
      </trkpt>
      <trkpt lat="50.718025" lon="7.165893">
      </trkpt>
      <trkpt lat="50.717403" lon="7.166169">
      </trkpt>
      <trkpt lat="50.716909" lon="7.166537">
      </trkpt>
      <trkpt lat="50.71609" lon="7.167501">
      </trkpt>
      <trkpt lat="50.715697" lon="7.168158">
      </trkpt>
      <trkpt lat="50.715335" lon="7.169004">
      </trkpt>
      <trkpt lat="50.714769" lon="7.169678">
      </trkpt>
      <trkpt lat="50.714323" lon="7.170473">
      </trkpt>
      <trkpt lat="50.714057" lon="7.171842">
      </trkpt>
      <trkpt lat="50.713842" lon="7.172641">
      </trkpt>
      <trkpt lat="50.713487" lon="7.173431">
      </trkpt>
      <trkpt lat="50.713085" lon="7.174225">
      </trkpt>
      <trkpt lat="50.713017" lon="7.175367">
      </trkpt>
      <trkpt lat="50.71263" lon="7.177155">
      </trkpt>
      <trkpt lat="50.712176" lon="7.179251">
      </trkpt>
      <trkpt lat="50.71211" lon="7.18026">
      </trkpt>
      <trkpt lat="50.712231" lon="7.181408">
      </trkpt>
      <trkpt lat="50.71205" lon="7.18256">
      </trkpt>
      <trkpt lat="50.712183" lon="7.183754">
      </trkpt>
      <trkpt lat="50.712238" lon="7.184613">
      </trkpt>
      <trkpt lat="50.711772" lon="7.185646">
      </trkpt>
      <trkpt lat="50.711305" lon="7.186357">
      </trkpt>
      <trkpt lat="50.710972" lon="7.187348">
      </trkpt>
      <trkpt lat="50.71062" lon="7.188454">
      </trkpt>
      <trkpt lat="50.710268" lon="7.189207">
      </trkpt>
      <trkpt lat="50.710257" lon="7.190376">
      </trkpt>
      <trkpt lat="50.710662" lon="7.191633">
      </trkpt>
      <trkpt lat="50.709209" lon="7.191855">
      </trkpt>
      <trkpt lat="50.70868" lon="7.192123">
      </trkpt>
      <trkpt lat="50.707976" lon="7.192722">
      </trkpt>
      <trkpt lat="50.707318" lon="7.192946">
      </trkpt>
      <trkpt lat="50.706682" lon="7.192559">
      </trkpt>
      <trkpt lat="50.705934" lon="7.19183">
      </trkpt>
      <trkpt lat="50.705188" lon="7.191555">
      </trkpt>
      <trkpt lat="50.704427" lon="7.191409">
      </trkpt>
      <trkpt lat="50.703767" lon="7.191089">
      </trkpt>
      <trkpt lat="50.70313" lon="7.190642">
      </trkpt>
      <trkpt lat="50.703055" lon="7.191665">
      </trkpt>
      <trkpt lat="50.702358" lon="7.192844">
      </trkpt>
      <trkpt lat="50.700948" lon="7.194349">
      </trkpt>
      <trkpt lat="50.701327" lon="7.195221">
      </trkpt>
      <trkpt lat="50.701774" lon="7.194693">
      </trkpt>
      <trkpt lat="50.702324" lon="7.194412">
      </trkpt>
      <trkpt lat="50.702761" lon="7.195097">
      </trkpt>
      <trkpt lat="50.703534" lon="7.194916">
      </trkpt>
      <trkpt lat="50.704314" lon="7.194569">
      </trkpt>
      <trkpt lat="50.70511" lon="7.194915">
      </trkpt>
      <trkpt lat="50.705951" lon="7.195479">
      </trkpt>
      <trkpt lat="50.70674" lon="7.195599">
      </trkpt>
      <trkpt lat="50.707364" lon="7.195908">
      </trkpt>
      <trkpt lat="50.708113" lon="7.197">
      </trkpt>
      <trkpt lat="50.708331" lon="7.198311">
      </trkpt>
      <trkpt lat="50.708529" lon="7.199542">
      </trkpt>
      <trkpt lat="50.708498" lon="7.200406">
      </trkpt>
      <trkpt lat="50.70855" lon="7.201374">
      </trkpt>
      <trkpt lat="50.707982" lon="7.202695">
      </trkpt>
      <trkpt lat="50.707362" lon="7.203794">
      </trkpt>
      <trkpt lat="50.706755" lon="7.204196">
      </trkpt>
      <trkpt lat="50.706037" lon="7.204585">
      </trkpt>
      <trkpt lat="50.705241" lon="7.205345">
      </trkpt>
      <trkpt lat="50.704577" lon="7.206258">
      </trkpt>
      <trkpt lat="50.704391" lon="7.2073">
      </trkpt>
      <trkpt lat="50.704333" lon="7.208423">
      </trkpt>
      <trkpt lat="50.704281" lon="7.210002">
      </trkpt>
      <trkpt lat="50.703668" lon="7.210801">
      </trkpt>
      <trkpt lat="50.703212" lon="7.21134">
      </trkpt>
      <trkpt lat="50.702097" lon="7.211461">
      </trkpt>
      <trkpt lat="50.70166" lon="7.212008">
      </trkpt>
      <trkpt lat="50.700051" lon="7.212451">
      </trkpt>
      <trkpt lat="50.698631" lon="7.213112">
      </trkpt>
      <trkpt lat="50.697964" lon="7.213651">
      </trkpt>
      <trkpt lat="50.697046" lon="7.214114">
      </trkpt>
      <trkpt lat="50.696646" lon="7.213314">
      </trkpt>
      <trkpt lat="50.696468" lon="7.212349">
      </trkpt>
      <trkpt lat="50.69625" lon="7.211039">
      </trkpt>
      <trkpt lat="50.69573" lon="7.210783">
      </trkpt>
      <trkpt lat="50.695329" lon="7.210048">
      </trkpt>
      <trkpt lat="50.694801" lon="7.208533">
      </trkpt>
      <trkpt lat="50.694482" lon="7.207733">
      </trkpt>
      <trkpt lat="50.693921" lon="7.207293">
      </trkpt>
      <trkpt lat="50.693686" lon="7.206073">
      </trkpt>
      <trkpt lat="50.693294" lon="7.205018">
      </trkpt>
      <trkpt lat="50.693461" lon="7.204068">
      </trkpt>
      <trkpt lat="50.693422" lon="7.203163">
      </trkpt>
      <trkpt lat="50.693145" lon="7.202108">
      </trkpt>
      <trkpt lat="50.692444" lon="7.201573">
      </trkpt>
      <trkpt lat="50.692024" lon="7.200971">
      </trkpt>
      <trkpt lat="50.691464" lon="7.199838">
      </trkpt>
      <trkpt lat="50.690964" lon="7.199414">
      </trkpt>
      <trkpt lat="50.690303" lon="7.200683">
      </trkpt>
      <trkpt lat="50.690067" lon="7.201552">
      </trkpt>
      <trkpt lat="50.690213" lon="7.202822">
      </trkpt>
      <trkpt lat="50.690425" lon="7.204179">
      </trkpt>
      <trkpt lat="50.690447" lon="7.205226">
      </trkpt>
      <trkpt lat="50.690391" lon="7.207109">
      </trkpt>
      <trkpt lat="50.690583" lon="7.20801">
      </trkpt>
      <trkpt lat="50.690484" lon="7.20959">
      </trkpt>
      <trkpt lat="50.690161" lon="7.211389">
      </trkpt>
      <trkpt lat="50.689672" lon="7.213169">
      </trkpt>
      <trkpt lat="50.689533" lon="7.214149">
      </trkpt>
      <trkpt lat="50.689426" lon="7.214986">
      </trkpt>
      <trkpt lat="50.689953" lon="7.215643">
      </trkpt>
      <trkpt lat="50.690625" lon="7.21622">
      </trkpt>
      <trkpt lat="50.690766" lon="7.217306">
      </trkpt>
      <trkpt lat="50.690527" lon="7.218561">
      </trkpt>
      <trkpt lat="50.689988" lon="7.219849">
      </trkpt>
      <trkpt lat="50.68987" lon="7.221996">
      </trkpt>
      <trkpt lat="50.690358" lon="7.222426">
      </trkpt>
      <trkpt lat="50.691153" lon="7.222395">
      </trkpt>
      <trkpt lat="50.692029" lon="7.222203">
      </trkpt>
      <trkpt lat="50.692957" lon="7.222177">
      </trkpt>
      <trkpt lat="50.693517" lon="7.222298">
      </trkpt>
      <trkpt lat="50.693886" lon="7.222957">
      </trkpt>
      <trkpt lat="50.694167" lon="7.224336">
      </trkpt>
      <trkpt lat="50.694742" lon="7.225776">
      </trkpt>
      <trkpt lat="50.695115" lon="7.226849">
      </trkpt>
      <trkpt lat="50.69534" lon="7.22832">
      </trkpt>
      <trkpt lat="50.695585" lon="7.22996">
      </trkpt>
      <trkpt lat="50.696032" lon="7.229352">
      </trkpt>
      <trkpt lat="50.696791" lon="7.22888">
      </trkpt>
      <trkpt lat="50.697578" lon="7.228635">
      </trkpt>
      <trkpt lat="50.698277" lon="7.228334">
      </trkpt>
      <trkpt lat="50.698851" lon="7.227797">
      </trkpt>
      <trkpt lat="50.699092" lon="7.228639">
      </trkpt>
      <trkpt lat="50.700373" lon="7.228681">
      </trkpt>
      <trkpt lat="50.701097" lon="7.228795">
      </trkpt>
      <trkpt lat="50.702222" lon="7.229394">
      </trkpt>
      <trkpt lat="50.702678" lon="7.230739">
      </trkpt>
      <trkpt lat="50.702734" lon="7.231691">
      </trkpt>
      <trkpt lat="50.703353" lon="7.232658">
      </trkpt>
      <trkpt lat="50.704068" lon="7.232879">
      </trkpt>
      <trkpt lat="50.704712" lon="7.232995">
      </trkpt>
      <trkpt lat="50.705245" lon="7.233255">
      </trkpt>
      <trkpt lat="50.705858" lon="7.233744">
      </trkpt>
      <trkpt lat="50.706557" lon="7.234312">
      </trkpt>
      <trkpt lat="50.707144" lon="7.234194">
      </trkpt>
      <trkpt lat="50.707638" lon="7.233768">
      </trkpt>
      <trkpt lat="50.708131" lon="7.233399">
      </trkpt>
      <trkpt lat="50.710193" lon="7.232423">
      </trkpt>
      <trkpt lat="50.710794" lon="7.231749">
      </trkpt>
      <trkpt lat="50.711272" lon="7.230482">
      </trkpt>
      <trkpt lat="50.711976" lon="7.229158">
      </trkpt>
      <trkpt lat="50.712682" lon="7.228847">
      </trkpt>
      <trkpt lat="50.71331" lon="7.228244">
      </trkpt>
      <trkpt lat="50.71453" lon="7.227186">
      </trkpt>
      <trkpt lat="50.715703" lon="7.22684">
      </trkpt>
      <trkpt lat="50.716694" lon="7.225973">
      </trkpt>
      <trkpt lat="50.717625" lon="7.225301">
      </trkpt>
      <trkpt lat="50.718108" lon="7.224805">
      </trkpt>
      <trkpt lat="50.721277" lon="7.224183">
      </trkpt>
      <trkpt lat="50.721859" lon="7.223987">
      </trkpt>
      <trkpt lat="50.722294" lon="7.223335">
      </trkpt>
      <trkpt lat="50.722529" lon="7.222557">
      </trkpt>
      <trkpt lat="50.722803" lon="7.22174">
      </trkpt>
      <trkpt lat="50.723146" lon="7.220692">
      </trkpt>
      <trkpt lat="50.723202" lon="7.219477">
      </trkpt>
      <trkpt lat="50.723022" lon="7.217993">
      </trkpt>
      <trkpt lat="50.723326" lon="7.216206">
      </trkpt>
      <trkpt lat="50.723614" lon="7.215078">
      </trkpt>
      <trkpt lat="50.724356" lon="7.215395">
      </trkpt>
      <trkpt lat="50.724809" lon="7.214491">
      </trkpt>
      <trkpt lat="50.725405" lon="7.213305">
      </trkpt>
      <trkpt lat="50.726222" lon="7.212151">
      </trkpt>
      <trkpt lat="50.726886" lon="7.211206">
      </trkpt>
      <trkpt lat="50.726115" lon="7.210113">
      </trkpt>
      <trkpt lat="50.725463" lon="7.209409">
      </trkpt>
      <trkpt lat="50.724202" lon="7.207464">
      </trkpt>
      <trkpt lat="50.72467" lon="7.20672">
      </trkpt>
      <trkpt lat="50.72536" lon="7.205581">
      </trkpt>
      <trkpt lat="50.725443" lon="7.204648">
      </trkpt>
      <trkpt lat="50.725882" lon="7.203624">
      </trkpt>
      <trkpt lat="50.723981" lon="7.200825">
      </trkpt>
      <trkpt lat="50.724029" lon="7.199108">
      </trkpt>
      <trkpt lat="50.724128" lon="7.198234">
      </trkpt>
      <trkpt lat="50.723715" lon="7.193313">
      </trkpt>
      <trkpt lat="50.723775" lon="7.191081">
      </trkpt>
      <trkpt lat="50.723535" lon="7.189822">
      </trkpt>
      <trkpt lat="50.723462" lon="7.187612">
      </trkpt>
      <trkpt lat="50.723962" lon="7.18674">
      </trkpt>
      <trkpt lat="50.724372" lon="7.186161">
      </trkpt>
      <trkpt lat="50.724819" lon="7.185641">
      </trkpt>
      <trkpt lat="50.724643" lon="7.18438">
      </trkpt>
      <trkpt lat="50.724213" lon="7.183541">
      </trkpt>
      <trkpt lat="50.724073" lon="7.182685">
      </trkpt>
      <trkpt lat="50.724013" lon="7.181484">
      </trkpt>
      <trkpt lat="50.723626" lon="7.17958">
      </trkpt>
      <trkpt lat="50.723165" lon="7.178439">
      </trkpt>
      <trkpt lat="50.722827" lon="7.177376">
      </trkpt>
      <trkpt lat="50.7222" lon="7.176686">
      </trkpt>
      <trkpt lat="50.72177" lon="7.175715">
      </trkpt>
      <trkpt lat="50.721643" lon="7.174828">
      </trkpt>
      <trkpt lat="50.721064" lon="7.172705">
      </trkpt>
      <trkpt lat="50.721104" lon="7.171435">
      </trkpt>
      <trkpt lat="50.721512" lon="7.169768">
      </trkpt>
      <trkpt lat="50.722156" lon="7.169826">
      </trkpt>
      <trkpt lat="50.72246" lon="7.169067">
      </trkpt>
      <trkpt lat="50.723137" lon="7.169144">
      </trkpt>
      <trkpt lat="50.724039" lon="7.169731">
      </trkpt>
      <trkpt lat="50.724752" lon="7.169632">
      </trkpt>
      <trkpt lat="50.725535" lon="7.169411">
      </trkpt>
      <trkpt lat="50.72541" lon="7.168567">
      </trkpt>
      <trkpt lat="50.725535" lon="7.169411">
      </trkpt>
      <trkpt lat="50.726284" lon="7.16901">
      </trkpt>
      <trkpt lat="50.726772" lon="7.168419">
      </trkpt>
      <trkpt lat="50.727133" lon="7.167705">
      </trkpt>
      <trkpt lat="50.727538" lon="7.166541">
      </trkpt>
      <trkpt lat="50.727875" lon="7.165517">
      </trkpt>
      <trkpt lat="50.728398" lon="7.165859">
      </trkpt>
      <trkpt lat="50.728899" lon="7.166226">
      </trkpt>
      <trkpt lat="50.729072" lon="7.165354">
      </trkpt>
      <trkpt lat="50.728783" lon="7.164472">
      </trkpt>
      <trkpt lat="50.728822" lon="7.163562">
      </trkpt>
      <trkpt lat="50.728489" lon="7.16206">
      </trkpt>
      <trkpt lat="50.728216" lon="7.161066">
      </trkpt>
      <trkpt lat="50.728141" lon="7.159517">
      </trkpt>
      <trkpt lat="50.727293" lon="7.159007">
      </trkpt>
      <trkpt lat="50.728063" lon="7.157072">
      </trkpt>
      <trkpt lat="50.728451" lon="7.154982">
      </trkpt>
      <trkpt lat="50.728814" lon="7.154217">
      </trkpt>
      <trkpt lat="50.729343" lon="7.153657">
      </trkpt>
      <trkpt lat="50.729869" lon="7.152635">
      </trkpt>
      <trkpt lat="50.730246" lon="7.151846">
      </trkpt>
      <trkpt lat="50.730463" lon="7.150954">
      </trkpt>
      <trkpt lat="50.730676" lon="7.14983">
      </trkpt>
      <trkpt lat="50.730286" lon="7.149192">
      </trkpt>
      <trkpt lat="50.730698" lon="7.148248">
      </trkpt>
      <trkpt lat="50.731433" lon="7.14761">
      </trkpt>
      <trkpt lat="50.732241" lon="7.146973">
      </trkpt>
      <trkpt lat="50.732871" lon="7.14626">
      </trkpt>
      <trkpt lat="50.733345" lon="7.14557">
      </trkpt>
      <trkpt lat="50.733224" lon="7.144644">
      </trkpt>
      <trkpt lat="50.732693" lon="7.143865">
      </trkpt>
      <trkpt lat="50.732265" lon="7.143004">
      </trkpt>
      <trkpt lat="50.731919" lon="7.142109">
      </trkpt>
      <trkpt lat="50.731703" lon="7.141229">
      </trkpt>
      <trkpt lat="50.731808" lon="7.139805">
      </trkpt>
      <trkpt lat="50.732383" lon="7.139292">
      </trkpt>
      <trkpt lat="50.732951" lon="7.139754">
      </trkpt>
      <trkpt lat="50.733578" lon="7.139999">
      </trkpt>
      <trkpt lat="50.734195" lon="7.140089">
      </trkpt>
      <trkpt lat="50.734634" lon="7.139559">
      </trkpt>
      <trkpt lat="50.735125" lon="7.138913">
      </trkpt>
      <trkpt lat="50.735218" lon="7.137985">
      </trkpt>
      <trkpt lat="50.735172" lon="7.136867">
      </trkpt>
      <trkpt lat="50.734741" lon="7.135485">
      </trkpt>
      <trkpt lat="50.735171" lon="7.134338">
      </trkpt>
      <trkpt lat="50.734768" lon="7.132753">
      </trkpt>
      <trkpt lat="50.734684" lon="7.131886">
      </trkpt>
      <trkpt lat="50.735269" lon="7.131469">
      </trkpt>
      <trkpt lat="50.735794" lon="7.131101">
      </trkpt>
      <trkpt lat="50.73669" lon="7.130487">
      </trkpt>
      <trkpt lat="50.737994" lon="7.12952">
      </trkpt>
      <trkpt lat="50.738996" lon="7.128788">
      </trkpt>
      <trkpt lat="50.739517" lon="7.128144">
      </trkpt>
      <trkpt lat="50.740053" lon="7.127551">
      </trkpt>
      <trkpt lat="50.740043" lon="7.126518">
      </trkpt>
      <trkpt lat="50.739857" lon="7.124539">
      </trkpt>
      <trkpt lat="50.739806" lon="7.123584">
      </trkpt>
      <trkpt lat="50.739306" lon="7.122337">
      </trkpt>
      <trkpt lat="50.738824" lon="7.121005">
      </trkpt>
      <trkpt lat="50.738164" lon="7.118934">
      </trkpt>
      <trkpt lat="50.738183" lon="7.117998">
      </trkpt>
      <trkpt lat="50.738653" lon="7.117344">
      </trkpt>
      <trkpt lat="50.738415" lon="7.116284">
      </trkpt>
      <trkpt lat="50.738864" lon="7.115763">
      </trkpt>
      <trkpt lat="50.738756" lon="7.114711">
      </trkpt>
      <trkpt lat="50.738574" lon="7.11341">
      </trkpt>
      <trkpt lat="50.738118" lon="7.110063">
      </trkpt>
      <trkpt lat="50.73765" lon="7.106707">
      </trkpt>
      <trkpt lat="50.737447" lon="7.105809">
      </trkpt>
      <trkpt lat="50.736871" lon="7.10584">
      </trkpt>
      <trkpt lat="50.736138" lon="7.106072">
      </trkpt>
      <trkpt lat="50.73573" lon="7.105041">
      </trkpt>
      <trkpt lat="50.734862" lon="7.105385">
      </trkpt>
      <trkpt lat="50.73444" lon="7.104193">
      </trkpt>
    </trkseg>
  </trk>
</gpx>