<?xml version="1.0" encoding="UTF-8"?>
<gpx xmlns="http://www.topografix.com/GPX/1/1" xmlns:xsi="http://www.w3.org/2001/XMLSchema-instance" xsi:schemaLocation="http://www.topografix.com/GPX/1/1 http://www.topografix.com/GPX/1/1/gpx.xsd" version="1.1" creator="gpx.py -- https://github.com/tkrajina/gpxpy">
  <metadata>
    <name>010</name>
  </metadata>
  <trk>
    <name>010</name>
    <trkseg>
      <trkpt lat="50.734009" lon="7.10397">
      </trkpt>
      <trkpt lat="50.733379" lon="7.103417">
      </trkpt>
      <trkpt lat="50.732927" lon="7.102831">
      </trkpt>
      <trkpt lat="50.732472" lon="7.102061">
      </trkpt>
      <trkpt lat="50.731828" lon="7.101104">
      </trkpt>
      <trkpt lat="50.731759" lon="7.100157">
      </trkpt>
      <trkpt lat="50.731871" lon="7.098896">
      </trkpt>
      <trkpt lat="50.73216" lon="7.097979">
      </trkpt>
      <trkpt lat="50.732445" lon="7.09708">
      </trkpt>
      <trkpt lat="50.732601" lon="7.096185">
      </trkpt>
      <trkpt lat="50.732809" lon="7.095334">
      </trkpt>
      <trkpt lat="50.732647" lon="7.094429">
      </trkpt>
      <trkpt lat="50.733027" lon="7.093275">
      </trkpt>
      <trkpt lat="50.732791" lon="7.092437">
      </trkpt>
      <trkpt lat="50.732414" lon="7.091073">
      </trkpt>
      <trkpt lat="50.731805" lon="7.090399">
      </trkpt>
      <trkpt lat="50.731257" lon="7.089924">
      </trkpt>
      <trkpt lat="50.730657" lon="7.089715">
      </trkpt>
      <trkpt lat="50.730141" lon="7.088714">
      </trkpt>
      <trkpt lat="50.729719" lon="7.087774">
      </trkpt>
      <trkpt lat="50.729403" lon="7.087079">
      </trkpt>
      <trkpt lat="50.729077" lon="7.086359">
      </trkpt>
      <trkpt lat="50.728634" lon="7.085387">
      </trkpt>
      <trkpt lat="50.728362" lon="7.084538">
      </trkpt>
      <trkpt lat="50.728039" lon="7.083813">
      </trkpt>
      <trkpt lat="50.727747" lon="7.082996">
      </trkpt>
      <trkpt lat="50.727581" lon="7.08214">
      </trkpt>
      <trkpt lat="50.727446" lon="7.08093">
      </trkpt>
      <trkpt lat="50.727315" lon="7.079974">
      </trkpt>
      <trkpt lat="50.727187" lon="7.078748">
      </trkpt>
      <trkpt lat="50.727073" lon="7.077889">
      </trkpt>
      <trkpt lat="50.72696" lon="7.077035">
      </trkpt>
      <trkpt lat="50.726569" lon="7.076192">
      </trkpt>
      <trkpt lat="50.727056" lon="7.07554">
      </trkpt>
      <trkpt lat="50.727308" lon="7.074738">
      </trkpt>
      <trkpt lat="50.727764" lon="7.0741">
      </trkpt>
      <trkpt lat="50.728246" lon="7.073506">
      </trkpt>
      <trkpt lat="50.728731" lon="7.073123">
      </trkpt>
      <trkpt lat="50.729703" lon="7.072156">
      </trkpt>
      <trkpt lat="50.729744" lon="7.071125">
      </trkpt>
      <trkpt lat="50.729036" lon="7.07015">
      </trkpt>
      <trkpt lat="50.729571" lon="7.069279">
      </trkpt>
      <trkpt lat="50.730024" lon="7.068597">
      </trkpt>
      <trkpt lat="50.730217" lon="7.06764">
      </trkpt>
      <trkpt lat="50.730066" lon="7.066368">
      </trkpt>
      <trkpt lat="50.729965" lon="7.065503">
      </trkpt>
      <trkpt lat="50.730537" lon="7.064578">
      </trkpt>
      <trkpt lat="50.731201" lon="7.063989">
      </trkpt>
      <trkpt lat="50.731891" lon="7.062944">
      </trkpt>
      <trkpt lat="50.732322" lon="7.061923">
      </trkpt>
      <trkpt lat="50.732652" lon="7.061213">
      </trkpt>
      <trkpt lat="50.733137" lon="7.060275">
      </trkpt>
      <trkpt lat="50.73365" lon="7.058821">
      </trkpt>
      <trkpt lat="50.733776" lon="7.057741">
      </trkpt>
      <trkpt lat="50.733821" lon="7.056778">
      </trkpt>
      <trkpt lat="50.733848" lon="7.055792">
      </trkpt>
      <trkpt lat="50.733897" lon="7.054576">
      </trkpt>
      <trkpt lat="50.733453" lon="7.054079">
      </trkpt>
      <trkpt lat="50.732876" lon="7.052826">
      </trkpt>
      <trkpt lat="50.733534" lon="7.048841">
      </trkpt>
      <trkpt lat="50.732993" lon="7.048696">
      </trkpt>
      <trkpt lat="50.732411" lon="7.048813">
      </trkpt>
      <trkpt lat="50.731552" lon="7.048983">
      </trkpt>
      <trkpt lat="50.730956" lon="7.048912">
      </trkpt>
      <trkpt lat="50.730629" lon="7.04964">
      </trkpt>
      <trkpt lat="50.730192" lon="7.05087">
      </trkpt>
      <trkpt lat="50.729158" lon="7.05057">
      </trkpt>
      <trkpt lat="50.728977" lon="7.049666">
      </trkpt>
      <trkpt lat="50.728936" lon="7.048384">
      </trkpt>
      <trkpt lat="50.728937" lon="7.047526">
      </trkpt>
      <trkpt lat="50.728417" lon="7.046615">
      </trkpt>
      <trkpt lat="50.728336" lon="7.044582">
      </trkpt>
      <trkpt lat="50.728566" lon="7.042969">
      </trkpt>
      <trkpt lat="50.727935" lon="7.041853">
      </trkpt>
      <trkpt lat="50.7271" lon="7.040858">
      </trkpt>
      <trkpt lat="50.726379" lon="7.040089">
      </trkpt>
      <trkpt lat="50.725685" lon="7.038878">
      </trkpt>
      <trkpt lat="50.725097" lon="7.038088">
      </trkpt>
      <trkpt lat="50.7246" lon="7.03751">
      </trkpt>
      <trkpt lat="50.724241" lon="7.036659">
      </trkpt>
      <trkpt lat="50.725246" lon="7.035207">
      </trkpt>
      <trkpt lat="50.725848" lon="7.034459">
      </trkpt>
      <trkpt lat="50.726212" lon="7.033722">
      </trkpt>
      <trkpt lat="50.727071" lon="7.032173">
      </trkpt>
      <trkpt lat="50.727683" lon="7.030622">
      </trkpt>
      <trkpt lat="50.727" lon="7.030116">
      </trkpt>
      <trkpt lat="50.726077" lon="7.029603">
      </trkpt>
      <trkpt lat="50.726208" lon="7.027984">
      </trkpt>
      <trkpt lat="50.72625" lon="7.027069">
      </trkpt>
      <trkpt lat="50.726222" lon="7.026129">
      </trkpt>
      <trkpt lat="50.726336" lon="7.024397">
      </trkpt>
      <trkpt lat="50.726595" lon="7.023501">
      </trkpt>
      <trkpt lat="50.726286" lon="7.022693">
      </trkpt>
      <trkpt lat="50.72612" lon="7.021569">
      </trkpt>
      <trkpt lat="50.7259" lon="7.019925">
      </trkpt>
      <trkpt lat="50.7255" lon="7.019241">
      </trkpt>
      <trkpt lat="50.725436" lon="7.018266">
      </trkpt>
      <trkpt lat="50.725101" lon="7.01685">
      </trkpt>
      <trkpt lat="50.725119" lon="7.015888">
      </trkpt>
      <trkpt lat="50.725874" lon="7.013973">
      </trkpt>
      <trkpt lat="50.726592" lon="7.011725">
      </trkpt>
      <trkpt lat="50.725982" lon="7.011161">
      </trkpt>
      <trkpt lat="50.725821" lon="7.009981">
      </trkpt>
      <trkpt lat="50.725843" lon="7.009011">
      </trkpt>
      <trkpt lat="50.726122" lon="7.007994">
      </trkpt>
      <trkpt lat="50.726457" lon="7.006786">
      </trkpt>
      <trkpt lat="50.726603" lon="7.005766">
      </trkpt>
      <trkpt lat="50.726338" lon="7.004644">
      </trkpt>
      <trkpt lat="50.726494" lon="7.003468">
      </trkpt>
      <trkpt lat="50.72573" lon="7.002644">
      </trkpt>
      <trkpt lat="50.725155" lon="7.0027">
      </trkpt>
      <trkpt lat="50.724158" lon="7.003475">
      </trkpt>
      <trkpt lat="50.723424" lon="7.002637">
      </trkpt>
      <trkpt lat="50.72292" lon="7.001961">
      </trkpt>
      <trkpt lat="50.722465" lon="7.001265">
      </trkpt>
      <trkpt lat="50.721676" lon="7.001066">
      </trkpt>
      <trkpt lat="50.721124" lon="7.000649">
      </trkpt>
      <trkpt lat="50.72021" lon="7.003196">
      </trkpt>
      <trkpt lat="50.71978" lon="7.003972">
      </trkpt>
      <trkpt lat="50.719101" lon="7.004423">
      </trkpt>
      <trkpt lat="50.71841" lon="7.005015">
      </trkpt>
      <trkpt lat="50.717464" lon="7.005276">
      </trkpt>
      <trkpt lat="50.716868" lon="7.005347">
      </trkpt>
      <trkpt lat="50.716313" lon="7.00487">
      </trkpt>
      <trkpt lat="50.716299" lon="7.004002">
      </trkpt>
      <trkpt lat="50.715854" lon="7.003462">
      </trkpt>
      <trkpt lat="50.715191" lon="7.003251">
      </trkpt>
      <trkpt lat="50.71457" lon="7.003777">
      </trkpt>
      <trkpt lat="50.71407" lon="7.00333">
      </trkpt>
      <trkpt lat="50.713452" lon="7.004565">
      </trkpt>
      <trkpt lat="50.713106" lon="7.005285">
      </trkpt>
      <trkpt lat="50.712763" lon="7.003915">
      </trkpt>
      <trkpt lat="50.712388" lon="7.00328">
      </trkpt>
      <trkpt lat="50.712044" lon="7.004188">
      </trkpt>
      <trkpt lat="50.711262" lon="7.004357">
      </trkpt>
      <trkpt lat="50.710926" lon="7.005317">
      </trkpt>
      <trkpt lat="50.711182" lon="7.006071">
      </trkpt>
      <trkpt lat="50.71075" lon="7.006754">
      </trkpt>
      <trkpt lat="50.71009" lon="7.007039">
      </trkpt>
      <trkpt lat="50.710536" lon="7.008158">
      </trkpt>
      <trkpt lat="50.710615" lon="7.009217">
      </trkpt>
      <trkpt lat="50.711247" lon="7.00923">
      </trkpt>
      <trkpt lat="50.711835" lon="7.009761">
      </trkpt>
      <trkpt lat="50.711745" lon="7.010771">
      </trkpt>
      <trkpt lat="50.711525" lon="7.011614">
      </trkpt>
      <trkpt lat="50.710481" lon="7.012281">
      </trkpt>
      <trkpt lat="50.709811" lon="7.012063">
      </trkpt>
      <trkpt lat="50.709243" lon="7.011919">
      </trkpt>
      <trkpt lat="50.70846" lon="7.011756">
      </trkpt>
      <trkpt lat="50.707749" lon="7.011492">
      </trkpt>
      <trkpt lat="50.707069" lon="7.011838">
      </trkpt>
      <trkpt lat="50.706454" lon="7.012324">
      </trkpt>
      <trkpt lat="50.706225" lon="7.013874">
      </trkpt>
      <trkpt lat="50.706016" lon="7.014762">
      </trkpt>
      <trkpt lat="50.705099" lon="7.015462">
      </trkpt>
      <trkpt lat="50.704597" lon="7.01582">
      </trkpt>
      <trkpt lat="50.705053" lon="7.016642">
      </trkpt>
      <trkpt lat="50.705656" lon="7.017849">
      </trkpt>
      <trkpt lat="50.706402" lon="7.018183">
      </trkpt>
      <trkpt lat="50.706871" lon="7.018698">
      </trkpt>
      <trkpt lat="50.707246" lon="7.01942">
      </trkpt>
      <trkpt lat="50.706155" lon="7.02011">
      </trkpt>
      <trkpt lat="50.705484" lon="7.020684">
      </trkpt>
      <trkpt lat="50.704457" lon="7.021502">
      </trkpt>
      <trkpt lat="50.704063" lon="7.022116">
      </trkpt>
      <trkpt lat="50.704378" lon="7.022936">
      </trkpt>
      <trkpt lat="50.704932" lon="7.023332">
      </trkpt>
      <trkpt lat="50.705992" lon="7.022852">
      </trkpt>
      <trkpt lat="50.706563" lon="7.022657">
      </trkpt>
      <trkpt lat="50.706933" lon="7.023359">
      </trkpt>
      <trkpt lat="50.707698" lon="7.024844">
      </trkpt>
      <trkpt lat="50.70816" lon="7.025413">
      </trkpt>
      <trkpt lat="50.708545" lon="7.026016">
      </trkpt>
      <trkpt lat="50.707673" lon="7.025906">
      </trkpt>
      <trkpt lat="50.707069" lon="7.025938">
      </trkpt>
      <trkpt lat="50.706606" lon="7.026448">
      </trkpt>
      <trkpt lat="50.706055" lon="7.026094">
      </trkpt>
      <trkpt lat="50.705601" lon="7.026558">
      </trkpt>
      <trkpt lat="50.705143" lon="7.027034">
      </trkpt>
      <trkpt lat="50.704749" lon="7.02766">
      </trkpt>
      <trkpt lat="50.704253" lon="7.028605">
      </trkpt>
      <trkpt lat="50.703557" lon="7.029037">
      </trkpt>
      <trkpt lat="50.703042" lon="7.029293">
      </trkpt>
      <trkpt lat="50.702604" lon="7.029839">
      </trkpt>
      <trkpt lat="50.70163" lon="7.030184">
      </trkpt>
      <trkpt lat="50.700837" lon="7.029907">
      </trkpt>
      <trkpt lat="50.70012" lon="7.029888">
      </trkpt>
      <trkpt lat="50.699534" lon="7.029614">
      </trkpt>
      <trkpt lat="50.69893" lon="7.029685">
      </trkpt>
      <trkpt lat="50.698333" lon="7.030259">
      </trkpt>
      <trkpt lat="50.697718" lon="7.030543">
      </trkpt>
      <trkpt lat="50.697018" lon="7.030646">
      </trkpt>
      <trkpt lat="50.696494" lon="7.031024">
      </trkpt>
      <trkpt lat="50.69588" lon="7.030764">
      </trkpt>
      <trkpt lat="50.695154" lon="7.0303">
      </trkpt>
      <trkpt lat="50.694474" lon="7.029914">
      </trkpt>
      <trkpt lat="50.693903" lon="7.030102">
      </trkpt>
      <trkpt lat="50.693342" lon="7.030393">
      </trkpt>
      <trkpt lat="50.692967" lon="7.03137">
      </trkpt>
      <trkpt lat="50.692616" lon="7.032133">
      </trkpt>
      <trkpt lat="50.692112" lon="7.033494">
      </trkpt>
      <trkpt lat="50.692852" lon="7.033863">
      </trkpt>
      <trkpt lat="50.693558" lon="7.034172">
      </trkpt>
      <trkpt lat="50.693662" lon="7.035103">
      </trkpt>
      <trkpt lat="50.693302" lon="7.036626">
      </trkpt>
      <trkpt lat="50.693154" lon="7.037563">
      </trkpt>
      <trkpt lat="50.693626" lon="7.038032">
      </trkpt>
      <trkpt lat="50.694142" lon="7.038549">
      </trkpt>
      <trkpt lat="50.694352" lon="7.039435">
      </trkpt>
      <trkpt lat="50.694738" lon="7.040096">
      </trkpt>
      <trkpt lat="50.694744" lon="7.041439">
      </trkpt>
      <trkpt lat="50.694571" lon="7.043323">
      </trkpt>
      <trkpt lat="50.694486" lon="7.044251">
      </trkpt>
      <trkpt lat="50.694436" lon="7.045153">
      </trkpt>
      <trkpt lat="50.694421" lon="7.046102">
      </trkpt>
      <trkpt lat="50.694255" lon="7.046956">
      </trkpt>
      <trkpt lat="50.693592" lon="7.047266">
      </trkpt>
      <trkpt lat="50.693234" lon="7.048066">
      </trkpt>
      <trkpt lat="50.692605" lon="7.049429">
      </trkpt>
      <trkpt lat="50.692073" lon="7.05008">
      </trkpt>
      <trkpt lat="50.691371" lon="7.05021">
      </trkpt>
      <trkpt lat="50.690775" lon="7.050121">
      </trkpt>
      <trkpt lat="50.690188" lon="7.049945">
      </trkpt>
      <trkpt lat="50.68952" lon="7.049898">
      </trkpt>
      <trkpt lat="50.688834" lon="7.049759">
      </trkpt>
      <trkpt lat="50.688176" lon="7.049613">
      </trkpt>
      <trkpt lat="50.687557" lon="7.049787">
      </trkpt>
      <trkpt lat="50.68703" lon="7.049344">
      </trkpt>
      <trkpt lat="50.686492" lon="7.049137">
      </trkpt>
      <trkpt lat="50.684398" lon="7.054648">
      </trkpt>
      <trkpt lat="50.68365" lon="7.056673">
      </trkpt>
      <trkpt lat="50.683378" lon="7.057437">
      </trkpt>
      <trkpt lat="50.682783" lon="7.058954">
      </trkpt>
      <trkpt lat="50.682105" lon="7.060601">
      </trkpt>
      <trkpt lat="50.681536" lon="7.062067">
      </trkpt>
      <trkpt lat="50.680489" lon="7.06498">
      </trkpt>
      <trkpt lat="50.679957" lon="7.066496">
      </trkpt>
      <trkpt lat="50.679294" lon="7.068341">
      </trkpt>
      <trkpt lat="50.678756" lon="7.070023">
      </trkpt>
      <trkpt lat="50.679162" lon="7.07087">
      </trkpt>
      <trkpt lat="50.679196" lon="7.071752">
      </trkpt>
      <trkpt lat="50.678663" lon="7.071992">
      </trkpt>
      <trkpt lat="50.678151" lon="7.072266">
      </trkpt>
      <trkpt lat="50.677453" lon="7.073392">
      </trkpt>
      <trkpt lat="50.67681" lon="7.075186">
      </trkpt>
      <trkpt lat="50.67603" lon="7.077376">
      </trkpt>
      <trkpt lat="50.675576" lon="7.077911">
      </trkpt>
      <trkpt lat="50.674601" lon="7.078136">
      </trkpt>
      <trkpt lat="50.673862" lon="7.077892">
      </trkpt>
      <trkpt lat="50.673187" lon="7.077733">
      </trkpt>
      <trkpt lat="50.672571" lon="7.078399">
      </trkpt>
      <trkpt lat="50.672091" lon="7.078929">
      </trkpt>
      <trkpt lat="50.672665" lon="7.079314">
      </trkpt>
      <trkpt lat="50.673506" lon="7.079893">
      </trkpt>
      <trkpt lat="50.674" lon="7.080408">
      </trkpt>
      <trkpt lat="50.674669" lon="7.080546">
      </trkpt>
      <trkpt lat="50.675233" lon="7.080835">
      </trkpt>
      <trkpt lat="50.675699" lon="7.081322">
      </trkpt>
      <trkpt lat="50.676133" lon="7.081929">
      </trkpt>
      <trkpt lat="50.676632" lon="7.082268">
      </trkpt>
      <trkpt lat="50.677257" lon="7.082067">
      </trkpt>
      <trkpt lat="50.677816" lon="7.081917">
      </trkpt>
      <trkpt lat="50.678435" lon="7.082409">
      </trkpt>
      <trkpt lat="50.677747" lon="7.084414">
      </trkpt>
      <trkpt lat="50.677485" lon="7.085343">
      </trkpt>
      <trkpt lat="50.677545" lon="7.088003">
      </trkpt>
      <trkpt lat="50.677592" lon="7.091767">
      </trkpt>
      <trkpt lat="50.677664" lon="7.094503">
      </trkpt>
      <trkpt lat="50.678742" lon="7.093604">
      </trkpt>
      <trkpt lat="50.679348" lon="7.093229">
      </trkpt>
      <trkpt lat="50.680444" lon="7.09244">
      </trkpt>
      <trkpt lat="50.681678" lon="7.091499">
      </trkpt>
      <trkpt lat="50.682711" lon="7.090876">
      </trkpt>
      <trkpt lat="50.684341" lon="7.089753">
      </trkpt>
      <trkpt lat="50.685421" lon="7.09232">
      </trkpt>
      <trkpt lat="50.685833" lon="7.094187">
      </trkpt>
      <trkpt lat="50.686046" lon="7.095324">
      </trkpt>
      <trkpt lat="50.686328" lon="7.096243">
      </trkpt>
      <trkpt lat="50.68681" lon="7.097145">
      </trkpt>
      <trkpt lat="50.687335" lon="7.097944">
      </trkpt>
      <trkpt lat="50.687977" lon="7.098504">
      </trkpt>
      <trkpt lat="50.688639" lon="7.099086">
      </trkpt>
      <trkpt lat="50.689075" lon="7.099672">
      </trkpt>
      <trkpt lat="50.689729" lon="7.100092">
      </trkpt>
      <trkpt lat="50.690323" lon="7.100097">
      </trkpt>
      <trkpt lat="50.691192" lon="7.099869">
      </trkpt>
      <trkpt lat="50.690927" lon="7.100738">
      </trkpt>
      <trkpt lat="50.69043" lon="7.101508">
      </trkpt>
      <trkpt lat="50.691056" lon="7.102932">
      </trkpt>
      <trkpt lat="50.691567" lon="7.10347">
      </trkpt>
      <trkpt lat="50.692057" lon="7.104028">
      </trkpt>
      <trkpt lat="50.69262" lon="7.10464">
      </trkpt>
      <trkpt lat="50.693208" lon="7.105031">
      </trkpt>
      <trkpt lat="50.693114" lon="7.105914">
      </trkpt>
      <trkpt lat="50.693307" lon="7.106932">
      </trkpt>
      <trkpt lat="50.693813" lon="7.10733">
      </trkpt>
      <trkpt lat="50.694492" lon="7.107933">
      </trkpt>
      <trkpt lat="50.695831" lon="7.108615">
      </trkpt>
      <trkpt lat="50.69651" lon="7.10913">
      </trkpt>
      <trkpt lat="50.697046" lon="7.109237">
      </trkpt>
      <trkpt lat="50.697939" lon="7.10909">
      </trkpt>
      <trkpt lat="50.698488" lon="7.108919">
      </trkpt>
      <trkpt lat="50.698942" lon="7.108235">
      </trkpt>
      <trkpt lat="50.69948" lon="7.108482">
      </trkpt>
      <trkpt lat="50.700096" lon="7.108813">
      </trkpt>
      <trkpt lat="50.700665" lon="7.10852">
      </trkpt>
      <trkpt lat="50.701427" lon="7.108169">
      </trkpt>
      <trkpt lat="50.70224" lon="7.108329">
      </trkpt>
      <trkpt lat="50.702596" lon="7.107444">
      </trkpt>
      <trkpt lat="50.703384" lon="7.107151">
      </trkpt>
      <trkpt lat="50.703449" lon="7.106088">
      </trkpt>
      <trkpt lat="50.704139" lon="7.105683">
      </trkpt>
      <trkpt lat="50.704705" lon="7.105331">
      </trkpt>
      <trkpt lat="50.70553" lon="7.105474">
      </trkpt>
      <trkpt lat="50.705976" lon="7.104826">
      </trkpt>
      <trkpt lat="50.706445" lon="7.104255">
      </trkpt>
      <trkpt lat="50.707034" lon="7.102976">
      </trkpt>
      <trkpt lat="50.707406" lon="7.102342">
      </trkpt>
      <trkpt lat="50.707935" lon="7.102536">
      </trkpt>
      <trkpt lat="50.708428" lon="7.102146">
      </trkpt>
      <trkpt lat="50.709524" lon="7.101695">
      </trkpt>
      <trkpt lat="50.710109" lon="7.101621">
      </trkpt>
      <trkpt lat="50.710674" lon="7.101518">
      </trkpt>
      <trkpt lat="50.710375" lon="7.102465">
      </trkpt>
      <trkpt lat="50.71088" lon="7.102953">
      </trkpt>
      <trkpt lat="50.710375" lon="7.103534">
      </trkpt>
      <trkpt lat="50.711164" lon="7.103528">
      </trkpt>
      <trkpt lat="50.711701" lon="7.103649">
      </trkpt>
      <trkpt lat="50.712314" lon="7.103379">
      </trkpt>
      <trkpt lat="50.712989" lon="7.104344">
      </trkpt>
      <trkpt lat="50.71365" lon="7.104804">
      </trkpt>
      <trkpt lat="50.714679" lon="7.104948">
      </trkpt>
      <trkpt lat="50.715282" lon="7.104387">
      </trkpt>
      <trkpt lat="50.715748" lon="7.103699">
      </trkpt>
      <trkpt lat="50.716248" lon="7.102915">
      </trkpt>
      <trkpt lat="50.716676" lon="7.102309">
      </trkpt>
      <trkpt lat="50.717101" lon="7.101703">
      </trkpt>
      <trkpt lat="50.717523" lon="7.101049">
      </trkpt>
      <trkpt lat="50.717949" lon="7.100347">
      </trkpt>
      <trkpt lat="50.718507" lon="7.099283">
      </trkpt>
      <trkpt lat="50.718887" lon="7.09835">
      </trkpt>
      <trkpt lat="50.719217" lon="7.097308">
      </trkpt>
      <trkpt lat="50.719509" lon="7.096024">
      </trkpt>
      <trkpt lat="50.720122" lon="7.096672">
      </trkpt>
      <trkpt lat="50.720699" lon="7.097293">
      </trkpt>
      <trkpt lat="50.721226" lon="7.097859">
      </trkpt>
      <trkpt lat="50.721789" lon="7.09827">
      </trkpt>
      <trkpt lat="50.722364" lon="7.098637">
      </trkpt>
      <trkpt lat="50.723118" lon="7.098853">
      </trkpt>
      <trkpt lat="50.723905" lon="7.097613">
      </trkpt>
      <trkpt lat="50.724381" lon="7.096387">
      </trkpt>
      <trkpt lat="50.724918" lon="7.095364">
      </trkpt>
      <trkpt lat="50.725605" lon="7.095403">
      </trkpt>
      <trkpt lat="50.726257" lon="7.095666">
      </trkpt>
      <trkpt lat="50.726503" lon="7.094352">
      </trkpt>
      <trkpt lat="50.727381" lon="7.095372">
      </trkpt>
      <trkpt lat="50.727956" lon="7.096109">
      </trkpt>
      <trkpt lat="50.728454" lon="7.096756">
      </trkpt>
      <trkpt lat="50.729151" lon="7.09764">
      </trkpt>
      <trkpt lat="50.729897" lon="7.098585">
      </trkpt>
      <trkpt lat="50.730551" lon="7.099416">
      </trkpt>
      <trkpt lat="50.730332" lon="7.100256">
      </trkpt>
      <trkpt lat="50.729622" lon="7.101456">
      </trkpt>
      <trkpt lat="50.728775" lon="7.102487">
      </trkpt>
      <trkpt lat="50.729003" lon="7.1036">
      </trkpt>
      <trkpt lat="50.73026" lon="7.103028">
      </trkpt>
      <trkpt lat="50.730651" lon="7.103868">
      </trkpt>
      <trkpt lat="50.730954" lon="7.104696">
      </trkpt>
      <trkpt lat="50.731509" lon="7.105369">
      </trkpt>
    </trkseg>
  </trk>
</gpx>