<?xml version="1.0" encoding="UTF-8"?>
<gpx xmlns="http://www.topografix.com/GPX/1/1" xmlns:xsi="http://www.w3.org/2001/XMLSchema-instance" xsi:schemaLocation="http://www.topografix.com/GPX/1/1 http://www.topografix.com/GPX/1/1/gpx.xsd" version="1.1" creator="gpx.py -- https://github.com/tkrajina/gpxpy">
  <metadata>
    <name>012</name>
  </metadata>
  <trk>
    <name>012</name>
    <trkseg>
      <trkpt lat="50.734193" lon="7.104185">
      </trkpt>
      <trkpt lat="50.733665" lon="7.103773">
      </trkpt>
      <trkpt lat="50.733184" lon="7.10317">
      </trkpt>
      <trkpt lat="50.732521" lon="7.102312">
      </trkpt>
      <trkpt lat="50.732138" lon="7.101498">
      </trkpt>
      <trkpt lat="50.731709" lon="7.100973">
      </trkpt>
      <trkpt lat="50.731715" lon="7.100055">
      </trkpt>
      <trkpt lat="50.731871" lon="7.098896">
      </trkpt>
      <trkpt lat="50.731528" lon="7.099675">
      </trkpt>
      <trkpt lat="50.731128" lon="7.098938">
      </trkpt>
      <trkpt lat="50.729749" lon="7.097762">
      </trkpt>
      <trkpt lat="50.729151" lon="7.09764">
      </trkpt>
      <trkpt lat="50.728454" lon="7.096756">
      </trkpt>
      <trkpt lat="50.727956" lon="7.096109">
      </trkpt>
      <trkpt lat="50.727381" lon="7.095372">
      </trkpt>
      <trkpt lat="50.726459" lon="7.095715">
      </trkpt>
      <trkpt lat="50.725732" lon="7.09544">
      </trkpt>
      <trkpt lat="50.724956" lon="7.095371">
      </trkpt>
      <trkpt lat="50.724381" lon="7.096387">
      </trkpt>
      <trkpt lat="50.723674" lon="7.095591">
      </trkpt>
      <trkpt lat="50.723153" lon="7.095018">
      </trkpt>
      <trkpt lat="50.722681" lon="7.09451">
      </trkpt>
      <trkpt lat="50.722182" lon="7.093981">
      </trkpt>
      <trkpt lat="50.721604" lon="7.093382">
      </trkpt>
      <trkpt lat="50.721002" lon="7.092764">
      </trkpt>
      <trkpt lat="50.720515" lon="7.092259">
      </trkpt>
      <trkpt lat="50.719774" lon="7.091731">
      </trkpt>
      <trkpt lat="50.719448" lon="7.092525">
      </trkpt>
      <trkpt lat="50.71908" lon="7.094313">
      </trkpt>
      <trkpt lat="50.718615" lon="7.095685">
      </trkpt>
      <trkpt lat="50.718184" lon="7.096325">
      </trkpt>
      <trkpt lat="50.717631" lon="7.096557">
      </trkpt>
      <trkpt lat="50.718032" lon="7.095701">
      </trkpt>
      <trkpt lat="50.717317" lon="7.095453">
      </trkpt>
      <trkpt lat="50.716615" lon="7.096596">
      </trkpt>
      <trkpt lat="50.716117" lon="7.097062">
      </trkpt>
      <trkpt lat="50.715709" lon="7.097981">
      </trkpt>
      <trkpt lat="50.715141" lon="7.098324">
      </trkpt>
      <trkpt lat="50.7146" lon="7.098987">
      </trkpt>
      <trkpt lat="50.714271" lon="7.099759">
      </trkpt>
      <trkpt lat="50.714475" lon="7.098195">
      </trkpt>
      <trkpt lat="50.714755" lon="7.096831">
      </trkpt>
      <trkpt lat="50.714696" lon="7.095966">
      </trkpt>
      <trkpt lat="50.71421" lon="7.095415">
      </trkpt>
      <trkpt lat="50.713661" lon="7.09508">
      </trkpt>
      <trkpt lat="50.713968" lon="7.095864">
      </trkpt>
      <trkpt lat="50.713557" lon="7.096678">
      </trkpt>
      <trkpt lat="50.71291" lon="7.09711">
      </trkpt>
      <trkpt lat="50.712288" lon="7.09764">
      </trkpt>
      <trkpt lat="50.711523" lon="7.097498">
      </trkpt>
      <trkpt lat="50.710868" lon="7.097704">
      </trkpt>
      <trkpt lat="50.710161" lon="7.099145">
      </trkpt>
      <trkpt lat="50.709698" lon="7.100062">
      </trkpt>
      <trkpt lat="50.709346" lon="7.100813">
      </trkpt>
      <trkpt lat="50.708801" lon="7.100854">
      </trkpt>
      <trkpt lat="50.708145" lon="7.100771">
      </trkpt>
      <trkpt lat="50.707543" lon="7.100274">
      </trkpt>
      <trkpt lat="50.706819" lon="7.099519">
      </trkpt>
      <trkpt lat="50.706403" lon="7.098677">
      </trkpt>
      <trkpt lat="50.705967" lon="7.099236">
      </trkpt>
      <trkpt lat="50.706087" lon="7.100247">
      </trkpt>
      <trkpt lat="50.705925" lon="7.101405">
      </trkpt>
      <trkpt lat="50.705593" lon="7.102557">
      </trkpt>
      <trkpt lat="50.705145" lon="7.103426">
      </trkpt>
      <trkpt lat="50.704239" lon="7.103624">
      </trkpt>
      <trkpt lat="50.703672" lon="7.104058">
      </trkpt>
      <trkpt lat="50.703018" lon="7.104459">
      </trkpt>
      <trkpt lat="50.70252" lon="7.104884">
      </trkpt>
      <trkpt lat="50.702044" lon="7.105695">
      </trkpt>
      <trkpt lat="50.701615" lon="7.10658">
      </trkpt>
      <trkpt lat="50.701241" lon="7.107247">
      </trkpt>
      <trkpt lat="50.700575" lon="7.107553">
      </trkpt>
      <trkpt lat="50.699805" lon="7.107807">
      </trkpt>
      <trkpt lat="50.699244" lon="7.107649">
      </trkpt>
      <trkpt lat="50.697933" lon="7.108153">
      </trkpt>
      <trkpt lat="50.697112" lon="7.108455">
      </trkpt>
      <trkpt lat="50.696166" lon="7.108604">
      </trkpt>
      <trkpt lat="50.694492" lon="7.107933">
      </trkpt>
      <trkpt lat="50.693813" lon="7.10733">
      </trkpt>
      <trkpt lat="50.693307" lon="7.106932">
      </trkpt>
      <trkpt lat="50.692776" lon="7.106071">
      </trkpt>
      <trkpt lat="50.692026" lon="7.106154">
      </trkpt>
      <trkpt lat="50.691027" lon="7.106757">
      </trkpt>
      <trkpt lat="50.690665" lon="7.105945">
      </trkpt>
      <trkpt lat="50.690103" lon="7.106007">
      </trkpt>
      <trkpt lat="50.68935" lon="7.105677">
      </trkpt>
      <trkpt lat="50.688612" lon="7.104823">
      </trkpt>
      <trkpt lat="50.687947" lon="7.104269">
      </trkpt>
      <trkpt lat="50.687491" lon="7.103348">
      </trkpt>
      <trkpt lat="50.686913" lon="7.102968">
      </trkpt>
      <trkpt lat="50.686099" lon="7.103944">
      </trkpt>
      <trkpt lat="50.686103" lon="7.10534">
      </trkpt>
      <trkpt lat="50.686278" lon="7.106255">
      </trkpt>
      <trkpt lat="50.686433" lon="7.107227">
      </trkpt>
      <trkpt lat="50.6874" lon="7.108148">
      </trkpt>
      <trkpt lat="50.68611" lon="7.110248">
      </trkpt>
      <trkpt lat="50.683526" lon="7.114443">
      </trkpt>
      <trkpt lat="50.683151" lon="7.115345">
      </trkpt>
      <trkpt lat="50.682644" lon="7.116548">
      </trkpt>
      <trkpt lat="50.682065" lon="7.117767">
      </trkpt>
      <trkpt lat="50.681978" lon="7.118711">
      </trkpt>
      <trkpt lat="50.682021" lon="7.119824">
      </trkpt>
      <trkpt lat="50.68152" lon="7.122325">
      </trkpt>
      <trkpt lat="50.680772" lon="7.126093">
      </trkpt>
      <trkpt lat="50.680704" lon="7.127379">
      </trkpt>
      <trkpt lat="50.680083" lon="7.129291">
      </trkpt>
      <trkpt lat="50.679608" lon="7.129945">
      </trkpt>
      <trkpt lat="50.679029" lon="7.130532">
      </trkpt>
      <trkpt lat="50.67834" lon="7.13178">
      </trkpt>
      <trkpt lat="50.677709" lon="7.132311">
      </trkpt>
      <trkpt lat="50.677195" lon="7.132901">
      </trkpt>
      <trkpt lat="50.676866" lon="7.133632">
      </trkpt>
      <trkpt lat="50.676113" lon="7.133327">
      </trkpt>
      <trkpt lat="50.675997" lon="7.132355">
      </trkpt>
      <trkpt lat="50.675433" lon="7.131529">
      </trkpt>
      <trkpt lat="50.675111" lon="7.130782">
      </trkpt>
      <trkpt lat="50.674943" lon="7.129563">
      </trkpt>
      <trkpt lat="50.675065" lon="7.128371">
      </trkpt>
      <trkpt lat="50.674545" lon="7.126431">
      </trkpt>
      <trkpt lat="50.673759" lon="7.124543">
      </trkpt>
      <trkpt lat="50.671882" lon="7.119959">
      </trkpt>
      <trkpt lat="50.671383" lon="7.118835">
      </trkpt>
      <trkpt lat="50.671344" lon="7.11792">
      </trkpt>
      <trkpt lat="50.67109" lon="7.116907">
      </trkpt>
      <trkpt lat="50.670829" lon="7.116141">
      </trkpt>
      <trkpt lat="50.670281" lon="7.116675">
      </trkpt>
      <trkpt lat="50.669747" lon="7.117499">
      </trkpt>
      <trkpt lat="50.666207" lon="7.12215">
      </trkpt>
      <trkpt lat="50.665942" lon="7.12457">
      </trkpt>
      <trkpt lat="50.665847" lon="7.125524">
      </trkpt>
      <trkpt lat="50.665472" lon="7.126184">
      </trkpt>
      <trkpt lat="50.665496" lon="7.127493">
      </trkpt>
      <trkpt lat="50.665169" lon="7.128573">
      </trkpt>
      <trkpt lat="50.665778" lon="7.128614">
      </trkpt>
      <trkpt lat="50.665686" lon="7.129517">
      </trkpt>
      <trkpt lat="50.666218" lon="7.129781">
      </trkpt>
      <trkpt lat="50.666101" lon="7.130627">
      </trkpt>
      <trkpt lat="50.665518" lon="7.130733">
      </trkpt>
      <trkpt lat="50.66487" lon="7.13061">
      </trkpt>
      <trkpt lat="50.664314" lon="7.130773">
      </trkpt>
      <trkpt lat="50.664657" lon="7.131476">
      </trkpt>
      <trkpt lat="50.665064" lon="7.132456">
      </trkpt>
      <trkpt lat="50.664259" lon="7.132095">
      </trkpt>
      <trkpt lat="50.663496" lon="7.133495">
      </trkpt>
      <trkpt lat="50.663337" lon="7.134363">
      </trkpt>
      <trkpt lat="50.662846" lon="7.13401">
      </trkpt>
      <trkpt lat="50.662279" lon="7.133586">
      </trkpt>
      <trkpt lat="50.66158" lon="7.132787">
      </trkpt>
      <trkpt lat="50.66089" lon="7.132408">
      </trkpt>
      <trkpt lat="50.660286" lon="7.131746">
      </trkpt>
      <trkpt lat="50.659948" lon="7.13064">
      </trkpt>
      <trkpt lat="50.659385" lon="7.129721">
      </trkpt>
      <trkpt lat="50.658803" lon="7.129586">
      </trkpt>
      <trkpt lat="50.658012" lon="7.130315">
      </trkpt>
      <trkpt lat="50.657242" lon="7.132206">
      </trkpt>
      <trkpt lat="50.656897" lon="7.133094">
      </trkpt>
      <trkpt lat="50.656393" lon="7.133825">
      </trkpt>
      <trkpt lat="50.656311" lon="7.135121">
      </trkpt>
      <trkpt lat="50.656445" lon="7.136169">
      </trkpt>
      <trkpt lat="50.656553" lon="7.137207">
      </trkpt>
      <trkpt lat="50.655941" lon="7.137077">
      </trkpt>
      <trkpt lat="50.655308" lon="7.137025">
      </trkpt>
      <trkpt lat="50.654655" lon="7.136559">
      </trkpt>
      <trkpt lat="50.653354" lon="7.135247">
      </trkpt>
      <trkpt lat="50.652425" lon="7.133594">
      </trkpt>
      <trkpt lat="50.651845" lon="7.132609">
      </trkpt>
      <trkpt lat="50.651307" lon="7.132027">
      </trkpt>
      <trkpt lat="50.650751" lon="7.131444">
      </trkpt>
      <trkpt lat="50.650025" lon="7.130752">
      </trkpt>
      <trkpt lat="50.648927" lon="7.130387">
      </trkpt>
      <trkpt lat="50.648385" lon="7.130405">
      </trkpt>
      <trkpt lat="50.648056" lon="7.131149">
      </trkpt>
      <trkpt lat="50.6477" lon="7.132272">
      </trkpt>
      <trkpt lat="50.647594" lon="7.133307">
      </trkpt>
      <trkpt lat="50.64773" lon="7.134463">
      </trkpt>
      <trkpt lat="50.647625" lon="7.135352">
      </trkpt>
      <trkpt lat="50.647751" lon="7.13629">
      </trkpt>
      <trkpt lat="50.648077" lon="7.137287">
      </trkpt>
      <trkpt lat="50.648213" lon="7.138271">
      </trkpt>
      <trkpt lat="50.648614" lon="7.141402">
      </trkpt>
      <trkpt lat="50.649824" lon="7.141009">
      </trkpt>
      <trkpt lat="50.65005" lon="7.142877">
      </trkpt>
      <trkpt lat="50.64992" lon="7.144291">
      </trkpt>
      <trkpt lat="50.650156" lon="7.145604">
      </trkpt>
      <trkpt lat="50.650265" lon="7.147356">
      </trkpt>
      <trkpt lat="50.650366" lon="7.148859">
      </trkpt>
      <trkpt lat="50.649713" lon="7.149105">
      </trkpt>
      <trkpt lat="50.649141" lon="7.150501">
      </trkpt>
      <trkpt lat="50.649118" lon="7.15137">
      </trkpt>
      <trkpt lat="50.649234" lon="7.15235">
      </trkpt>
      <trkpt lat="50.649433" lon="7.154128">
      </trkpt>
      <trkpt lat="50.649458" lon="7.155021">
      </trkpt>
      <trkpt lat="50.649031" lon="7.156258">
      </trkpt>
      <trkpt lat="50.648455" lon="7.156903">
      </trkpt>
      <trkpt lat="50.648341" lon="7.158249">
      </trkpt>
      <trkpt lat="50.648406" lon="7.160372">
      </trkpt>
      <trkpt lat="50.648474" lon="7.161228">
      </trkpt>
      <trkpt lat="50.647821" lon="7.161868">
      </trkpt>
      <trkpt lat="50.647861" lon="7.163238">
      </trkpt>
      <trkpt lat="50.648068" lon="7.1648">
      </trkpt>
      <trkpt lat="50.648292" lon="7.166537">
      </trkpt>
      <trkpt lat="50.648679" lon="7.167828">
      </trkpt>
      <trkpt lat="50.649055" lon="7.168521">
      </trkpt>
      <trkpt lat="50.649665" lon="7.169645">
      </trkpt>
      <trkpt lat="50.650258" lon="7.170732">
      </trkpt>
      <trkpt lat="50.650792" lon="7.171424">
      </trkpt>
      <trkpt lat="50.65101" lon="7.173112">
      </trkpt>
      <trkpt lat="50.651015" lon="7.174969">
      </trkpt>
      <trkpt lat="50.651697" lon="7.175928">
      </trkpt>
      <trkpt lat="50.652253" lon="7.176546">
      </trkpt>
      <trkpt lat="50.652756" lon="7.177403">
      </trkpt>
      <trkpt lat="50.653213" lon="7.178401">
      </trkpt>
      <trkpt lat="50.65396" lon="7.17976">
      </trkpt>
      <trkpt lat="50.654605" lon="7.181433">
      </trkpt>
      <trkpt lat="50.655086" lon="7.181963">
      </trkpt>
      <trkpt lat="50.655044" lon="7.183132">
      </trkpt>
      <trkpt lat="50.655293" lon="7.183951">
      </trkpt>
      <trkpt lat="50.656016" lon="7.184429">
      </trkpt>
      <trkpt lat="50.656581" lon="7.184705">
      </trkpt>
      <trkpt lat="50.657119" lon="7.18551">
      </trkpt>
      <trkpt lat="50.657567" lon="7.186088">
      </trkpt>
      <trkpt lat="50.657376" lon="7.186931">
      </trkpt>
      <trkpt lat="50.656859" lon="7.187258">
      </trkpt>
      <trkpt lat="50.656053" lon="7.187558">
      </trkpt>
      <trkpt lat="50.655488" lon="7.187768">
      </trkpt>
      <trkpt lat="50.65547" lon="7.188798">
      </trkpt>
      <trkpt lat="50.654374" lon="7.18935">
      </trkpt>
      <trkpt lat="50.653805" lon="7.189341">
      </trkpt>
      <trkpt lat="50.65294" lon="7.190172">
      </trkpt>
      <trkpt lat="50.652245" lon="7.191099">
      </trkpt>
      <trkpt lat="50.651549" lon="7.192052">
      </trkpt>
      <trkpt lat="50.651172" lon="7.19321">
      </trkpt>
      <trkpt lat="50.650562" lon="7.193902">
      </trkpt>
      <trkpt lat="50.649689" lon="7.194306">
      </trkpt>
      <trkpt lat="50.649377" lon="7.195631">
      </trkpt>
      <trkpt lat="50.64882" lon="7.196096">
      </trkpt>
      <trkpt lat="50.648497" lon="7.196986">
      </trkpt>
      <trkpt lat="50.648871" lon="7.197787">
      </trkpt>
      <trkpt lat="50.648861" lon="7.198645">
      </trkpt>
      <trkpt lat="50.649435" lon="7.198229">
      </trkpt>
      <trkpt lat="50.650291" lon="7.197584">
      </trkpt>
      <trkpt lat="50.650752" lon="7.198244">
      </trkpt>
      <trkpt lat="50.650109" lon="7.19905">
      </trkpt>
      <trkpt lat="50.650168" lon="7.20002">
      </trkpt>
      <trkpt lat="50.649489" lon="7.200737">
      </trkpt>
      <trkpt lat="50.64972" lon="7.202204">
      </trkpt>
      <trkpt lat="50.650194" lon="7.203956">
      </trkpt>
      <trkpt lat="50.65189" lon="7.20272">
      </trkpt>
      <trkpt lat="50.652747" lon="7.202097">
      </trkpt>
      <trkpt lat="50.653319" lon="7.201674">
      </trkpt>
      <trkpt lat="50.653921" lon="7.201241">
      </trkpt>
      <trkpt lat="50.654975" lon="7.203051">
      </trkpt>
      <trkpt lat="50.655561" lon="7.202454">
      </trkpt>
      <trkpt lat="50.657068" lon="7.201267">
      </trkpt>
      <trkpt lat="50.657612" lon="7.20073">
      </trkpt>
      <trkpt lat="50.658452" lon="7.199696">
      </trkpt>
      <trkpt lat="50.658962" lon="7.19909">
      </trkpt>
      <trkpt lat="50.660486" lon="7.197748">
      </trkpt>
      <trkpt lat="50.661274" lon="7.197041">
      </trkpt>
      <trkpt lat="50.662356" lon="7.195974">
      </trkpt>
      <trkpt lat="50.663318" lon="7.194989">
      </trkpt>
      <trkpt lat="50.664195" lon="7.194046">
      </trkpt>
      <trkpt lat="50.664679" lon="7.193569">
      </trkpt>
      <trkpt lat="50.665435" lon="7.192744">
      </trkpt>
      <trkpt lat="50.666313" lon="7.192151">
      </trkpt>
      <trkpt lat="50.666951" lon="7.191524">
      </trkpt>
      <trkpt lat="50.667567" lon="7.191139">
      </trkpt>
      <trkpt lat="50.668016" lon="7.190583">
      </trkpt>
      <trkpt lat="50.66857" lon="7.19021">
      </trkpt>
      <trkpt lat="50.669157" lon="7.189455">
      </trkpt>
      <trkpt lat="50.669691" lon="7.189021">
      </trkpt>
      <trkpt lat="50.670441" lon="7.188383">
      </trkpt>
      <trkpt lat="50.673441" lon="7.185979">
      </trkpt>
      <trkpt lat="50.677368" lon="7.182599">
      </trkpt>
      <trkpt lat="50.677982" lon="7.182027">
      </trkpt>
      <trkpt lat="50.678922" lon="7.181087">
      </trkpt>
      <trkpt lat="50.679729" lon="7.180219">
      </trkpt>
      <trkpt lat="50.680254" lon="7.179664">
      </trkpt>
      <trkpt lat="50.681225" lon="7.178726">
      </trkpt>
      <trkpt lat="50.682695" lon="7.177228">
      </trkpt>
      <trkpt lat="50.683874" lon="7.175762">
      </trkpt>
      <trkpt lat="50.684966" lon="7.174671">
      </trkpt>
      <trkpt lat="50.685663" lon="7.174115">
      </trkpt>
      <trkpt lat="50.688418" lon="7.172622">
      </trkpt>
      <trkpt lat="50.689074" lon="7.172311">
      </trkpt>
      <trkpt lat="50.689631" lon="7.172038">
      </trkpt>
      <trkpt lat="50.69025" lon="7.171733">
      </trkpt>
      <trkpt lat="50.690923" lon="7.171427">
      </trkpt>
      <trkpt lat="50.691487" lon="7.171102">
      </trkpt>
      <trkpt lat="50.692425" lon="7.170638">
      </trkpt>
      <trkpt lat="50.693219" lon="7.170225">
      </trkpt>
      <trkpt lat="50.693846" lon="7.169731">
      </trkpt>
      <trkpt lat="50.69466" lon="7.169534">
      </trkpt>
      <trkpt lat="50.696304" lon="7.169005">
      </trkpt>
      <trkpt lat="50.698153" lon="7.168176">
      </trkpt>
      <trkpt lat="50.698976" lon="7.167825">
      </trkpt>
      <trkpt lat="50.699791" lon="7.167468">
      </trkpt>
      <trkpt lat="50.700823" lon="7.166879">
      </trkpt>
      <trkpt lat="50.70167" lon="7.166327">
      </trkpt>
      <trkpt lat="50.70217" lon="7.165921">
      </trkpt>
      <trkpt lat="50.702676" lon="7.165454">
      </trkpt>
      <trkpt lat="50.703326" lon="7.16488">
      </trkpt>
      <trkpt lat="50.70409" lon="7.164194">
      </trkpt>
      <trkpt lat="50.704995" lon="7.163404">
      </trkpt>
      <trkpt lat="50.705986" lon="7.162434">
      </trkpt>
      <trkpt lat="50.706476" lon="7.161883">
      </trkpt>
      <trkpt lat="50.707754" lon="7.160382">
      </trkpt>
      <trkpt lat="50.708746" lon="7.159113">
      </trkpt>
      <trkpt lat="50.70928" lon="7.158308">
      </trkpt>
      <trkpt lat="50.710338" lon="7.156615">
      </trkpt>
      <trkpt lat="50.711708" lon="7.154154">
      </trkpt>
      <trkpt lat="50.712556" lon="7.152388">
      </trkpt>
      <trkpt lat="50.713758" lon="7.149572">
      </trkpt>
      <trkpt lat="50.714329" lon="7.148119">
      </trkpt>
      <trkpt lat="50.714717" lon="7.147349">
      </trkpt>
      <trkpt lat="50.715185" lon="7.14575">
      </trkpt>
      <trkpt lat="50.715639" lon="7.143867">
      </trkpt>
      <trkpt lat="50.715943" lon="7.142589">
      </trkpt>
      <trkpt lat="50.716194" lon="7.141491">
      </trkpt>
      <trkpt lat="50.716444" lon="7.140688">
      </trkpt>
      <trkpt lat="50.716895" lon="7.138826">
      </trkpt>
      <trkpt lat="50.717288" lon="7.137064">
      </trkpt>
      <trkpt lat="50.717621" lon="7.135722">
      </trkpt>
      <trkpt lat="50.717937" lon="7.134393">
      </trkpt>
      <trkpt lat="50.718168" lon="7.133254">
      </trkpt>
      <trkpt lat="50.718401" lon="7.132125">
      </trkpt>
      <trkpt lat="50.718674" lon="7.130745">
      </trkpt>
      <trkpt lat="50.718856" lon="7.129833">
      </trkpt>
      <trkpt lat="50.719118" lon="7.12862">
      </trkpt>
      <trkpt lat="50.719587" lon="7.126695">
      </trkpt>
      <trkpt lat="50.719859" lon="7.125743">
      </trkpt>
      <trkpt lat="50.720185" lon="7.124757">
      </trkpt>
      <trkpt lat="50.720912" lon="7.12284">
      </trkpt>
      <trkpt lat="50.721427" lon="7.121617">
      </trkpt>
      <trkpt lat="50.722446" lon="7.119719">
      </trkpt>
      <trkpt lat="50.723829" lon="7.117462">
      </trkpt>
      <trkpt lat="50.725152" lon="7.115492">
      </trkpt>
      <trkpt lat="50.725684" lon="7.11475">
      </trkpt>
      <trkpt lat="50.727075" lon="7.113114">
      </trkpt>
      <trkpt lat="50.727889" lon="7.112297">
      </trkpt>
      <trkpt lat="50.72845" lon="7.111791">
      </trkpt>
      <trkpt lat="50.729885" lon="7.110769">
      </trkpt>
      <trkpt lat="50.731859" lon="7.109381">
      </trkpt>
      <trkpt lat="50.73236" lon="7.109949">
      </trkpt>
    </trkseg>
  </trk>
</gpx>