<?xml version="1.0" encoding="UTF-8"?>
<gpx xmlns="http://www.topografix.com/GPX/1/1" xmlns:xsi="http://www.w3.org/2001/XMLSchema-instance" xsi:schemaLocation="http://www.topografix.com/GPX/1/1 http://www.topografix.com/GPX/1/1/gpx.xsd" version="1.1" creator="gpx.py -- https://github.com/tkrajina/gpxpy">
  <metadata>
    <name>013</name>
  </metadata>
  <trk>
    <name>013</name>
    <trkseg>
      <trkpt lat="50.734165" lon="7.104228">
      </trkpt>
      <trkpt lat="50.734714" lon="7.104128">
      </trkpt>
      <trkpt lat="50.735244" lon="7.10382">
      </trkpt>
      <trkpt lat="50.73573" lon="7.105041">
      </trkpt>
      <trkpt lat="50.736045" lon="7.106103">
      </trkpt>
      <trkpt lat="50.7366" lon="7.105918">
      </trkpt>
      <trkpt lat="50.737277" lon="7.105735">
      </trkpt>
      <trkpt lat="50.73765" lon="7.106707">
      </trkpt>
      <trkpt lat="50.738118" lon="7.110063">
      </trkpt>
      <trkpt lat="50.738574" lon="7.11341">
      </trkpt>
      <trkpt lat="50.738727" lon="7.114479">
      </trkpt>
      <trkpt lat="50.738828" lon="7.115368">
      </trkpt>
      <trkpt lat="50.738415" lon="7.116284">
      </trkpt>
      <trkpt lat="50.738223" lon="7.115354">
      </trkpt>
      <trkpt lat="50.737996" lon="7.114226">
      </trkpt>
      <trkpt lat="50.738478" lon="7.113219">
      </trkpt>
      <trkpt lat="50.739778" lon="7.112939">
      </trkpt>
      <trkpt lat="50.740466" lon="7.113008">
      </trkpt>
      <trkpt lat="50.74103" lon="7.112911">
      </trkpt>
      <trkpt lat="50.741752" lon="7.112603">
      </trkpt>
      <trkpt lat="50.74232" lon="7.113186">
      </trkpt>
      <trkpt lat="50.742665" lon="7.114247">
      </trkpt>
      <trkpt lat="50.74324" lon="7.114631">
      </trkpt>
      <trkpt lat="50.744031" lon="7.114546">
      </trkpt>
      <trkpt lat="50.74521" lon="7.114504">
      </trkpt>
      <trkpt lat="50.745998" lon="7.114403">
      </trkpt>
      <trkpt lat="50.746705" lon="7.114088">
      </trkpt>
      <trkpt lat="50.747324" lon="7.113644">
      </trkpt>
      <trkpt lat="50.747951" lon="7.113169">
      </trkpt>
      <trkpt lat="50.748463" lon="7.112744">
      </trkpt>
      <trkpt lat="50.749493" lon="7.111977">
      </trkpt>
      <trkpt lat="50.750696" lon="7.11102">
      </trkpt>
      <trkpt lat="50.751652" lon="7.110284">
      </trkpt>
      <trkpt lat="50.752464" lon="7.110122">
      </trkpt>
      <trkpt lat="50.75318" lon="7.110502">
      </trkpt>
      <trkpt lat="50.753693" lon="7.1108">
      </trkpt>
      <trkpt lat="50.753844" lon="7.111788">
      </trkpt>
      <trkpt lat="50.753823" lon="7.113453">
      </trkpt>
      <trkpt lat="50.753659" lon="7.114398">
      </trkpt>
      <trkpt lat="50.755136" lon="7.114282">
      </trkpt>
      <trkpt lat="50.756026" lon="7.114208">
      </trkpt>
      <trkpt lat="50.756691" lon="7.114141">
      </trkpt>
      <trkpt lat="50.757416" lon="7.113946">
      </trkpt>
      <trkpt lat="50.758651" lon="7.11602">
      </trkpt>
      <trkpt lat="50.759692" lon="7.11768">
      </trkpt>
      <trkpt lat="50.760975" lon="7.119346">
      </trkpt>
      <trkpt lat="50.76137" lon="7.120117">
      </trkpt>
      <trkpt lat="50.761937" lon="7.12124">
      </trkpt>
      <trkpt lat="50.762232" lon="7.122019">
      </trkpt>
      <trkpt lat="50.76277" lon="7.121866">
      </trkpt>
      <trkpt lat="50.763341" lon="7.120741">
      </trkpt>
      <trkpt lat="50.763694" lon="7.121922">
      </trkpt>
      <trkpt lat="50.76393" lon="7.122798">
      </trkpt>
      <trkpt lat="50.764306" lon="7.124431">
      </trkpt>
      <trkpt lat="50.764632" lon="7.126094">
      </trkpt>
      <trkpt lat="50.764861" lon="7.127871">
      </trkpt>
      <trkpt lat="50.766631" lon="7.12751">
      </trkpt>
      <trkpt lat="50.767167" lon="7.127182">
      </trkpt>
      <trkpt lat="50.767709" lon="7.126899">
      </trkpt>
      <trkpt lat="50.768499" lon="7.127143">
      </trkpt>
      <trkpt lat="50.769071" lon="7.127488">
      </trkpt>
      <trkpt lat="50.770784" lon="7.124817">
      </trkpt>
      <trkpt lat="50.772282" lon="7.124956">
      </trkpt>
      <trkpt lat="50.772963" lon="7.12491">
      </trkpt>
      <trkpt lat="50.773601" lon="7.124969">
      </trkpt>
      <trkpt lat="50.774178" lon="7.125788">
      </trkpt>
      <trkpt lat="50.774626" lon="7.126579">
      </trkpt>
      <trkpt lat="50.775187" lon="7.127041">
      </trkpt>
      <trkpt lat="50.776051" lon="7.127552">
      </trkpt>
      <trkpt lat="50.776702" lon="7.127781">
      </trkpt>
      <trkpt lat="50.779655" lon="7.128788">
      </trkpt>
      <trkpt lat="50.780723" lon="7.12933">
      </trkpt>
      <trkpt lat="50.781215" lon="7.129832">
      </trkpt>
      <trkpt lat="50.781724" lon="7.130641">
      </trkpt>
      <trkpt lat="50.782248" lon="7.130949">
      </trkpt>
      <trkpt lat="50.782792" lon="7.131566">
      </trkpt>
      <trkpt lat="50.783804" lon="7.132926">
      </trkpt>
      <trkpt lat="50.784307" lon="7.134086">
      </trkpt>
      <trkpt lat="50.784646" lon="7.135439">
      </trkpt>
      <trkpt lat="50.784822" lon="7.136272">
      </trkpt>
      <trkpt lat="50.784668" lon="7.137365">
      </trkpt>
      <trkpt lat="50.784229" lon="7.138823">
      </trkpt>
      <trkpt lat="50.78442" lon="7.140311">
      </trkpt>
      <trkpt lat="50.784491" lon="7.141353">
      </trkpt>
      <trkpt lat="50.784415" lon="7.142838">
      </trkpt>
      <trkpt lat="50.785083" lon="7.142398">
      </trkpt>
      <trkpt lat="50.786042" lon="7.141229">
      </trkpt>
      <trkpt lat="50.786407" lon="7.142481">
      </trkpt>
      <trkpt lat="50.786705" lon="7.143571">
      </trkpt>
      <trkpt lat="50.787353" lon="7.144637">
      </trkpt>
      <trkpt lat="50.787994" lon="7.145335">
      </trkpt>
      <trkpt lat="50.788868" lon="7.145833">
      </trkpt>
      <trkpt lat="50.789728" lon="7.1459">
      </trkpt>
      <trkpt lat="50.790239" lon="7.146464">
      </trkpt>
      <trkpt lat="50.791469" lon="7.146764">
      </trkpt>
      <trkpt lat="50.792211" lon="7.147082">
      </trkpt>
      <trkpt lat="50.792885" lon="7.147091">
      </trkpt>
      <trkpt lat="50.793537" lon="7.146591">
      </trkpt>
      <trkpt lat="50.793696" lon="7.147406">
      </trkpt>
      <trkpt lat="50.793772" lon="7.148384">
      </trkpt>
      <trkpt lat="50.793815" lon="7.149758">
      </trkpt>
      <trkpt lat="50.794019" lon="7.150829">
      </trkpt>
      <trkpt lat="50.794009" lon="7.151682">
      </trkpt>
      <trkpt lat="50.794783" lon="7.153278">
      </trkpt>
      <trkpt lat="50.795258" lon="7.154507">
      </trkpt>
      <trkpt lat="50.796441" lon="7.154358">
      </trkpt>
      <trkpt lat="50.796512" lon="7.156266">
      </trkpt>
      <trkpt lat="50.796251" lon="7.157385">
      </trkpt>
      <trkpt lat="50.796163" lon="7.158347">
      </trkpt>
      <trkpt lat="50.7967" lon="7.165111">
      </trkpt>
      <trkpt lat="50.79703" lon="7.166569">
      </trkpt>
      <trkpt lat="50.797483" lon="7.167433">
      </trkpt>
      <trkpt lat="50.79772" lon="7.168276">
      </trkpt>
      <trkpt lat="50.797851" lon="7.171544">
      </trkpt>
      <trkpt lat="50.797904" lon="7.172865">
      </trkpt>
      <trkpt lat="50.797867" lon="7.173745">
      </trkpt>
      <trkpt lat="50.797909" lon="7.174817">
      </trkpt>
      <trkpt lat="50.798606" lon="7.1754">
      </trkpt>
      <trkpt lat="50.798515" lon="7.176478">
      </trkpt>
      <trkpt lat="50.797723" lon="7.17675">
      </trkpt>
      <trkpt lat="50.79778" lon="7.175692">
      </trkpt>
      <trkpt lat="50.798375" lon="7.176206">
      </trkpt>
      <trkpt lat="50.800305" lon="7.178611">
      </trkpt>
      <trkpt lat="50.800793" lon="7.179465">
      </trkpt>
      <trkpt lat="50.80014" lon="7.17863">
      </trkpt>
      <trkpt lat="50.800513" lon="7.17795">
      </trkpt>
      <trkpt lat="50.800717" lon="7.177119">
      </trkpt>
      <trkpt lat="50.801248" lon="7.176191">
      </trkpt>
      <trkpt lat="50.801855" lon="7.175689">
      </trkpt>
      <trkpt lat="50.802387" lon="7.176158">
      </trkpt>
      <trkpt lat="50.802941" lon="7.176234">
      </trkpt>
      <trkpt lat="50.803696" lon="7.176656">
      </trkpt>
      <trkpt lat="50.804446" lon="7.176467">
      </trkpt>
      <trkpt lat="50.805237" lon="7.176789">
      </trkpt>
      <trkpt lat="50.806176" lon="7.177553">
      </trkpt>
      <trkpt lat="50.806983" lon="7.178666">
      </trkpt>
      <trkpt lat="50.807024" lon="7.179523">
      </trkpt>
      <trkpt lat="50.8068" lon="7.180326">
      </trkpt>
      <trkpt lat="50.807325" lon="7.180654">
      </trkpt>
      <trkpt lat="50.808073" lon="7.18148">
      </trkpt>
      <trkpt lat="50.809086" lon="7.184454">
      </trkpt>
      <trkpt lat="50.809693" lon="7.185064">
      </trkpt>
      <trkpt lat="50.810512" lon="7.186051">
      </trkpt>
      <trkpt lat="50.811083" lon="7.186331">
      </trkpt>
      <trkpt lat="50.811026" lon="7.185419">
      </trkpt>
      <trkpt lat="50.811589" lon="7.185732">
      </trkpt>
      <trkpt lat="50.812029" lon="7.184814">
      </trkpt>
      <trkpt lat="50.812371" lon="7.183261">
      </trkpt>
      <trkpt lat="50.814023" lon="7.183917">
      </trkpt>
      <trkpt lat="50.81458" lon="7.18406">
      </trkpt>
      <trkpt lat="50.815311" lon="7.184248">
      </trkpt>
      <trkpt lat="50.816611" lon="7.184574">
      </trkpt>
      <trkpt lat="50.817981" lon="7.185413">
      </trkpt>
      <trkpt lat="50.818956" lon="7.186341">
      </trkpt>
      <trkpt lat="50.819538" lon="7.186787">
      </trkpt>
      <trkpt lat="50.820796" lon="7.187605">
      </trkpt>
      <trkpt lat="50.821439" lon="7.188006">
      </trkpt>
      <trkpt lat="50.822062" lon="7.18789">
      </trkpt>
      <trkpt lat="50.82304" lon="7.188115">
      </trkpt>
      <trkpt lat="50.82367" lon="7.18806">
      </trkpt>
      <trkpt lat="50.824346" lon="7.187308">
      </trkpt>
      <trkpt lat="50.825076" lon="7.187151">
      </trkpt>
      <trkpt lat="50.825886" lon="7.188169">
      </trkpt>
      <trkpt lat="50.826337" lon="7.18907">
      </trkpt>
      <trkpt lat="50.826868" lon="7.190022">
      </trkpt>
      <trkpt lat="50.8275" lon="7.190766">
      </trkpt>
      <trkpt lat="50.828388" lon="7.190947">
      </trkpt>
      <trkpt lat="50.829329" lon="7.191149">
      </trkpt>
      <trkpt lat="50.830641" lon="7.19205">
      </trkpt>
      <trkpt lat="50.831641" lon="7.192976">
      </trkpt>
      <trkpt lat="50.832156" lon="7.193453">
      </trkpt>
      <trkpt lat="50.832875" lon="7.192389">
      </trkpt>
      <trkpt lat="50.833798" lon="7.191095">
      </trkpt>
      <trkpt lat="50.833862" lon="7.188731">
      </trkpt>
      <trkpt lat="50.833759" lon="7.187719">
      </trkpt>
      <trkpt lat="50.833616" lon="7.18657">
      </trkpt>
      <trkpt lat="50.832898" lon="7.186544">
      </trkpt>
      <trkpt lat="50.832536" lon="7.187198">
      </trkpt>
      <trkpt lat="50.831917" lon="7.187468">
      </trkpt>
      <trkpt lat="50.831099" lon="7.187087">
      </trkpt>
      <trkpt lat="50.830396" lon="7.1873">
      </trkpt>
      <trkpt lat="50.829818" lon="7.1868">
      </trkpt>
      <trkpt lat="50.829175" lon="7.186855">
      </trkpt>
      <trkpt lat="50.82921" lon="7.185352">
      </trkpt>
      <trkpt lat="50.82943" lon="7.184029">
      </trkpt>
      <trkpt lat="50.829648" lon="7.182815">
      </trkpt>
      <trkpt lat="50.829867" lon="7.181601">
      </trkpt>
      <trkpt lat="50.830085" lon="7.180387">
      </trkpt>
      <trkpt lat="50.829996" lon="7.17919">
      </trkpt>
      <trkpt lat="50.829906" lon="7.177992">
      </trkpt>
      <trkpt lat="50.829817" lon="7.176795">
      </trkpt>
      <trkpt lat="50.831517" lon="7.175214">
      </trkpt>
      <trkpt lat="50.83211" lon="7.174122">
      </trkpt>
      <trkpt lat="50.83265" lon="7.172973">
      </trkpt>
      <trkpt lat="50.833271" lon="7.17053">
      </trkpt>
      <trkpt lat="50.833214" lon="7.169527">
      </trkpt>
      <trkpt lat="50.833128" lon="7.16815">
      </trkpt>
      <trkpt lat="50.832988" lon="7.167238">
      </trkpt>
      <trkpt lat="50.833025" lon="7.165374">
      </trkpt>
      <trkpt lat="50.832614" lon="7.164432">
      </trkpt>
      <trkpt lat="50.832674" lon="7.1625">
      </trkpt>
      <trkpt lat="50.833289" lon="7.162387">
      </trkpt>
      <trkpt lat="50.834086" lon="7.162632">
      </trkpt>
      <trkpt lat="50.834964" lon="7.162486">
      </trkpt>
      <trkpt lat="50.835536" lon="7.162805">
      </trkpt>
      <trkpt lat="50.836109" lon="7.163125">
      </trkpt>
      <trkpt lat="50.836772" lon="7.163037">
      </trkpt>
      <trkpt lat="50.836984" lon="7.162202">
      </trkpt>
      <trkpt lat="50.837197" lon="7.161366">
      </trkpt>
      <trkpt lat="50.837319" lon="7.160026">
      </trkpt>
      <trkpt lat="50.837441" lon="7.158685">
      </trkpt>
      <trkpt lat="50.837563" lon="7.157345">
      </trkpt>
      <trkpt lat="50.836774" lon="7.156686">
      </trkpt>
      <trkpt lat="50.836814" lon="7.152157">
      </trkpt>
      <trkpt lat="50.83691" lon="7.150434">
      </trkpt>
      <trkpt lat="50.836977" lon="7.149281">
      </trkpt>
      <trkpt lat="50.836645" lon="7.147706">
      </trkpt>
      <trkpt lat="50.836354" lon="7.146977">
      </trkpt>
      <trkpt lat="50.835983" lon="7.145935">
      </trkpt>
      <trkpt lat="50.835326" lon="7.147182">
      </trkpt>
      <trkpt lat="50.834604" lon="7.148303">
      </trkpt>
      <trkpt lat="50.83377" lon="7.149178">
      </trkpt>
      <trkpt lat="50.833313" lon="7.150169">
      </trkpt>
      <trkpt lat="50.833128" lon="7.154435">
      </trkpt>
      <trkpt lat="50.832413" lon="7.154509">
      </trkpt>
      <trkpt lat="50.831601" lon="7.154463">
      </trkpt>
      <trkpt lat="50.831102" lon="7.154954">
      </trkpt>
      <trkpt lat="50.830477" lon="7.15562">
      </trkpt>
      <trkpt lat="50.830711" lon="7.158966">
      </trkpt>
      <trkpt lat="50.830482" lon="7.160434">
      </trkpt>
      <trkpt lat="50.830173" lon="7.162194">
      </trkpt>
      <trkpt lat="50.828901" lon="7.16148">
      </trkpt>
      <trkpt lat="50.828133" lon="7.161012">
      </trkpt>
      <trkpt lat="50.82769" lon="7.160486">
      </trkpt>
      <trkpt lat="50.826069" lon="7.163235">
      </trkpt>
      <trkpt lat="50.825356" lon="7.162947">
      </trkpt>
      <trkpt lat="50.824713" lon="7.162663">
      </trkpt>
      <trkpt lat="50.823744" lon="7.162177">
      </trkpt>
      <trkpt lat="50.822498" lon="7.160387">
      </trkpt>
      <trkpt lat="50.821064" lon="7.158527">
      </trkpt>
      <trkpt lat="50.819525" lon="7.156443">
      </trkpt>
      <trkpt lat="50.818836" lon="7.15551">
      </trkpt>
      <trkpt lat="50.818267" lon="7.154715">
      </trkpt>
      <trkpt lat="50.817487" lon="7.155872">
      </trkpt>
      <trkpt lat="50.817236" lon="7.156756">
      </trkpt>
      <trkpt lat="50.816229" lon="7.155378">
      </trkpt>
      <trkpt lat="50.815809" lon="7.154834">
      </trkpt>
      <trkpt lat="50.814901" lon="7.154227">
      </trkpt>
      <trkpt lat="50.814344" lon="7.154256">
      </trkpt>
      <trkpt lat="50.813765" lon="7.154237">
      </trkpt>
      <trkpt lat="50.81317" lon="7.153962">
      </trkpt>
      <trkpt lat="50.812614" lon="7.153571">
      </trkpt>
      <trkpt lat="50.812103" lon="7.15312">
      </trkpt>
      <trkpt lat="50.811352" lon="7.152389">
      </trkpt>
      <trkpt lat="50.81076" lon="7.151834">
      </trkpt>
      <trkpt lat="50.810131" lon="7.151752">
      </trkpt>
      <trkpt lat="50.809508" lon="7.151913">
      </trkpt>
      <trkpt lat="50.808852" lon="7.15129">
      </trkpt>
      <trkpt lat="50.807902" lon="7.149514">
      </trkpt>
      <trkpt lat="50.807268" lon="7.148207">
      </trkpt>
      <trkpt lat="50.806917" lon="7.147471">
      </trkpt>
      <trkpt lat="50.806642" lon="7.146548">
      </trkpt>
      <trkpt lat="50.806362" lon="7.145425">
      </trkpt>
      <trkpt lat="50.806085" lon="7.144528">
      </trkpt>
      <trkpt lat="50.805746" lon="7.142654">
      </trkpt>
      <trkpt lat="50.805188" lon="7.141406">
      </trkpt>
      <trkpt lat="50.804656" lon="7.140882">
      </trkpt>
      <trkpt lat="50.804051" lon="7.140842">
      </trkpt>
      <trkpt lat="50.803223" lon="7.141083">
      </trkpt>
      <trkpt lat="50.802881" lon="7.139821">
      </trkpt>
      <trkpt lat="50.802925" lon="7.138753">
      </trkpt>
      <trkpt lat="50.802778" lon="7.137517">
      </trkpt>
      <trkpt lat="50.802439" lon="7.136095">
      </trkpt>
      <trkpt lat="50.802081" lon="7.135122">
      </trkpt>
      <trkpt lat="50.801916" lon="7.13385">
      </trkpt>
      <trkpt lat="50.801782" lon="7.132988">
      </trkpt>
      <trkpt lat="50.801321" lon="7.132283">
      </trkpt>
      <trkpt lat="50.800843" lon="7.13162">
      </trkpt>
      <trkpt lat="50.800299" lon="7.131271">
      </trkpt>
      <trkpt lat="50.799708" lon="7.130647">
      </trkpt>
      <trkpt lat="50.79995" lon="7.129858">
      </trkpt>
      <trkpt lat="50.799547" lon="7.128846">
      </trkpt>
      <trkpt lat="50.799127" lon="7.127911">
      </trkpt>
      <trkpt lat="50.798713" lon="7.126768">
      </trkpt>
      <trkpt lat="50.798163" lon="7.126712">
      </trkpt>
      <trkpt lat="50.797561" lon="7.126438">
      </trkpt>
      <trkpt lat="50.797342" lon="7.12533">
      </trkpt>
      <trkpt lat="50.796415" lon="7.124394">
      </trkpt>
      <trkpt lat="50.795925" lon="7.123965">
      </trkpt>
      <trkpt lat="50.794952" lon="7.123005">
      </trkpt>
      <trkpt lat="50.79402" lon="7.12198">
      </trkpt>
      <trkpt lat="50.793496" lon="7.121499">
      </trkpt>
      <trkpt lat="50.791988" lon="7.120387">
      </trkpt>
      <trkpt lat="50.791516" lon="7.11992">
      </trkpt>
      <trkpt lat="50.790823" lon="7.120124">
      </trkpt>
      <trkpt lat="50.790038" lon="7.12012">
      </trkpt>
      <trkpt lat="50.789561" lon="7.11952">
      </trkpt>
      <trkpt lat="50.788938" lon="7.119088">
      </trkpt>
      <trkpt lat="50.788177" lon="7.119072">
      </trkpt>
      <trkpt lat="50.787437" lon="7.119254">
      </trkpt>
      <trkpt lat="50.787466" lon="7.120114">
      </trkpt>
      <trkpt lat="50.786285" lon="7.122588">
      </trkpt>
      <trkpt lat="50.783326" lon="7.120967">
      </trkpt>
      <trkpt lat="50.782592" lon="7.119881">
      </trkpt>
      <trkpt lat="50.781281" lon="7.117932">
      </trkpt>
      <trkpt lat="50.780308" lon="7.116437">
      </trkpt>
      <trkpt lat="50.778938" lon="7.114277">
      </trkpt>
      <trkpt lat="50.778533" lon="7.113623">
      </trkpt>
      <trkpt lat="50.777692" lon="7.112301">
      </trkpt>
      <trkpt lat="50.777247" lon="7.112898">
      </trkpt>
      <trkpt lat="50.776626" lon="7.112407">
      </trkpt>
      <trkpt lat="50.776065" lon="7.111237">
      </trkpt>
      <trkpt lat="50.775333" lon="7.110461">
      </trkpt>
      <trkpt lat="50.774467" lon="7.108858">
      </trkpt>
      <trkpt lat="50.774163" lon="7.10802">
      </trkpt>
      <trkpt lat="50.773682" lon="7.106569">
      </trkpt>
      <trkpt lat="50.773302" lon="7.105626">
      </trkpt>
      <trkpt lat="50.773324" lon="7.104497">
      </trkpt>
      <trkpt lat="50.773334" lon="7.103415">
      </trkpt>
      <trkpt lat="50.773469" lon="7.102478">
      </trkpt>
      <trkpt lat="50.773601" lon="7.101599">
      </trkpt>
      <trkpt lat="50.773582" lon="7.100578">
      </trkpt>
      <trkpt lat="50.773134" lon="7.099105">
      </trkpt>
      <trkpt lat="50.7724" lon="7.098073">
      </trkpt>
      <trkpt lat="50.771673" lon="7.097434">
      </trkpt>
      <trkpt lat="50.771964" lon="7.096425">
      </trkpt>
      <trkpt lat="50.772088" lon="7.095129">
      </trkpt>
      <trkpt lat="50.771989" lon="7.094">
      </trkpt>
      <trkpt lat="50.772073" lon="7.092972">
      </trkpt>
      <trkpt lat="50.772468" lon="7.091011">
      </trkpt>
      <trkpt lat="50.772911" lon="7.088757">
      </trkpt>
      <trkpt lat="50.773235" lon="7.086568">
      </trkpt>
      <trkpt lat="50.773326" lon="7.085418">
      </trkpt>
      <trkpt lat="50.773272" lon="7.08429">
      </trkpt>
      <trkpt lat="50.773098" lon="7.083357">
      </trkpt>
      <trkpt lat="50.772803" lon="7.082472">
      </trkpt>
      <trkpt lat="50.77315" lon="7.081023">
      </trkpt>
      <trkpt lat="50.773535" lon="7.079428">
      </trkpt>
      <trkpt lat="50.773518" lon="7.07821">
      </trkpt>
      <trkpt lat="50.773105" lon="7.077144">
      </trkpt>
      <trkpt lat="50.772717" lon="7.07644">
      </trkpt>
      <trkpt lat="50.772312" lon="7.075789">
      </trkpt>
      <trkpt lat="50.772357" lon="7.074815">
      </trkpt>
      <trkpt lat="50.772262" lon="7.073228">
      </trkpt>
      <trkpt lat="50.77242" lon="7.071714">
      </trkpt>
      <trkpt lat="50.772169" lon="7.070558">
      </trkpt>
      <trkpt lat="50.77244" lon="7.06954">
      </trkpt>
      <trkpt lat="50.77157" lon="7.069263">
      </trkpt>
      <trkpt lat="50.770795" lon="7.068912">
      </trkpt>
      <trkpt lat="50.770019" lon="7.06856">
      </trkpt>
      <trkpt lat="50.769244" lon="7.068209">
      </trkpt>
      <trkpt lat="50.768469" lon="7.067857">
      </trkpt>
      <trkpt lat="50.76938" lon="7.065589">
      </trkpt>
      <trkpt lat="50.768911" lon="7.064844">
      </trkpt>
      <trkpt lat="50.768358" lon="7.064105">
      </trkpt>
      <trkpt lat="50.767035" lon="7.062269">
      </trkpt>
      <trkpt lat="50.766572" lon="7.063186">
      </trkpt>
      <trkpt lat="50.76614" lon="7.064218">
      </trkpt>
      <trkpt lat="50.764866" lon="7.066713">
      </trkpt>
      <trkpt lat="50.764228" lon="7.067897">
      </trkpt>
      <trkpt lat="50.76283" lon="7.070037">
      </trkpt>
      <trkpt lat="50.762349" lon="7.070943">
      </trkpt>
      <trkpt lat="50.76158" lon="7.07316">
      </trkpt>
      <trkpt lat="50.761462" lon="7.074207">
      </trkpt>
      <trkpt lat="50.761317" lon="7.075343">
      </trkpt>
      <trkpt lat="50.761333" lon="7.0772">
      </trkpt>
      <trkpt lat="50.76142" lon="7.078663">
      </trkpt>
      <trkpt lat="50.761559" lon="7.079846">
      </trkpt>
      <trkpt lat="50.761867" lon="7.080804">
      </trkpt>
      <trkpt lat="50.761431" lon="7.081368">
      </trkpt>
      <trkpt lat="50.760577" lon="7.08279">
      </trkpt>
      <trkpt lat="50.760081" lon="7.083737">
      </trkpt>
      <trkpt lat="50.760522" lon="7.084234">
      </trkpt>
      <trkpt lat="50.76014" lon="7.084997">
      </trkpt>
      <trkpt lat="50.759565" lon="7.08531">
      </trkpt>
      <trkpt lat="50.759069" lon="7.086095">
      </trkpt>
      <trkpt lat="50.75779" lon="7.08853">
      </trkpt>
      <trkpt lat="50.757191" lon="7.089709">
      </trkpt>
      <trkpt lat="50.75634" lon="7.091178">
      </trkpt>
      <trkpt lat="50.756802" lon="7.091868">
      </trkpt>
      <trkpt lat="50.757432" lon="7.092183">
      </trkpt>
      <trkpt lat="50.757392" lon="7.093937">
      </trkpt>
      <trkpt lat="50.756785" lon="7.095609">
      </trkpt>
      <trkpt lat="50.756132" lon="7.096914">
      </trkpt>
      <trkpt lat="50.755728" lon="7.097498">
      </trkpt>
      <trkpt lat="50.755154" lon="7.098158">
      </trkpt>
      <trkpt lat="50.75444" lon="7.098972">
      </trkpt>
      <trkpt lat="50.753795" lon="7.099627">
      </trkpt>
      <trkpt lat="50.753157" lon="7.100326">
      </trkpt>
      <trkpt lat="50.752642" lon="7.10078">
      </trkpt>
      <trkpt lat="50.752041" lon="7.101242">
      </trkpt>
      <trkpt lat="50.751127" lon="7.101774">
      </trkpt>
      <trkpt lat="50.75021" lon="7.102296">
      </trkpt>
      <trkpt lat="50.749465" lon="7.10273">
      </trkpt>
      <trkpt lat="50.74887" lon="7.103038">
      </trkpt>
      <trkpt lat="50.748" lon="7.103431">
      </trkpt>
      <trkpt lat="50.746168" lon="7.104171">
      </trkpt>
      <trkpt lat="50.745234" lon="7.104496">
      </trkpt>
      <trkpt lat="50.74391" lon="7.104912">
      </trkpt>
      <trkpt lat="50.743074" lon="7.105175">
      </trkpt>
      <trkpt lat="50.742514" lon="7.105427">
      </trkpt>
      <trkpt lat="50.741723" lon="7.105796">
      </trkpt>
      <trkpt lat="50.740557" lon="7.1062">
      </trkpt>
      <trkpt lat="50.739956" lon="7.1064">
      </trkpt>
    </trkseg>
  </trk>
</gpx>