<?xml version="1.0" encoding="UTF-8"?>
<gpx xmlns="http://www.topografix.com/GPX/1/1" xmlns:xsi="http://www.w3.org/2001/XMLSchema-instance" xsi:schemaLocation="http://www.topografix.com/GPX/1/1 http://www.topografix.com/GPX/1/1/gpx.xsd" version="1.1" creator="gpx.py -- https://github.com/tkrajina/gpxpy">
  <metadata>
    <name>014</name>
  </metadata>
  <trk>
    <name>014</name>
    <trkseg>
      <trkpt lat="50.734029" lon="7.104186">
      </trkpt>
      <trkpt lat="50.733521" lon="7.105465">
      </trkpt>
      <trkpt lat="50.733015" lon="7.106478">
      </trkpt>
      <trkpt lat="50.732198" lon="7.106972">
      </trkpt>
      <trkpt lat="50.732148" lon="7.108039">
      </trkpt>
      <trkpt lat="50.732384" lon="7.10934">
      </trkpt>
      <trkpt lat="50.730283" lon="7.110352">
      </trkpt>
      <trkpt lat="50.728923" lon="7.111419">
      </trkpt>
      <trkpt lat="50.727889" lon="7.112297">
      </trkpt>
      <trkpt lat="50.727075" lon="7.113114">
      </trkpt>
      <trkpt lat="50.725852" lon="7.114551">
      </trkpt>
      <trkpt lat="50.725152" lon="7.115492">
      </trkpt>
      <trkpt lat="50.724103" lon="7.117062">
      </trkpt>
      <trkpt lat="50.722446" lon="7.119719">
      </trkpt>
      <trkpt lat="50.721702" lon="7.121041">
      </trkpt>
      <trkpt lat="50.720912" lon="7.12284">
      </trkpt>
      <trkpt lat="50.720328" lon="7.124354">
      </trkpt>
      <trkpt lat="50.719859" lon="7.125743">
      </trkpt>
      <trkpt lat="50.719587" lon="7.126695">
      </trkpt>
      <trkpt lat="50.719158" lon="7.128439">
      </trkpt>
      <trkpt lat="50.718938" lon="7.129399">
      </trkpt>
      <trkpt lat="50.718674" lon="7.130745">
      </trkpt>
      <trkpt lat="50.718401" lon="7.132125">
      </trkpt>
      <trkpt lat="50.718168" lon="7.133254">
      </trkpt>
      <trkpt lat="50.717584" lon="7.133466">
      </trkpt>
      <trkpt lat="50.716432" lon="7.133528">
      </trkpt>
      <trkpt lat="50.715884" lon="7.133622">
      </trkpt>
      <trkpt lat="50.715236" lon="7.134088">
      </trkpt>
      <trkpt lat="50.714707" lon="7.134266">
      </trkpt>
      <trkpt lat="50.714252" lon="7.135132">
      </trkpt>
      <trkpt lat="50.713699" lon="7.135626">
      </trkpt>
      <trkpt lat="50.713229" lon="7.136234">
      </trkpt>
      <trkpt lat="50.713187" lon="7.137349">
      </trkpt>
      <trkpt lat="50.713294" lon="7.138351">
      </trkpt>
      <trkpt lat="50.712946" lon="7.139039">
      </trkpt>
      <trkpt lat="50.71241" lon="7.13877">
      </trkpt>
      <trkpt lat="50.713231" lon="7.139959">
      </trkpt>
      <trkpt lat="50.714576" lon="7.140932">
      </trkpt>
      <trkpt lat="50.719242" lon="7.144244">
      </trkpt>
      <trkpt lat="50.719835" lon="7.14465">
      </trkpt>
      <trkpt lat="50.720442" lon="7.144903">
      </trkpt>
      <trkpt lat="50.721277" lon="7.145533">
      </trkpt>
      <trkpt lat="50.721303" lon="7.147306">
      </trkpt>
      <trkpt lat="50.720996" lon="7.148492">
      </trkpt>
      <trkpt lat="50.720679" lon="7.149229">
      </trkpt>
      <trkpt lat="50.72063" lon="7.150592">
      </trkpt>
      <trkpt lat="50.720539" lon="7.151852">
      </trkpt>
      <trkpt lat="50.720544" lon="7.152787">
      </trkpt>
      <trkpt lat="50.720669" lon="7.153804">
      </trkpt>
      <trkpt lat="50.720918" lon="7.154892">
      </trkpt>
      <trkpt lat="50.721265" lon="7.155638">
      </trkpt>
      <trkpt lat="50.721836" lon="7.156257">
      </trkpt>
      <trkpt lat="50.722225" lon="7.156879">
      </trkpt>
      <trkpt lat="50.72271" lon="7.157671">
      </trkpt>
      <trkpt lat="50.723334" lon="7.158538">
      </trkpt>
      <trkpt lat="50.722808" lon="7.159347">
      </trkpt>
      <trkpt lat="50.722892" lon="7.160423">
      </trkpt>
      <trkpt lat="50.722921" lon="7.161361">
      </trkpt>
      <trkpt lat="50.722721" lon="7.162617">
      </trkpt>
      <trkpt lat="50.722517" lon="7.163719">
      </trkpt>
      <trkpt lat="50.722088" lon="7.164419">
      </trkpt>
      <trkpt lat="50.721549" lon="7.164697">
      </trkpt>
      <trkpt lat="50.720249" lon="7.165785">
      </trkpt>
      <trkpt lat="50.719687" lon="7.166567">
      </trkpt>
      <trkpt lat="50.719484" lon="7.16747">
      </trkpt>
      <trkpt lat="50.718896" lon="7.168171">
      </trkpt>
      <trkpt lat="50.718254" lon="7.168815">
      </trkpt>
      <trkpt lat="50.718564" lon="7.169878">
      </trkpt>
      <trkpt lat="50.719311" lon="7.170255">
      </trkpt>
      <trkpt lat="50.719667" lon="7.169395">
      </trkpt>
      <trkpt lat="50.720092" lon="7.168745">
      </trkpt>
      <trkpt lat="50.72081" lon="7.168597">
      </trkpt>
      <trkpt lat="50.721393" lon="7.168481">
      </trkpt>
      <trkpt lat="50.721512" lon="7.169768">
      </trkpt>
      <trkpt lat="50.721104" lon="7.171435">
      </trkpt>
      <trkpt lat="50.721019" lon="7.172414">
      </trkpt>
      <trkpt lat="50.720533" lon="7.174133">
      </trkpt>
      <trkpt lat="50.720058" lon="7.17521">
      </trkpt>
      <trkpt lat="50.719448" lon="7.176506">
      </trkpt>
      <trkpt lat="50.719151" lon="7.177228">
      </trkpt>
      <trkpt lat="50.718725" lon="7.178191">
      </trkpt>
      <trkpt lat="50.718393" lon="7.179263">
      </trkpt>
      <trkpt lat="50.717889" lon="7.181516">
      </trkpt>
      <trkpt lat="50.717564" lon="7.183326">
      </trkpt>
      <trkpt lat="50.717589" lon="7.184317">
      </trkpt>
      <trkpt lat="50.717434" lon="7.185815">
      </trkpt>
      <trkpt lat="50.717175" lon="7.187167">
      </trkpt>
      <trkpt lat="50.716739" lon="7.188314">
      </trkpt>
      <trkpt lat="50.716218" lon="7.188981">
      </trkpt>
      <trkpt lat="50.71571" lon="7.189627">
      </trkpt>
      <trkpt lat="50.715116" lon="7.191039">
      </trkpt>
      <trkpt lat="50.714738" lon="7.191856">
      </trkpt>
      <trkpt lat="50.71428" lon="7.193234">
      </trkpt>
      <trkpt lat="50.713515" lon="7.194997">
      </trkpt>
      <trkpt lat="50.714326" lon="7.195525">
      </trkpt>
      <trkpt lat="50.714472" lon="7.197099">
      </trkpt>
      <trkpt lat="50.714719" lon="7.198397">
      </trkpt>
      <trkpt lat="50.714773" lon="7.200435">
      </trkpt>
      <trkpt lat="50.715937" lon="7.201423">
      </trkpt>
      <trkpt lat="50.715769" lon="7.202295">
      </trkpt>
      <trkpt lat="50.715316" lon="7.203002">
      </trkpt>
      <trkpt lat="50.714668" lon="7.203717">
      </trkpt>
      <trkpt lat="50.713796" lon="7.204683">
      </trkpt>
      <trkpt lat="50.713118" lon="7.205239">
      </trkpt>
      <trkpt lat="50.712501" lon="7.205568">
      </trkpt>
      <trkpt lat="50.712565" lon="7.206644">
      </trkpt>
      <trkpt lat="50.711815" lon="7.207273">
      </trkpt>
      <trkpt lat="50.711213" lon="7.207225">
      </trkpt>
      <trkpt lat="50.708726" lon="7.209034">
      </trkpt>
      <trkpt lat="50.708184" lon="7.209479">
      </trkpt>
      <trkpt lat="50.707818" lon="7.210293">
      </trkpt>
      <trkpt lat="50.707835" lon="7.212977">
      </trkpt>
      <trkpt lat="50.707712" lon="7.21475">
      </trkpt>
      <trkpt lat="50.707144" lon="7.217465">
      </trkpt>
      <trkpt lat="50.70671" lon="7.218415">
      </trkpt>
      <trkpt lat="50.706167" lon="7.2198">
      </trkpt>
      <trkpt lat="50.705698" lon="7.220619">
      </trkpt>
      <trkpt lat="50.705231" lon="7.221156">
      </trkpt>
      <trkpt lat="50.70475" lon="7.221563">
      </trkpt>
      <trkpt lat="50.704122" lon="7.22237">
      </trkpt>
      <trkpt lat="50.70356" lon="7.222983">
      </trkpt>
      <trkpt lat="50.702929" lon="7.22385">
      </trkpt>
      <trkpt lat="50.702024" lon="7.225322">
      </trkpt>
      <trkpt lat="50.701818" lon="7.226772">
      </trkpt>
      <trkpt lat="50.701958" lon="7.227733">
      </trkpt>
      <trkpt lat="50.702523" lon="7.229562">
      </trkpt>
      <trkpt lat="50.702678" lon="7.230739">
      </trkpt>
      <trkpt lat="50.702734" lon="7.231691">
      </trkpt>
      <trkpt lat="50.703302" lon="7.232566">
      </trkpt>
      <trkpt lat="50.704068" lon="7.232879">
      </trkpt>
      <trkpt lat="50.704712" lon="7.232995">
      </trkpt>
      <trkpt lat="50.705245" lon="7.233255">
      </trkpt>
      <trkpt lat="50.705858" lon="7.233744">
      </trkpt>
      <trkpt lat="50.706557" lon="7.234312">
      </trkpt>
      <trkpt lat="50.707144" lon="7.234194">
      </trkpt>
      <trkpt lat="50.707638" lon="7.233768">
      </trkpt>
      <trkpt lat="50.708065" lon="7.234311">
      </trkpt>
      <trkpt lat="50.708425" lon="7.235208">
      </trkpt>
      <trkpt lat="50.708687" lon="7.23611">
      </trkpt>
      <trkpt lat="50.709047" lon="7.236802">
      </trkpt>
      <trkpt lat="50.710036" lon="7.236357">
      </trkpt>
      <trkpt lat="50.711021" lon="7.235518">
      </trkpt>
      <trkpt lat="50.711721" lon="7.235206">
      </trkpt>
      <trkpt lat="50.711819" lon="7.237726">
      </trkpt>
      <trkpt lat="50.711564" lon="7.240065">
      </trkpt>
      <trkpt lat="50.71205" lon="7.241753">
      </trkpt>
      <trkpt lat="50.712658" lon="7.244075">
      </trkpt>
      <trkpt lat="50.713659" lon="7.245159">
      </trkpt>
      <trkpt lat="50.713237" lon="7.24737">
      </trkpt>
      <trkpt lat="50.71393" lon="7.248352">
      </trkpt>
      <trkpt lat="50.714566" lon="7.249107">
      </trkpt>
      <trkpt lat="50.716099" lon="7.250549">
      </trkpt>
      <trkpt lat="50.717077" lon="7.251081">
      </trkpt>
      <trkpt lat="50.717254" lon="7.252023">
      </trkpt>
      <trkpt lat="50.717594" lon="7.251158">
      </trkpt>
      <trkpt lat="50.718159" lon="7.250269">
      </trkpt>
      <trkpt lat="50.718727" lon="7.250043">
      </trkpt>
      <trkpt lat="50.720294" lon="7.248823">
      </trkpt>
      <trkpt lat="50.720952" lon="7.247998">
      </trkpt>
      <trkpt lat="50.722397" lon="7.24784">
      </trkpt>
      <trkpt lat="50.723006" lon="7.24751">
      </trkpt>
      <trkpt lat="50.723605" lon="7.248499">
      </trkpt>
      <trkpt lat="50.724235" lon="7.248744">
      </trkpt>
      <trkpt lat="50.724944" lon="7.248114">
      </trkpt>
      <trkpt lat="50.725648" lon="7.247249">
      </trkpt>
      <trkpt lat="50.726286" lon="7.246264">
      </trkpt>
      <trkpt lat="50.726607" lon="7.245185">
      </trkpt>
      <trkpt lat="50.72682" lon="7.243835">
      </trkpt>
      <trkpt lat="50.726854" lon="7.242616">
      </trkpt>
      <trkpt lat="50.727142" lon="7.241856">
      </trkpt>
      <trkpt lat="50.727388" lon="7.240634">
      </trkpt>
      <trkpt lat="50.727557" lon="7.239454">
      </trkpt>
      <trkpt lat="50.727545" lon="7.238424">
      </trkpt>
      <trkpt lat="50.727698" lon="7.236497">
      </trkpt>
      <trkpt lat="50.727177" lon="7.232008">
      </trkpt>
      <trkpt lat="50.7268" lon="7.230313">
      </trkpt>
      <trkpt lat="50.726314" lon="7.229643">
      </trkpt>
      <trkpt lat="50.72576" lon="7.229493">
      </trkpt>
      <trkpt lat="50.725015" lon="7.22995">
      </trkpt>
      <trkpt lat="50.72427" lon="7.229608">
      </trkpt>
      <trkpt lat="50.723375" lon="7.227225">
      </trkpt>
      <trkpt lat="50.723244" lon="7.226281">
      </trkpt>
      <trkpt lat="50.722447" lon="7.225792">
      </trkpt>
      <trkpt lat="50.721894" lon="7.224815">
      </trkpt>
      <trkpt lat="50.722187" lon="7.223439">
      </trkpt>
      <trkpt lat="50.721477" lon="7.223136">
      </trkpt>
      <trkpt lat="50.720951" lon="7.222914">
      </trkpt>
      <trkpt lat="50.720385" lon="7.221122">
      </trkpt>
      <trkpt lat="50.719302" lon="7.220163">
      </trkpt>
      <trkpt lat="50.718546" lon="7.219253">
      </trkpt>
      <trkpt lat="50.719225" lon="7.2187">
      </trkpt>
      <trkpt lat="50.7211" lon="7.219382">
      </trkpt>
      <trkpt lat="50.721275" lon="7.217877">
      </trkpt>
      <trkpt lat="50.721196" lon="7.216655">
      </trkpt>
      <trkpt lat="50.720737" lon="7.216087">
      </trkpt>
      <trkpt lat="50.720149" lon="7.215061">
      </trkpt>
      <trkpt lat="50.719558" lon="7.21451">
      </trkpt>
      <trkpt lat="50.719877" lon="7.213755">
      </trkpt>
      <trkpt lat="50.720654" lon="7.213586">
      </trkpt>
      <trkpt lat="50.72126" lon="7.214234">
      </trkpt>
      <trkpt lat="50.721868" lon="7.214911">
      </trkpt>
      <trkpt lat="50.723425" lon="7.215965">
      </trkpt>
      <trkpt lat="50.723614" lon="7.215078">
      </trkpt>
      <trkpt lat="50.724356" lon="7.215395">
      </trkpt>
      <trkpt lat="50.725405" lon="7.213305">
      </trkpt>
      <trkpt lat="50.726222" lon="7.212151">
      </trkpt>
      <trkpt lat="50.727148" lon="7.210833">
      </trkpt>
      <trkpt lat="50.727131" lon="7.208808">
      </trkpt>
      <trkpt lat="50.727558" lon="7.208285">
      </trkpt>
      <trkpt lat="50.728879" lon="7.208318">
      </trkpt>
      <trkpt lat="50.728704" lon="7.207512">
      </trkpt>
      <trkpt lat="50.729489" lon="7.204992">
      </trkpt>
      <trkpt lat="50.729594" lon="7.204135">
      </trkpt>
      <trkpt lat="50.729723" lon="7.201831">
      </trkpt>
      <trkpt lat="50.729809" lon="7.200315">
      </trkpt>
      <trkpt lat="50.730341" lon="7.1993">
      </trkpt>
      <trkpt lat="50.729784" lon="7.1972">
      </trkpt>
      <trkpt lat="50.725853" lon="7.197756">
      </trkpt>
      <trkpt lat="50.725523" lon="7.19325">
      </trkpt>
      <trkpt lat="50.726638" lon="7.191827">
      </trkpt>
      <trkpt lat="50.727186" lon="7.191056">
      </trkpt>
      <trkpt lat="50.726625" lon="7.189814">
      </trkpt>
      <trkpt lat="50.725763" lon="7.188734">
      </trkpt>
      <trkpt lat="50.72598" lon="7.187854">
      </trkpt>
      <trkpt lat="50.726759" lon="7.187148">
      </trkpt>
      <trkpt lat="50.727214" lon="7.186673">
      </trkpt>
      <trkpt lat="50.728107" lon="7.18485">
      </trkpt>
      <trkpt lat="50.728989" lon="7.183119">
      </trkpt>
      <trkpt lat="50.728259" lon="7.182805">
      </trkpt>
      <trkpt lat="50.728843" lon="7.183013">
      </trkpt>
      <trkpt lat="50.729298" lon="7.181554">
      </trkpt>
      <trkpt lat="50.729585" lon="7.180429">
      </trkpt>
      <trkpt lat="50.730126" lon="7.179382">
      </trkpt>
      <trkpt lat="50.730844" lon="7.178222">
      </trkpt>
      <trkpt lat="50.732239" lon="7.17639">
      </trkpt>
      <trkpt lat="50.732455" lon="7.173337">
      </trkpt>
      <trkpt lat="50.732467" lon="7.17208">
      </trkpt>
      <trkpt lat="50.732428" lon="7.17048">
      </trkpt>
      <trkpt lat="50.732895" lon="7.169348">
      </trkpt>
      <trkpt lat="50.733417" lon="7.168474">
      </trkpt>
      <trkpt lat="50.733966" lon="7.167255">
      </trkpt>
      <trkpt lat="50.734195" lon="7.165623">
      </trkpt>
      <trkpt lat="50.734287" lon="7.164728">
      </trkpt>
      <trkpt lat="50.733547" lon="7.163804">
      </trkpt>
      <trkpt lat="50.732488" lon="7.163058">
      </trkpt>
      <trkpt lat="50.73193" lon="7.162581">
      </trkpt>
      <trkpt lat="50.731336" lon="7.16219">
      </trkpt>
      <trkpt lat="50.730866" lon="7.161541">
      </trkpt>
      <trkpt lat="50.730429" lon="7.160163">
      </trkpt>
      <trkpt lat="50.729777" lon="7.160178">
      </trkpt>
      <trkpt lat="50.729159" lon="7.159755">
      </trkpt>
      <trkpt lat="50.728346" lon="7.159404">
      </trkpt>
      <trkpt lat="50.727808" lon="7.159675">
      </trkpt>
      <trkpt lat="50.727293" lon="7.159007">
      </trkpt>
      <trkpt lat="50.728066" lon="7.157094">
      </trkpt>
      <trkpt lat="50.728218" lon="7.156009">
      </trkpt>
      <trkpt lat="50.728451" lon="7.154982">
      </trkpt>
      <trkpt lat="50.728814" lon="7.154217">
      </trkpt>
      <trkpt lat="50.729343" lon="7.153657">
      </trkpt>
      <trkpt lat="50.729869" lon="7.152635">
      </trkpt>
      <trkpt lat="50.730246" lon="7.151846">
      </trkpt>
      <trkpt lat="50.730463" lon="7.150954">
      </trkpt>
      <trkpt lat="50.730676" lon="7.14983">
      </trkpt>
      <trkpt lat="50.730286" lon="7.149192">
      </trkpt>
      <trkpt lat="50.730698" lon="7.148248">
      </trkpt>
      <trkpt lat="50.731433" lon="7.14761">
      </trkpt>
      <trkpt lat="50.732241" lon="7.146973">
      </trkpt>
      <trkpt lat="50.732871" lon="7.14626">
      </trkpt>
      <trkpt lat="50.733345" lon="7.14557">
      </trkpt>
      <trkpt lat="50.733224" lon="7.144644">
      </trkpt>
      <trkpt lat="50.732693" lon="7.143865">
      </trkpt>
      <trkpt lat="50.732265" lon="7.143004">
      </trkpt>
      <trkpt lat="50.731919" lon="7.142109">
      </trkpt>
      <trkpt lat="50.731703" lon="7.141229">
      </trkpt>
      <trkpt lat="50.731808" lon="7.139805">
      </trkpt>
      <trkpt lat="50.732383" lon="7.139292">
      </trkpt>
      <trkpt lat="50.732951" lon="7.139754">
      </trkpt>
      <trkpt lat="50.733578" lon="7.139999">
      </trkpt>
      <trkpt lat="50.734195" lon="7.140089">
      </trkpt>
      <trkpt lat="50.734634" lon="7.139559">
      </trkpt>
      <trkpt lat="50.735125" lon="7.138913">
      </trkpt>
      <trkpt lat="50.735218" lon="7.137985">
      </trkpt>
      <trkpt lat="50.735172" lon="7.136867">
      </trkpt>
      <trkpt lat="50.734741" lon="7.135485">
      </trkpt>
      <trkpt lat="50.735171" lon="7.134338">
      </trkpt>
      <trkpt lat="50.734768" lon="7.132753">
      </trkpt>
      <trkpt lat="50.734546" lon="7.131908">
      </trkpt>
      <trkpt lat="50.733416" lon="7.132652">
      </trkpt>
      <trkpt lat="50.732761" lon="7.13204">
      </trkpt>
      <trkpt lat="50.732425" lon="7.131122">
      </trkpt>
      <trkpt lat="50.732048" lon="7.13029">
      </trkpt>
      <trkpt lat="50.731413" lon="7.129291">
      </trkpt>
      <trkpt lat="50.731836" lon="7.128619">
      </trkpt>
      <trkpt lat="50.7326" lon="7.127582">
      </trkpt>
      <trkpt lat="50.732155" lon="7.126741">
      </trkpt>
      <trkpt lat="50.731793" lon="7.125949">
      </trkpt>
      <trkpt lat="50.732546" lon="7.124646">
      </trkpt>
      <trkpt lat="50.733232" lon="7.12393">
      </trkpt>
      <trkpt lat="50.732751" lon="7.122947">
      </trkpt>
      <trkpt lat="50.732256" lon="7.121586">
      </trkpt>
      <trkpt lat="50.731966" lon="7.120768">
      </trkpt>
      <trkpt lat="50.731471" lon="7.119387">
      </trkpt>
      <trkpt lat="50.731143" lon="7.118489">
      </trkpt>
      <trkpt lat="50.730716" lon="7.117346">
      </trkpt>
      <trkpt lat="50.73106" lon="7.116373">
      </trkpt>
      <trkpt lat="50.731719" lon="7.115917">
      </trkpt>
      <trkpt lat="50.73256" lon="7.115431">
      </trkpt>
      <trkpt lat="50.733203" lon="7.115158">
      </trkpt>
      <trkpt lat="50.734641" lon="7.114459">
      </trkpt>
      <trkpt lat="50.735214" lon="7.114172">
      </trkpt>
      <trkpt lat="50.735835" lon="7.113916">
      </trkpt>
      <trkpt lat="50.736457" lon="7.113743">
      </trkpt>
      <trkpt lat="50.73758" lon="7.113455">
      </trkpt>
    </trkseg>
  </trk>
</gpx>