<?xml version="1.0" encoding="UTF-8"?>
<gpx xmlns="http://www.topografix.com/GPX/1/1" xmlns:xsi="http://www.w3.org/2001/XMLSchema-instance" xsi:schemaLocation="http://www.topografix.com/GPX/1/1 http://www.topografix.com/GPX/1/1/gpx.xsd" version="1.1" creator="gpx.py -- https://github.com/tkrajina/gpxpy">
  <metadata>
    <name>015</name>
  </metadata>
  <trk>
    <name>015</name>
    <trkseg>
      <trkpt lat="50.73397" lon="7.104312">
      </trkpt>
      <trkpt lat="50.733521" lon="7.105465">
      </trkpt>
      <trkpt lat="50.733015" lon="7.106478">
      </trkpt>
      <trkpt lat="50.732198" lon="7.106972">
      </trkpt>
      <trkpt lat="50.732148" lon="7.108039">
      </trkpt>
      <trkpt lat="50.732384" lon="7.10934">
      </trkpt>
      <trkpt lat="50.730283" lon="7.110352">
      </trkpt>
      <trkpt lat="50.728923" lon="7.111419">
      </trkpt>
      <trkpt lat="50.727889" lon="7.112297">
      </trkpt>
      <trkpt lat="50.727075" lon="7.113114">
      </trkpt>
      <trkpt lat="50.725852" lon="7.114551">
      </trkpt>
      <trkpt lat="50.725152" lon="7.115492">
      </trkpt>
      <trkpt lat="50.724103" lon="7.117062">
      </trkpt>
      <trkpt lat="50.722615" lon="7.119443">
      </trkpt>
      <trkpt lat="50.721702" lon="7.121041">
      </trkpt>
      <trkpt lat="50.720912" lon="7.12284">
      </trkpt>
      <trkpt lat="50.720328" lon="7.124354">
      </trkpt>
      <trkpt lat="50.719859" lon="7.125743">
      </trkpt>
      <trkpt lat="50.719587" lon="7.126695">
      </trkpt>
      <trkpt lat="50.719158" lon="7.128439">
      </trkpt>
      <trkpt lat="50.718938" lon="7.129399">
      </trkpt>
      <trkpt lat="50.718676" lon="7.130738">
      </trkpt>
      <trkpt lat="50.718401" lon="7.132125">
      </trkpt>
      <trkpt lat="50.718168" lon="7.133254">
      </trkpt>
      <trkpt lat="50.717937" lon="7.134393">
      </trkpt>
      <trkpt lat="50.717621" lon="7.135722">
      </trkpt>
      <trkpt lat="50.717288" lon="7.137064">
      </trkpt>
      <trkpt lat="50.717013" lon="7.138285">
      </trkpt>
      <trkpt lat="50.716397" lon="7.139505">
      </trkpt>
      <trkpt lat="50.715784" lon="7.139533">
      </trkpt>
      <trkpt lat="50.715137" lon="7.139341">
      </trkpt>
      <trkpt lat="50.714549" lon="7.138875">
      </trkpt>
      <trkpt lat="50.714145" lon="7.138192">
      </trkpt>
      <trkpt lat="50.713506" lon="7.138626">
      </trkpt>
      <trkpt lat="50.712946" lon="7.139039">
      </trkpt>
      <trkpt lat="50.712187" lon="7.138622">
      </trkpt>
      <trkpt lat="50.712527" lon="7.139289">
      </trkpt>
      <trkpt lat="50.713231" lon="7.139959">
      </trkpt>
      <trkpt lat="50.714576" lon="7.140932">
      </trkpt>
      <trkpt lat="50.719242" lon="7.144244">
      </trkpt>
      <trkpt lat="50.719835" lon="7.14465">
      </trkpt>
      <trkpt lat="50.720442" lon="7.144903">
      </trkpt>
      <trkpt lat="50.721277" lon="7.145533">
      </trkpt>
      <trkpt lat="50.721303" lon="7.147306">
      </trkpt>
      <trkpt lat="50.720996" lon="7.148492">
      </trkpt>
      <trkpt lat="50.720679" lon="7.149229">
      </trkpt>
      <trkpt lat="50.72063" lon="7.150592">
      </trkpt>
      <trkpt lat="50.720539" lon="7.151852">
      </trkpt>
      <trkpt lat="50.720544" lon="7.152787">
      </trkpt>
      <trkpt lat="50.720669" lon="7.153804">
      </trkpt>
      <trkpt lat="50.720918" lon="7.154892">
      </trkpt>
      <trkpt lat="50.721265" lon="7.155638">
      </trkpt>
      <trkpt lat="50.721836" lon="7.156257">
      </trkpt>
      <trkpt lat="50.722225" lon="7.156879">
      </trkpt>
      <trkpt lat="50.72271" lon="7.157671">
      </trkpt>
      <trkpt lat="50.723334" lon="7.158538">
      </trkpt>
      <trkpt lat="50.722808" lon="7.159347">
      </trkpt>
      <trkpt lat="50.72213" lon="7.160147">
      </trkpt>
      <trkpt lat="50.72153" lon="7.161223">
      </trkpt>
      <trkpt lat="50.721333" lon="7.162253">
      </trkpt>
      <trkpt lat="50.720739" lon="7.162887">
      </trkpt>
      <trkpt lat="50.720148" lon="7.163801">
      </trkpt>
      <trkpt lat="50.719635" lon="7.164113">
      </trkpt>
      <trkpt lat="50.71896" lon="7.164761">
      </trkpt>
      <trkpt lat="50.718441" lon="7.165302">
      </trkpt>
      <trkpt lat="50.718025" lon="7.165893">
      </trkpt>
      <trkpt lat="50.717403" lon="7.166169">
      </trkpt>
      <trkpt lat="50.716909" lon="7.166537">
      </trkpt>
      <trkpt lat="50.71609" lon="7.167501">
      </trkpt>
      <trkpt lat="50.715697" lon="7.168158">
      </trkpt>
      <trkpt lat="50.715335" lon="7.169004">
      </trkpt>
      <trkpt lat="50.714769" lon="7.169678">
      </trkpt>
      <trkpt lat="50.714323" lon="7.170473">
      </trkpt>
      <trkpt lat="50.714057" lon="7.171842">
      </trkpt>
      <trkpt lat="50.713842" lon="7.172641">
      </trkpt>
      <trkpt lat="50.713487" lon="7.173431">
      </trkpt>
      <trkpt lat="50.713085" lon="7.174225">
      </trkpt>
      <trkpt lat="50.713017" lon="7.175367">
      </trkpt>
      <trkpt lat="50.71263" lon="7.177155">
      </trkpt>
      <trkpt lat="50.712176" lon="7.179251">
      </trkpt>
      <trkpt lat="50.71211" lon="7.18026">
      </trkpt>
      <trkpt lat="50.712231" lon="7.181408">
      </trkpt>
      <trkpt lat="50.71205" lon="7.18256">
      </trkpt>
      <trkpt lat="50.712183" lon="7.183754">
      </trkpt>
      <trkpt lat="50.712238" lon="7.184613">
      </trkpt>
      <trkpt lat="50.711772" lon="7.185646">
      </trkpt>
      <trkpt lat="50.711305" lon="7.186357">
      </trkpt>
      <trkpt lat="50.710972" lon="7.187348">
      </trkpt>
      <trkpt lat="50.71062" lon="7.188454">
      </trkpt>
      <trkpt lat="50.710268" lon="7.189207">
      </trkpt>
      <trkpt lat="50.710257" lon="7.190376">
      </trkpt>
      <trkpt lat="50.710662" lon="7.191633">
      </trkpt>
      <trkpt lat="50.709209" lon="7.191855">
      </trkpt>
      <trkpt lat="50.70868" lon="7.192123">
      </trkpt>
      <trkpt lat="50.707976" lon="7.192722">
      </trkpt>
      <trkpt lat="50.707318" lon="7.192946">
      </trkpt>
      <trkpt lat="50.706682" lon="7.192559">
      </trkpt>
      <trkpt lat="50.705934" lon="7.19183">
      </trkpt>
      <trkpt lat="50.705188" lon="7.191555">
      </trkpt>
      <trkpt lat="50.704427" lon="7.191409">
      </trkpt>
      <trkpt lat="50.703767" lon="7.191089">
      </trkpt>
      <trkpt lat="50.70313" lon="7.190642">
      </trkpt>
      <trkpt lat="50.703055" lon="7.191665">
      </trkpt>
      <trkpt lat="50.702358" lon="7.192844">
      </trkpt>
      <trkpt lat="50.700948" lon="7.194349">
      </trkpt>
      <trkpt lat="50.701327" lon="7.195221">
      </trkpt>
      <trkpt lat="50.701774" lon="7.194693">
      </trkpt>
      <trkpt lat="50.702324" lon="7.194412">
      </trkpt>
      <trkpt lat="50.702761" lon="7.195097">
      </trkpt>
      <trkpt lat="50.703534" lon="7.194916">
      </trkpt>
      <trkpt lat="50.704314" lon="7.194569">
      </trkpt>
      <trkpt lat="50.70511" lon="7.194915">
      </trkpt>
      <trkpt lat="50.705951" lon="7.195479">
      </trkpt>
      <trkpt lat="50.70674" lon="7.195599">
      </trkpt>
      <trkpt lat="50.707364" lon="7.195908">
      </trkpt>
      <trkpt lat="50.708113" lon="7.197">
      </trkpt>
      <trkpt lat="50.708331" lon="7.198311">
      </trkpt>
      <trkpt lat="50.708529" lon="7.199542">
      </trkpt>
      <trkpt lat="50.708498" lon="7.200406">
      </trkpt>
      <trkpt lat="50.70855" lon="7.201374">
      </trkpt>
      <trkpt lat="50.7092" lon="7.202836">
      </trkpt>
      <trkpt lat="50.710406" lon="7.202233">
      </trkpt>
      <trkpt lat="50.710972" lon="7.201598">
      </trkpt>
      <trkpt lat="50.711398" lon="7.201042">
      </trkpt>
      <trkpt lat="50.711705" lon="7.200228">
      </trkpt>
      <trkpt lat="50.712259" lon="7.200813">
      </trkpt>
      <trkpt lat="50.71281" lon="7.200845">
      </trkpt>
      <trkpt lat="50.713699" lon="7.200475">
      </trkpt>
      <trkpt lat="50.714299" lon="7.200377">
      </trkpt>
      <trkpt lat="50.714719" lon="7.198397">
      </trkpt>
      <trkpt lat="50.717644" lon="7.198199">
      </trkpt>
      <trkpt lat="50.719685" lon="7.198049">
      </trkpt>
      <trkpt lat="50.720167" lon="7.199149">
      </trkpt>
      <trkpt lat="50.720689" lon="7.200516">
      </trkpt>
      <trkpt lat="50.721397" lon="7.1995">
      </trkpt>
      <trkpt lat="50.722462" lon="7.198935">
      </trkpt>
      <trkpt lat="50.72327" lon="7.198503">
      </trkpt>
      <trkpt lat="50.723885" lon="7.198183">
      </trkpt>
      <trkpt lat="50.723715" lon="7.193313">
      </trkpt>
      <trkpt lat="50.723775" lon="7.191081">
      </trkpt>
      <trkpt lat="50.723535" lon="7.189822">
      </trkpt>
      <trkpt lat="50.723462" lon="7.187612">
      </trkpt>
      <trkpt lat="50.723962" lon="7.18674">
      </trkpt>
      <trkpt lat="50.724372" lon="7.186161">
      </trkpt>
      <trkpt lat="50.724819" lon="7.185641">
      </trkpt>
      <trkpt lat="50.724643" lon="7.18438">
      </trkpt>
      <trkpt lat="50.724213" lon="7.183541">
      </trkpt>
      <trkpt lat="50.724073" lon="7.182685">
      </trkpt>
      <trkpt lat="50.724013" lon="7.181484">
      </trkpt>
      <trkpt lat="50.723626" lon="7.17958">
      </trkpt>
      <trkpt lat="50.723165" lon="7.178439">
      </trkpt>
      <trkpt lat="50.722827" lon="7.177376">
      </trkpt>
      <trkpt lat="50.7222" lon="7.176686">
      </trkpt>
      <trkpt lat="50.72177" lon="7.175715">
      </trkpt>
      <trkpt lat="50.721643" lon="7.174828">
      </trkpt>
      <trkpt lat="50.721064" lon="7.172705">
      </trkpt>
      <trkpt lat="50.721104" lon="7.171435">
      </trkpt>
      <trkpt lat="50.721512" lon="7.169768">
      </trkpt>
      <trkpt lat="50.722156" lon="7.169826">
      </trkpt>
      <trkpt lat="50.72246" lon="7.169067">
      </trkpt>
      <trkpt lat="50.723137" lon="7.169144">
      </trkpt>
      <trkpt lat="50.724039" lon="7.169731">
      </trkpt>
      <trkpt lat="50.724752" lon="7.169632">
      </trkpt>
      <trkpt lat="50.725535" lon="7.169411">
      </trkpt>
      <trkpt lat="50.72541" lon="7.168567">
      </trkpt>
      <trkpt lat="50.725535" lon="7.169411">
      </trkpt>
      <trkpt lat="50.726284" lon="7.16901">
      </trkpt>
      <trkpt lat="50.726772" lon="7.168419">
      </trkpt>
      <trkpt lat="50.727133" lon="7.167705">
      </trkpt>
      <trkpt lat="50.727538" lon="7.166541">
      </trkpt>
      <trkpt lat="50.727875" lon="7.165517">
      </trkpt>
      <trkpt lat="50.728398" lon="7.165859">
      </trkpt>
      <trkpt lat="50.728899" lon="7.166226">
      </trkpt>
      <trkpt lat="50.729655" lon="7.166987">
      </trkpt>
      <trkpt lat="50.730975" lon="7.16824">
      </trkpt>
      <trkpt lat="50.731481" lon="7.168833">
      </trkpt>
      <trkpt lat="50.731974" lon="7.169332">
      </trkpt>
      <trkpt lat="50.732397" lon="7.170068">
      </trkpt>
      <trkpt lat="50.732895" lon="7.169348">
      </trkpt>
      <trkpt lat="50.733417" lon="7.168474">
      </trkpt>
      <trkpt lat="50.733966" lon="7.167255">
      </trkpt>
      <trkpt lat="50.734195" lon="7.165623">
      </trkpt>
      <trkpt lat="50.734287" lon="7.164728">
      </trkpt>
      <trkpt lat="50.735204" lon="7.164618">
      </trkpt>
      <trkpt lat="50.73585" lon="7.164093">
      </trkpt>
      <trkpt lat="50.736706" lon="7.163485">
      </trkpt>
      <trkpt lat="50.73759" lon="7.16289">
      </trkpt>
      <trkpt lat="50.738263" lon="7.161646">
      </trkpt>
      <trkpt lat="50.738542" lon="7.160182">
      </trkpt>
      <trkpt lat="50.738864" lon="7.161518">
      </trkpt>
      <trkpt lat="50.739018" lon="7.164155">
      </trkpt>
      <trkpt lat="50.74217" lon="7.163617">
      </trkpt>
      <trkpt lat="50.74411" lon="7.163256">
      </trkpt>
      <trkpt lat="50.745002" lon="7.161983">
      </trkpt>
      <trkpt lat="50.745604" lon="7.161142">
      </trkpt>
      <trkpt lat="50.746323" lon="7.160148">
      </trkpt>
      <trkpt lat="50.746778" lon="7.159647">
      </trkpt>
      <trkpt lat="50.747306" lon="7.159275">
      </trkpt>
      <trkpt lat="50.747537" lon="7.158">
      </trkpt>
      <trkpt lat="50.747703" lon="7.157088">
      </trkpt>
      <trkpt lat="50.748061" lon="7.156421">
      </trkpt>
      <trkpt lat="50.748429" lon="7.15575">
      </trkpt>
      <trkpt lat="50.748831" lon="7.155019">
      </trkpt>
      <trkpt lat="50.749207" lon="7.154365">
      </trkpt>
      <trkpt lat="50.7498" lon="7.153468">
      </trkpt>
      <trkpt lat="50.750224" lon="7.152842">
      </trkpt>
      <trkpt lat="50.751171" lon="7.150671">
      </trkpt>
      <trkpt lat="50.751579" lon="7.149977">
      </trkpt>
      <trkpt lat="50.752048" lon="7.149481">
      </trkpt>
      <trkpt lat="50.752614" lon="7.148724">
      </trkpt>
      <trkpt lat="50.753049" lon="7.14809">
      </trkpt>
      <trkpt lat="50.753724" lon="7.147151">
      </trkpt>
      <trkpt lat="50.754208" lon="7.146651">
      </trkpt>
      <trkpt lat="50.753975" lon="7.14561">
      </trkpt>
      <trkpt lat="50.75366" lon="7.144185">
      </trkpt>
      <trkpt lat="50.753514" lon="7.143036">
      </trkpt>
      <trkpt lat="50.753273" lon="7.14205">
      </trkpt>
      <trkpt lat="50.752961" lon="7.141028">
      </trkpt>
      <trkpt lat="50.753504" lon="7.140791">
      </trkpt>
      <trkpt lat="50.754245" lon="7.140556">
      </trkpt>
      <trkpt lat="50.753873" lon="7.139572">
      </trkpt>
      <trkpt lat="50.753589" lon="7.138216">
      </trkpt>
      <trkpt lat="50.753604" lon="7.137303">
      </trkpt>
      <trkpt lat="50.753697" lon="7.136083">
      </trkpt>
      <trkpt lat="50.753655" lon="7.134753">
      </trkpt>
      <trkpt lat="50.753512" lon="7.133743">
      </trkpt>
      <trkpt lat="50.753648" lon="7.132232">
      </trkpt>
      <trkpt lat="50.753727" lon="7.131296">
      </trkpt>
      <trkpt lat="50.75369" lon="7.130045">
      </trkpt>
      <trkpt lat="50.753855" lon="7.129206">
      </trkpt>
      <trkpt lat="50.754367" lon="7.128822">
      </trkpt>
      <trkpt lat="50.755045" lon="7.129024">
      </trkpt>
      <trkpt lat="50.755595" lon="7.128435">
      </trkpt>
      <trkpt lat="50.755736" lon="7.126906">
      </trkpt>
      <trkpt lat="50.755954" lon="7.125364">
      </trkpt>
      <trkpt lat="50.756042" lon="7.124318">
      </trkpt>
      <trkpt lat="50.756967" lon="7.124218">
      </trkpt>
      <trkpt lat="50.757601" lon="7.124437">
      </trkpt>
      <trkpt lat="50.758159" lon="7.124142">
      </trkpt>
      <trkpt lat="50.758757" lon="7.123795">
      </trkpt>
      <trkpt lat="50.759365" lon="7.123384">
      </trkpt>
      <trkpt lat="50.759899" lon="7.123042">
      </trkpt>
      <trkpt lat="50.760518" lon="7.122573">
      </trkpt>
      <trkpt lat="50.761075" lon="7.122192">
      </trkpt>
      <trkpt lat="50.761624" lon="7.122015">
      </trkpt>
      <trkpt lat="50.762232" lon="7.122019">
      </trkpt>
      <trkpt lat="50.76277" lon="7.121866">
      </trkpt>
      <trkpt lat="50.763341" lon="7.120741">
      </trkpt>
      <trkpt lat="50.762806" lon="7.119063">
      </trkpt>
      <trkpt lat="50.762306" lon="7.117348">
      </trkpt>
      <trkpt lat="50.761441" lon="7.113823">
      </trkpt>
      <trkpt lat="50.762256" lon="7.112919">
      </trkpt>
      <trkpt lat="50.763211" lon="7.11171">
      </trkpt>
      <trkpt lat="50.764237" lon="7.110204">
      </trkpt>
      <trkpt lat="50.765044" lon="7.108875">
      </trkpt>
      <trkpt lat="50.765901" lon="7.107332">
      </trkpt>
      <trkpt lat="50.766711" lon="7.10571">
      </trkpt>
      <trkpt lat="50.767351" lon="7.104306">
      </trkpt>
      <trkpt lat="50.766665" lon="7.104867">
      </trkpt>
      <trkpt lat="50.766248" lon="7.103747">
      </trkpt>
      <trkpt lat="50.765522" lon="7.100672">
      </trkpt>
      <trkpt lat="50.764682" lon="7.098585">
      </trkpt>
      <trkpt lat="50.764193" lon="7.097904">
      </trkpt>
      <trkpt lat="50.764764" lon="7.097717">
      </trkpt>
      <trkpt lat="50.765569" lon="7.09722">
      </trkpt>
      <trkpt lat="50.766114" lon="7.096651">
      </trkpt>
      <trkpt lat="50.767784" lon="7.094907">
      </trkpt>
      <trkpt lat="50.769382" lon="7.093238">
      </trkpt>
      <trkpt lat="50.769897" lon="7.091571">
      </trkpt>
      <trkpt lat="50.770202" lon="7.090065">
      </trkpt>
      <trkpt lat="50.77023" lon="7.088851">
      </trkpt>
      <trkpt lat="50.769491" lon="7.08439">
      </trkpt>
      <trkpt lat="50.769068" lon="7.082746">
      </trkpt>
      <trkpt lat="50.768481" lon="7.081182">
      </trkpt>
      <trkpt lat="50.768749" lon="7.080332">
      </trkpt>
      <trkpt lat="50.768481" lon="7.081182">
      </trkpt>
      <trkpt lat="50.76866" lon="7.08235">
      </trkpt>
      <trkpt lat="50.769422" lon="7.083987">
      </trkpt>
      <trkpt lat="50.768715" lon="7.08465">
      </trkpt>
      <trkpt lat="50.767506" lon="7.086398">
      </trkpt>
      <trkpt lat="50.766466" lon="7.087817">
      </trkpt>
      <trkpt lat="50.766107" lon="7.088498">
      </trkpt>
      <trkpt lat="50.765762" lon="7.089277">
      </trkpt>
      <trkpt lat="50.765217" lon="7.09049">
      </trkpt>
      <trkpt lat="50.764818" lon="7.091303">
      </trkpt>
      <trkpt lat="50.764311" lon="7.092309">
      </trkpt>
      <trkpt lat="50.763729" lon="7.09356">
      </trkpt>
      <trkpt lat="50.763471" lon="7.094494">
      </trkpt>
      <trkpt lat="50.763297" lon="7.095323">
      </trkpt>
      <trkpt lat="50.763303" lon="7.096385">
      </trkpt>
      <trkpt lat="50.764193" lon="7.097904">
      </trkpt>
      <trkpt lat="50.764682" lon="7.098585">
      </trkpt>
      <trkpt lat="50.765522" lon="7.100672">
      </trkpt>
      <trkpt lat="50.766084" lon="7.103172">
      </trkpt>
      <trkpt lat="50.766546" lon="7.104718">
      </trkpt>
      <trkpt lat="50.767369" lon="7.104602">
      </trkpt>
      <trkpt lat="50.767584" lon="7.103783">
      </trkpt>
      <trkpt lat="50.766711" lon="7.10571">
      </trkpt>
      <trkpt lat="50.765901" lon="7.107332">
      </trkpt>
      <trkpt lat="50.765044" lon="7.108875">
      </trkpt>
      <trkpt lat="50.764237" lon="7.110204">
      </trkpt>
      <trkpt lat="50.763459" lon="7.11137">
      </trkpt>
      <trkpt lat="50.762256" lon="7.112919">
      </trkpt>
      <trkpt lat="50.761441" lon="7.113823">
      </trkpt>
      <trkpt lat="50.760774" lon="7.114504">
      </trkpt>
      <trkpt lat="50.760201" lon="7.114562">
      </trkpt>
      <trkpt lat="50.75965" lon="7.113965">
      </trkpt>
      <trkpt lat="50.758394" lon="7.113994">
      </trkpt>
      <trkpt lat="50.757696" lon="7.113927">
      </trkpt>
      <trkpt lat="50.757094" lon="7.114061">
      </trkpt>
      <trkpt lat="50.756026" lon="7.114208">
      </trkpt>
      <trkpt lat="50.755358" lon="7.114256">
      </trkpt>
      <trkpt lat="50.753659" lon="7.114398">
      </trkpt>
      <trkpt lat="50.752758" lon="7.114608">
      </trkpt>
      <trkpt lat="50.751926" lon="7.114897">
      </trkpt>
      <trkpt lat="50.751304" lon="7.114476">
      </trkpt>
      <trkpt lat="50.750674" lon="7.113679">
      </trkpt>
      <trkpt lat="50.750117" lon="7.112874">
      </trkpt>
      <trkpt lat="50.749635" lon="7.111867">
      </trkpt>
      <trkpt lat="50.748463" lon="7.112744">
      </trkpt>
      <trkpt lat="50.747951" lon="7.113169">
      </trkpt>
      <trkpt lat="50.747324" lon="7.113644">
      </trkpt>
      <trkpt lat="50.746705" lon="7.114088">
      </trkpt>
      <trkpt lat="50.745998" lon="7.114403">
      </trkpt>
      <trkpt lat="50.745332" lon="7.114499">
      </trkpt>
      <trkpt lat="50.744031" lon="7.114546">
      </trkpt>
      <trkpt lat="50.743313" lon="7.114632">
      </trkpt>
      <trkpt lat="50.742729" lon="7.114626">
      </trkpt>
      <trkpt lat="50.742114" lon="7.114799">
      </trkpt>
      <trkpt lat="50.741478" lon="7.114919">
      </trkpt>
      <trkpt lat="50.740418" lon="7.115133">
      </trkpt>
      <trkpt lat="50.739199" lon="7.115714">
      </trkpt>
      <trkpt lat="50.738756" lon="7.114711">
      </trkpt>
      <trkpt lat="50.738574" lon="7.11341">
      </trkpt>
      <trkpt lat="50.738118" lon="7.110063">
      </trkpt>
      <trkpt lat="50.73765" lon="7.106707">
      </trkpt>
      <trkpt lat="50.737447" lon="7.105809">
      </trkpt>
      <trkpt lat="50.736871" lon="7.10584">
      </trkpt>
      <trkpt lat="50.736138" lon="7.106072">
      </trkpt>
      <trkpt lat="50.73573" lon="7.105041">
      </trkpt>
      <trkpt lat="50.734862" lon="7.105385">
      </trkpt>
      <trkpt lat="50.73444" lon="7.104193">
      </trkpt>
    </trkseg>
  </trk>
</gpx>