<?xml version="1.0" encoding="UTF-8"?>
<gpx xmlns="http://www.topografix.com/GPX/1/1" xmlns:xsi="http://www.w3.org/2001/XMLSchema-instance" xsi:schemaLocation="http://www.topografix.com/GPX/1/1 http://www.topografix.com/GPX/1/1/gpx.xsd" version="1.1" creator="gpx.py -- https://github.com/tkrajina/gpxpy">
  <metadata>
    <name>016</name>
  </metadata>
  <trk>
    <name>016</name>
    <trkseg>
      <trkpt lat="50.733897" lon="7.104095">
      </trkpt>
      <trkpt lat="50.733384" lon="7.10342">
      </trkpt>
      <trkpt lat="50.732927" lon="7.102831">
      </trkpt>
      <trkpt lat="50.732472" lon="7.102061">
      </trkpt>
      <trkpt lat="50.731828" lon="7.101104">
      </trkpt>
      <trkpt lat="50.731759" lon="7.100157">
      </trkpt>
      <trkpt lat="50.731871" lon="7.098896">
      </trkpt>
      <trkpt lat="50.731528" lon="7.099675">
      </trkpt>
      <trkpt lat="50.731128" lon="7.098938">
      </trkpt>
      <trkpt lat="50.729749" lon="7.097762">
      </trkpt>
      <trkpt lat="50.729151" lon="7.09764">
      </trkpt>
      <trkpt lat="50.728454" lon="7.096756">
      </trkpt>
      <trkpt lat="50.727956" lon="7.096109">
      </trkpt>
      <trkpt lat="50.727381" lon="7.095372">
      </trkpt>
      <trkpt lat="50.726459" lon="7.095715">
      </trkpt>
      <trkpt lat="50.725732" lon="7.09544">
      </trkpt>
      <trkpt lat="50.724956" lon="7.095371">
      </trkpt>
      <trkpt lat="50.724157" lon="7.095154">
      </trkpt>
      <trkpt lat="50.723696" lon="7.094663">
      </trkpt>
      <trkpt lat="50.723244" lon="7.094153">
      </trkpt>
      <trkpt lat="50.723257" lon="7.093045">
      </trkpt>
      <trkpt lat="50.72322" lon="7.092013">
      </trkpt>
      <trkpt lat="50.722832" lon="7.091024">
      </trkpt>
      <trkpt lat="50.722428" lon="7.090044">
      </trkpt>
      <trkpt lat="50.7219" lon="7.089669">
      </trkpt>
      <trkpt lat="50.721429" lon="7.090315">
      </trkpt>
      <trkpt lat="50.720903" lon="7.089768">
      </trkpt>
      <trkpt lat="50.720376" lon="7.089221">
      </trkpt>
      <trkpt lat="50.719715" lon="7.089325">
      </trkpt>
      <trkpt lat="50.719142" lon="7.089687">
      </trkpt>
      <trkpt lat="50.718481" lon="7.089939">
      </trkpt>
      <trkpt lat="50.718634" lon="7.089077">
      </trkpt>
      <trkpt lat="50.71863" lon="7.088072">
      </trkpt>
      <trkpt lat="50.718445" lon="7.08696">
      </trkpt>
      <trkpt lat="50.717752" lon="7.087283">
      </trkpt>
      <trkpt lat="50.717223" lon="7.087566">
      </trkpt>
      <trkpt lat="50.716654" lon="7.0881">
      </trkpt>
      <trkpt lat="50.715302" lon="7.08916">
      </trkpt>
      <trkpt lat="50.714716" lon="7.089576">
      </trkpt>
      <trkpt lat="50.714266" lon="7.090103">
      </trkpt>
      <trkpt lat="50.713755" lon="7.090401">
      </trkpt>
      <trkpt lat="50.713289" lon="7.089752">
      </trkpt>
      <trkpt lat="50.712574" lon="7.089585">
      </trkpt>
      <trkpt lat="50.711416" lon="7.089107">
      </trkpt>
      <trkpt lat="50.710653" lon="7.088825">
      </trkpt>
      <trkpt lat="50.710194" lon="7.087937">
      </trkpt>
      <trkpt lat="50.709589" lon="7.087468">
      </trkpt>
      <trkpt lat="50.708989" lon="7.086675">
      </trkpt>
      <trkpt lat="50.708393" lon="7.086192">
      </trkpt>
      <trkpt lat="50.707802" lon="7.085825">
      </trkpt>
      <trkpt lat="50.707178" lon="7.085331">
      </trkpt>
      <trkpt lat="50.706538" lon="7.085181">
      </trkpt>
      <trkpt lat="50.706028" lon="7.084905">
      </trkpt>
      <trkpt lat="50.705307" lon="7.084733">
      </trkpt>
      <trkpt lat="50.704587" lon="7.084782">
      </trkpt>
      <trkpt lat="50.704107" lon="7.085427">
      </trkpt>
      <trkpt lat="50.703447" lon="7.085617">
      </trkpt>
      <trkpt lat="50.702862" lon="7.085778">
      </trkpt>
      <trkpt lat="50.702721" lon="7.086984">
      </trkpt>
      <trkpt lat="50.702918" lon="7.0886">
      </trkpt>
      <trkpt lat="50.703088" lon="7.08947">
      </trkpt>
      <trkpt lat="50.702734" lon="7.090242">
      </trkpt>
      <trkpt lat="50.702101" lon="7.090611">
      </trkpt>
      <trkpt lat="50.701423" lon="7.09103">
      </trkpt>
      <trkpt lat="50.700743" lon="7.091198">
      </trkpt>
      <trkpt lat="50.700145" lon="7.091702">
      </trkpt>
      <trkpt lat="50.699691" lon="7.092342">
      </trkpt>
      <trkpt lat="50.699188" lon="7.092669">
      </trkpt>
      <trkpt lat="50.698645" lon="7.093858">
      </trkpt>
      <trkpt lat="50.698403" lon="7.094626">
      </trkpt>
      <trkpt lat="50.697943" lon="7.096439">
      </trkpt>
      <trkpt lat="50.697582" lon="7.097113">
      </trkpt>
      <trkpt lat="50.696998" lon="7.096817">
      </trkpt>
      <trkpt lat="50.696252" lon="7.096643">
      </trkpt>
      <trkpt lat="50.695695" lon="7.09689">
      </trkpt>
      <trkpt lat="50.694443" lon="7.097145">
      </trkpt>
      <trkpt lat="50.694737" lon="7.094991">
      </trkpt>
      <trkpt lat="50.694857" lon="7.093998">
      </trkpt>
      <trkpt lat="50.693971" lon="7.093752">
      </trkpt>
      <trkpt lat="50.693341" lon="7.092874">
      </trkpt>
      <trkpt lat="50.692896" lon="7.092158">
      </trkpt>
      <trkpt lat="50.692852" lon="7.091264">
      </trkpt>
      <trkpt lat="50.692351" lon="7.090444">
      </trkpt>
      <trkpt lat="50.691105" lon="7.089505">
      </trkpt>
      <trkpt lat="50.690431" lon="7.088963">
      </trkpt>
      <trkpt lat="50.690128" lon="7.088139">
      </trkpt>
      <trkpt lat="50.689446" lon="7.086655">
      </trkpt>
      <trkpt lat="50.688989" lon="7.085984">
      </trkpt>
      <trkpt lat="50.688338" lon="7.085998">
      </trkpt>
      <trkpt lat="50.687232" lon="7.086818">
      </trkpt>
      <trkpt lat="50.686365" lon="7.087247">
      </trkpt>
      <trkpt lat="50.685855" lon="7.086231">
      </trkpt>
      <trkpt lat="50.684871" lon="7.084251">
      </trkpt>
      <trkpt lat="50.684364" lon="7.083714">
      </trkpt>
      <trkpt lat="50.683692" lon="7.083871">
      </trkpt>
      <trkpt lat="50.683114" lon="7.083996">
      </trkpt>
      <trkpt lat="50.682435" lon="7.084343">
      </trkpt>
      <trkpt lat="50.68181" lon="7.084778">
      </trkpt>
      <trkpt lat="50.681443" lon="7.085561">
      </trkpt>
      <trkpt lat="50.680644" lon="7.085788">
      </trkpt>
      <trkpt lat="50.680036" lon="7.086061">
      </trkpt>
      <trkpt lat="50.679242" lon="7.086279">
      </trkpt>
      <trkpt lat="50.678525" lon="7.086157">
      </trkpt>
      <trkpt lat="50.677929" lon="7.085713">
      </trkpt>
      <trkpt lat="50.677045" lon="7.084835">
      </trkpt>
      <trkpt lat="50.67644" lon="7.084399">
      </trkpt>
      <trkpt lat="50.675827" lon="7.084133">
      </trkpt>
      <trkpt lat="50.674776" lon="7.083894">
      </trkpt>
      <trkpt lat="50.674091" lon="7.084173">
      </trkpt>
      <trkpt lat="50.673241" lon="7.083752">
      </trkpt>
      <trkpt lat="50.67271" lon="7.083114">
      </trkpt>
      <trkpt lat="50.672089" lon="7.082508">
      </trkpt>
      <trkpt lat="50.671639" lon="7.082021">
      </trkpt>
      <trkpt lat="50.671562" lon="7.080846">
      </trkpt>
      <trkpt lat="50.671917" lon="7.079813">
      </trkpt>
      <trkpt lat="50.671365" lon="7.080159">
      </trkpt>
      <trkpt lat="50.670599" lon="7.080237">
      </trkpt>
      <trkpt lat="50.669946" lon="7.079564">
      </trkpt>
      <trkpt lat="50.66784" lon="7.080565">
      </trkpt>
      <trkpt lat="50.666333" lon="7.075916">
      </trkpt>
      <trkpt lat="50.665136" lon="7.072501">
      </trkpt>
      <trkpt lat="50.664646" lon="7.070896">
      </trkpt>
      <trkpt lat="50.662837" lon="7.065362">
      </trkpt>
      <trkpt lat="50.658561" lon="7.064082">
      </trkpt>
      <trkpt lat="50.65437" lon="7.062802">
      </trkpt>
      <trkpt lat="50.650778" lon="7.062206">
      </trkpt>
      <trkpt lat="50.646662" lon="7.061561">
      </trkpt>
      <trkpt lat="50.645966" lon="7.061436">
      </trkpt>
      <trkpt lat="50.641772" lon="7.060684">
      </trkpt>
      <trkpt lat="50.641604" lon="7.062378">
      </trkpt>
      <trkpt lat="50.641275" lon="7.066626">
      </trkpt>
      <trkpt lat="50.640862" lon="7.069652">
      </trkpt>
      <trkpt lat="50.637178" lon="7.068948">
      </trkpt>
      <trkpt lat="50.634815" lon="7.068464">
      </trkpt>
      <trkpt lat="50.632695" lon="7.068492">
      </trkpt>
      <trkpt lat="50.631915" lon="7.068769">
      </trkpt>
      <trkpt lat="50.630591" lon="7.068128">
      </trkpt>
      <trkpt lat="50.629402" lon="7.067461">
      </trkpt>
      <trkpt lat="50.62805" lon="7.066767">
      </trkpt>
      <trkpt lat="50.626309" lon="7.065941">
      </trkpt>
      <trkpt lat="50.625537" lon="7.065456">
      </trkpt>
      <trkpt lat="50.624773" lon="7.064868">
      </trkpt>
      <trkpt lat="50.623744" lon="7.06558">
      </trkpt>
      <trkpt lat="50.623244" lon="7.066297">
      </trkpt>
      <trkpt lat="50.623402" lon="7.067519">
      </trkpt>
      <trkpt lat="50.62375" lon="7.068391">
      </trkpt>
      <trkpt lat="50.624284" lon="7.069488">
      </trkpt>
      <trkpt lat="50.624791" lon="7.070098">
      </trkpt>
      <trkpt lat="50.625205" lon="7.070689">
      </trkpt>
      <trkpt lat="50.625852" lon="7.07079">
      </trkpt>
      <trkpt lat="50.626394" lon="7.071622">
      </trkpt>
      <trkpt lat="50.626838" lon="7.072225">
      </trkpt>
      <trkpt lat="50.626482" lon="7.07291">
      </trkpt>
      <trkpt lat="50.626128" lon="7.073632">
      </trkpt>
      <trkpt lat="50.625645" lon="7.074309">
      </trkpt>
      <trkpt lat="50.625088" lon="7.075465">
      </trkpt>
      <trkpt lat="50.624692" lon="7.07622">
      </trkpt>
      <trkpt lat="50.624944" lon="7.077063">
      </trkpt>
      <trkpt lat="50.624721" lon="7.078006">
      </trkpt>
      <trkpt lat="50.6241" lon="7.078828">
      </trkpt>
      <trkpt lat="50.62336" lon="7.080895">
      </trkpt>
      <trkpt lat="50.623127" lon="7.082014">
      </trkpt>
      <trkpt lat="50.62306" lon="7.082984">
      </trkpt>
      <trkpt lat="50.622963" lon="7.083897">
      </trkpt>
      <trkpt lat="50.622208" lon="7.08424">
      </trkpt>
      <trkpt lat="50.621347" lon="7.084267">
      </trkpt>
      <trkpt lat="50.620578" lon="7.084929">
      </trkpt>
      <trkpt lat="50.620017" lon="7.085362">
      </trkpt>
      <trkpt lat="50.620161" lon="7.087109">
      </trkpt>
      <trkpt lat="50.620717" lon="7.088441">
      </trkpt>
      <trkpt lat="50.621535" lon="7.08836">
      </trkpt>
      <trkpt lat="50.622594" lon="7.089985">
      </trkpt>
      <trkpt lat="50.623547" lon="7.091217">
      </trkpt>
      <trkpt lat="50.623798" lon="7.092275">
      </trkpt>
      <trkpt lat="50.623775" lon="7.093515">
      </trkpt>
      <trkpt lat="50.624203" lon="7.097718">
      </trkpt>
      <trkpt lat="50.623806" lon="7.099805">
      </trkpt>
      <trkpt lat="50.623786" lon="7.100751">
      </trkpt>
      <trkpt lat="50.623934" lon="7.10315">
      </trkpt>
      <trkpt lat="50.624038" lon="7.104037">
      </trkpt>
      <trkpt lat="50.624289" lon="7.105326">
      </trkpt>
      <trkpt lat="50.624718" lon="7.106224">
      </trkpt>
      <trkpt lat="50.625169" lon="7.107075">
      </trkpt>
      <trkpt lat="50.625534" lon="7.111506">
      </trkpt>
      <trkpt lat="50.627308" lon="7.112544">
      </trkpt>
      <trkpt lat="50.626409" lon="7.116898">
      </trkpt>
      <trkpt lat="50.626959" lon="7.11772">
      </trkpt>
      <trkpt lat="50.627472" lon="7.117398">
      </trkpt>
      <trkpt lat="50.62804" lon="7.117065">
      </trkpt>
      <trkpt lat="50.628795" lon="7.116599">
      </trkpt>
      <trkpt lat="50.629554" lon="7.116435">
      </trkpt>
      <trkpt lat="50.629956" lon="7.115309">
      </trkpt>
      <trkpt lat="50.630213" lon="7.1143">
      </trkpt>
      <trkpt lat="50.63031" lon="7.11307">
      </trkpt>
      <trkpt lat="50.630781" lon="7.114185">
      </trkpt>
      <trkpt lat="50.630893" lon="7.115075">
      </trkpt>
      <trkpt lat="50.632045" lon="7.118444">
      </trkpt>
      <trkpt lat="50.632364" lon="7.119389">
      </trkpt>
      <trkpt lat="50.632783" lon="7.120592">
      </trkpt>
      <trkpt lat="50.633617" lon="7.120372">
      </trkpt>
      <trkpt lat="50.634479" lon="7.120149">
      </trkpt>
      <trkpt lat="50.635266" lon="7.119948">
      </trkpt>
      <trkpt lat="50.638909" lon="7.118985">
      </trkpt>
      <trkpt lat="50.640146" lon="7.119503">
      </trkpt>
      <trkpt lat="50.641527" lon="7.119482">
      </trkpt>
      <trkpt lat="50.642792" lon="7.11945">
      </trkpt>
      <trkpt lat="50.643976" lon="7.119493">
      </trkpt>
      <trkpt lat="50.644609" lon="7.119471">
      </trkpt>
      <trkpt lat="50.644235" lon="7.121152">
      </trkpt>
      <trkpt lat="50.64486" lon="7.122374">
      </trkpt>
      <trkpt lat="50.645339" lon="7.123311">
      </trkpt>
      <trkpt lat="50.646057" lon="7.124786">
      </trkpt>
      <trkpt lat="50.646674" lon="7.125062">
      </trkpt>
      <trkpt lat="50.646839" lon="7.125939">
      </trkpt>
      <trkpt lat="50.6477" lon="7.125668">
      </trkpt>
      <trkpt lat="50.648397" lon="7.125717">
      </trkpt>
      <trkpt lat="50.649123" lon="7.125382">
      </trkpt>
      <trkpt lat="50.649615" lon="7.124998">
      </trkpt>
      <trkpt lat="50.650285" lon="7.124772">
      </trkpt>
      <trkpt lat="50.650783" lon="7.124318">
      </trkpt>
      <trkpt lat="50.651568" lon="7.12327">
      </trkpt>
      <trkpt lat="50.652269" lon="7.12327">
      </trkpt>
      <trkpt lat="50.652822" lon="7.123001">
      </trkpt>
      <trkpt lat="50.653863" lon="7.121363">
      </trkpt>
      <trkpt lat="50.653878" lon="7.122298">
      </trkpt>
      <trkpt lat="50.653601" lon="7.123782">
      </trkpt>
      <trkpt lat="50.653482" lon="7.124652">
      </trkpt>
      <trkpt lat="50.653016" lon="7.125237">
      </trkpt>
      <trkpt lat="50.652684" lon="7.126162">
      </trkpt>
      <trkpt lat="50.652603" lon="7.127027">
      </trkpt>
      <trkpt lat="50.652165" lon="7.127756">
      </trkpt>
      <trkpt lat="50.651884" lon="7.128743">
      </trkpt>
      <trkpt lat="50.651747" lon="7.129756">
      </trkpt>
      <trkpt lat="50.651434" lon="7.130702">
      </trkpt>
      <trkpt lat="50.651483" lon="7.131554">
      </trkpt>
      <trkpt lat="50.651845" lon="7.132609">
      </trkpt>
      <trkpt lat="50.652376" lon="7.13348">
      </trkpt>
      <trkpt lat="50.652995" lon="7.134883">
      </trkpt>
      <trkpt lat="50.654111" lon="7.135893">
      </trkpt>
      <trkpt lat="50.654577" lon="7.136405">
      </trkpt>
      <trkpt lat="50.655082" lon="7.136718">
      </trkpt>
      <trkpt lat="50.655843" lon="7.137031">
      </trkpt>
      <trkpt lat="50.656384" lon="7.137443">
      </trkpt>
      <trkpt lat="50.657116" lon="7.137958">
      </trkpt>
      <trkpt lat="50.657759" lon="7.138851">
      </trkpt>
      <trkpt lat="50.658303" lon="7.140378">
      </trkpt>
      <trkpt lat="50.65874" lon="7.141058">
      </trkpt>
      <trkpt lat="50.659771" lon="7.142227">
      </trkpt>
      <trkpt lat="50.66055" lon="7.142941">
      </trkpt>
      <trkpt lat="50.66105" lon="7.143749">
      </trkpt>
      <trkpt lat="50.661913" lon="7.143823">
      </trkpt>
      <trkpt lat="50.662299" lon="7.144895">
      </trkpt>
      <trkpt lat="50.662687" lon="7.145531">
      </trkpt>
      <trkpt lat="50.66323" lon="7.146307">
      </trkpt>
      <trkpt lat="50.663858" lon="7.14696">
      </trkpt>
      <trkpt lat="50.664757" lon="7.147883">
      </trkpt>
      <trkpt lat="50.665213" lon="7.147221">
      </trkpt>
      <trkpt lat="50.665071" lon="7.146236">
      </trkpt>
      <trkpt lat="50.664674" lon="7.144997">
      </trkpt>
      <trkpt lat="50.664908" lon="7.143522">
      </trkpt>
      <trkpt lat="50.66542" lon="7.143058">
      </trkpt>
      <trkpt lat="50.666053" lon="7.141751">
      </trkpt>
      <trkpt lat="50.667674" lon="7.14078">
      </trkpt>
      <trkpt lat="50.66988" lon="7.138359">
      </trkpt>
      <trkpt lat="50.670593" lon="7.138051">
      </trkpt>
      <trkpt lat="50.671333" lon="7.137961">
      </trkpt>
      <trkpt lat="50.671918" lon="7.137645">
      </trkpt>
      <trkpt lat="50.672706" lon="7.138232">
      </trkpt>
      <trkpt lat="50.67293" lon="7.1394">
      </trkpt>
      <trkpt lat="50.673361" lon="7.139939">
      </trkpt>
      <trkpt lat="50.673918" lon="7.140962">
      </trkpt>
      <trkpt lat="50.674773" lon="7.14279">
      </trkpt>
      <trkpt lat="50.675049" lon="7.143529">
      </trkpt>
      <trkpt lat="50.675493" lon="7.14411">
      </trkpt>
      <trkpt lat="50.676038" lon="7.144746">
      </trkpt>
      <trkpt lat="50.677106" lon="7.144647">
      </trkpt>
      <trkpt lat="50.677724" lon="7.145031">
      </trkpt>
      <trkpt lat="50.678361" lon="7.145559">
      </trkpt>
      <trkpt lat="50.678864" lon="7.146638">
      </trkpt>
      <trkpt lat="50.679372" lon="7.1475">
      </trkpt>
      <trkpt lat="50.679867" lon="7.147954">
      </trkpt>
      <trkpt lat="50.680076" lon="7.149048">
      </trkpt>
      <trkpt lat="50.680951" lon="7.150103">
      </trkpt>
      <trkpt lat="50.681713" lon="7.150986">
      </trkpt>
      <trkpt lat="50.681997" lon="7.152168">
      </trkpt>
      <trkpt lat="50.681984" lon="7.153059">
      </trkpt>
      <trkpt lat="50.682401" lon="7.153963">
      </trkpt>
      <trkpt lat="50.683067" lon="7.155173">
      </trkpt>
      <trkpt lat="50.683448" lon="7.155903">
      </trkpt>
      <trkpt lat="50.684123" lon="7.155196">
      </trkpt>
      <trkpt lat="50.684871" lon="7.156731">
      </trkpt>
      <trkpt lat="50.685449" lon="7.156357">
      </trkpt>
      <trkpt lat="50.68599" lon="7.156492">
      </trkpt>
      <trkpt lat="50.686478" lon="7.156988">
      </trkpt>
      <trkpt lat="50.687255" lon="7.157935">
      </trkpt>
      <trkpt lat="50.687721" lon="7.158454">
      </trkpt>
      <trkpt lat="50.688369" lon="7.159192">
      </trkpt>
      <trkpt lat="50.688884" lon="7.159474">
      </trkpt>
      <trkpt lat="50.689522" lon="7.159736">
      </trkpt>
      <trkpt lat="50.690224" lon="7.160018">
      </trkpt>
      <trkpt lat="50.690996" lon="7.160258">
      </trkpt>
      <trkpt lat="50.692102" lon="7.160515">
      </trkpt>
      <trkpt lat="50.692821" lon="7.160668">
      </trkpt>
      <trkpt lat="50.693363" lon="7.160777">
      </trkpt>
      <trkpt lat="50.69402" lon="7.16091">
      </trkpt>
      <trkpt lat="50.694854" lon="7.16068">
      </trkpt>
      <trkpt lat="50.695288" lon="7.161339">
      </trkpt>
      <trkpt lat="50.695856" lon="7.161079">
      </trkpt>
      <trkpt lat="50.696594" lon="7.160134">
      </trkpt>
      <trkpt lat="50.697145" lon="7.159343">
      </trkpt>
      <trkpt lat="50.697651" lon="7.159868">
      </trkpt>
      <trkpt lat="50.698193" lon="7.160019">
      </trkpt>
      <trkpt lat="50.698999" lon="7.159415">
      </trkpt>
      <trkpt lat="50.699979" lon="7.158479">
      </trkpt>
      <trkpt lat="50.700642" lon="7.157844">
      </trkpt>
      <trkpt lat="50.701094" lon="7.157367">
      </trkpt>
      <trkpt lat="50.701779" lon="7.157716">
      </trkpt>
      <trkpt lat="50.702396" lon="7.157">
      </trkpt>
      <trkpt lat="50.702878" lon="7.156562">
      </trkpt>
      <trkpt lat="50.703453" lon="7.156294">
      </trkpt>
      <trkpt lat="50.704503" lon="7.155188">
      </trkpt>
      <trkpt lat="50.705914" lon="7.154682">
      </trkpt>
      <trkpt lat="50.706964" lon="7.154312">
      </trkpt>
      <trkpt lat="50.707485" lon="7.154628">
      </trkpt>
      <trkpt lat="50.707489" lon="7.153529">
      </trkpt>
      <trkpt lat="50.707525" lon="7.152566">
      </trkpt>
      <trkpt lat="50.707518" lon="7.15148">
      </trkpt>
      <trkpt lat="50.707845" lon="7.150773">
      </trkpt>
      <trkpt lat="50.708436" lon="7.150253">
      </trkpt>
      <trkpt lat="50.709082" lon="7.150549">
      </trkpt>
      <trkpt lat="50.709643" lon="7.151242">
      </trkpt>
      <trkpt lat="50.710229" lon="7.15158">
      </trkpt>
      <trkpt lat="50.711028" lon="7.150644">
      </trkpt>
      <trkpt lat="50.711406" lon="7.149728">
      </trkpt>
      <trkpt lat="50.711665" lon="7.148751">
      </trkpt>
      <trkpt lat="50.711791" lon="7.147281">
      </trkpt>
      <trkpt lat="50.712346" lon="7.147188">
      </trkpt>
      <trkpt lat="50.712715" lon="7.147814">
      </trkpt>
      <trkpt lat="50.712986" lon="7.147052">
      </trkpt>
      <trkpt lat="50.713318" lon="7.146364">
      </trkpt>
      <trkpt lat="50.713839" lon="7.144681">
      </trkpt>
      <trkpt lat="50.714081" lon="7.143892">
      </trkpt>
      <trkpt lat="50.714629" lon="7.143934">
      </trkpt>
      <trkpt lat="50.715118" lon="7.144404">
      </trkpt>
      <trkpt lat="50.715639" lon="7.143867">
      </trkpt>
      <trkpt lat="50.715943" lon="7.142589">
      </trkpt>
      <trkpt lat="50.716194" lon="7.141491">
      </trkpt>
      <trkpt lat="50.716444" lon="7.140688">
      </trkpt>
      <trkpt lat="50.716895" lon="7.138826">
      </trkpt>
      <trkpt lat="50.717288" lon="7.137064">
      </trkpt>
      <trkpt lat="50.717621" lon="7.135722">
      </trkpt>
      <trkpt lat="50.717937" lon="7.134393">
      </trkpt>
      <trkpt lat="50.718168" lon="7.133254">
      </trkpt>
      <trkpt lat="50.718401" lon="7.132125">
      </trkpt>
      <trkpt lat="50.718676" lon="7.130738">
      </trkpt>
      <trkpt lat="50.718856" lon="7.129833">
      </trkpt>
      <trkpt lat="50.719118" lon="7.12862">
      </trkpt>
      <trkpt lat="50.719587" lon="7.126695">
      </trkpt>
      <trkpt lat="50.719859" lon="7.125743">
      </trkpt>
      <trkpt lat="50.720185" lon="7.124757">
      </trkpt>
      <trkpt lat="50.720912" lon="7.12284">
      </trkpt>
      <trkpt lat="50.721427" lon="7.121617">
      </trkpt>
      <trkpt lat="50.722446" lon="7.119719">
      </trkpt>
      <trkpt lat="50.723829" lon="7.117462">
      </trkpt>
      <trkpt lat="50.725152" lon="7.115492">
      </trkpt>
      <trkpt lat="50.725684" lon="7.11475">
      </trkpt>
      <trkpt lat="50.727075" lon="7.113114">
      </trkpt>
      <trkpt lat="50.727889" lon="7.112297">
      </trkpt>
      <trkpt lat="50.72845" lon="7.111791">
      </trkpt>
      <trkpt lat="50.729885" lon="7.110769">
      </trkpt>
      <trkpt lat="50.730955" lon="7.110115">
      </trkpt>
    </trkseg>
  </trk>
</gpx>