<?xml version="1.0" encoding="UTF-8"?>
<gpx xmlns="http://www.topografix.com/GPX/1/1" xmlns:xsi="http://www.w3.org/2001/XMLSchema-instance" xsi:schemaLocation="http://www.topografix.com/GPX/1/1 http://www.topografix.com/GPX/1/1/gpx.xsd" version="1.1" creator="gpx.py -- https://github.com/tkrajina/gpxpy">
  <metadata>
    <name>018</name>
  </metadata>
  <trk>
    <name>018</name>
    <trkseg>
      <trkpt lat="50.734062" lon="7.104294">
      </trkpt>
      <trkpt lat="50.734591" lon="7.10411">
      </trkpt>
      <trkpt lat="50.735193" lon="7.103887">
      </trkpt>
      <trkpt lat="50.735681" lon="7.104889">
      </trkpt>
      <trkpt lat="50.736251" lon="7.104704">
      </trkpt>
      <trkpt lat="50.736801" lon="7.10427">
      </trkpt>
      <trkpt lat="50.737358" lon="7.104709">
      </trkpt>
      <trkpt lat="50.737469" lon="7.105598">
      </trkpt>
      <trkpt lat="50.73765" lon="7.106707">
      </trkpt>
      <trkpt lat="50.738118" lon="7.110063">
      </trkpt>
      <trkpt lat="50.738574" lon="7.11341">
      </trkpt>
      <trkpt lat="50.737975" lon="7.114133">
      </trkpt>
      <trkpt lat="50.738478" lon="7.113219">
      </trkpt>
      <trkpt lat="50.739778" lon="7.112939">
      </trkpt>
      <trkpt lat="50.740466" lon="7.113008">
      </trkpt>
      <trkpt lat="50.741084" lon="7.112901">
      </trkpt>
      <trkpt lat="50.741752" lon="7.112603">
      </trkpt>
      <trkpt lat="50.74232" lon="7.113186">
      </trkpt>
      <trkpt lat="50.742665" lon="7.114247">
      </trkpt>
      <trkpt lat="50.742768" lon="7.115476">
      </trkpt>
      <trkpt lat="50.742851" lon="7.116668">
      </trkpt>
      <trkpt lat="50.742973" lon="7.118087">
      </trkpt>
      <trkpt lat="50.743123" lon="7.119481">
      </trkpt>
      <trkpt lat="50.743242" lon="7.120378">
      </trkpt>
      <trkpt lat="50.743324" lon="7.12129">
      </trkpt>
      <trkpt lat="50.743335" lon="7.122572">
      </trkpt>
      <trkpt lat="50.743301" lon="7.12351">
      </trkpt>
      <trkpt lat="50.743391" lon="7.124756">
      </trkpt>
      <trkpt lat="50.743455" lon="7.12571">
      </trkpt>
      <trkpt lat="50.743159" lon="7.127511">
      </trkpt>
      <trkpt lat="50.742622" lon="7.1307">
      </trkpt>
      <trkpt lat="50.742273" lon="7.13363">
      </trkpt>
      <trkpt lat="50.742377" lon="7.13472">
      </trkpt>
      <trkpt lat="50.742372" lon="7.135689">
      </trkpt>
      <trkpt lat="50.74238" lon="7.136653">
      </trkpt>
      <trkpt lat="50.742407" lon="7.138073">
      </trkpt>
      <trkpt lat="50.742433" lon="7.139332">
      </trkpt>
      <trkpt lat="50.742465" lon="7.1409">
      </trkpt>
      <trkpt lat="50.742485" lon="7.141891">
      </trkpt>
      <trkpt lat="50.742528" lon="7.143774">
      </trkpt>
      <trkpt lat="50.742565" lon="7.145767">
      </trkpt>
      <trkpt lat="50.742589" lon="7.146883">
      </trkpt>
      <trkpt lat="50.742604" lon="7.147829">
      </trkpt>
      <trkpt lat="50.742363" lon="7.14894">
      </trkpt>
      <trkpt lat="50.741903" lon="7.149418">
      </trkpt>
      <trkpt lat="50.741293" lon="7.14944">
      </trkpt>
      <trkpt lat="50.740485" lon="7.149512">
      </trkpt>
      <trkpt lat="50.739748" lon="7.149497">
      </trkpt>
      <trkpt lat="50.739105" lon="7.149539">
      </trkpt>
      <trkpt lat="50.738236" lon="7.149558">
      </trkpt>
      <trkpt lat="50.736976" lon="7.14894">
      </trkpt>
      <trkpt lat="50.737166" lon="7.150027">
      </trkpt>
      <trkpt lat="50.736995" lon="7.151022">
      </trkpt>
      <trkpt lat="50.737072" lon="7.152433">
      </trkpt>
      <trkpt lat="50.737315" lon="7.153572">
      </trkpt>
      <trkpt lat="50.736586" lon="7.154391">
      </trkpt>
      <trkpt lat="50.736401" lon="7.155481">
      </trkpt>
      <trkpt lat="50.736973" lon="7.156998">
      </trkpt>
      <trkpt lat="50.736535" lon="7.157928">
      </trkpt>
      <trkpt lat="50.735771" lon="7.15845">
      </trkpt>
      <trkpt lat="50.735159" lon="7.158621">
      </trkpt>
      <trkpt lat="50.734759" lon="7.157526">
      </trkpt>
      <trkpt lat="50.734314" lon="7.156929">
      </trkpt>
      <trkpt lat="50.733433" lon="7.157716">
      </trkpt>
      <trkpt lat="50.732833" lon="7.158403">
      </trkpt>
      <trkpt lat="50.732106" lon="7.158176">
      </trkpt>
      <trkpt lat="50.73148" lon="7.157626">
      </trkpt>
      <trkpt lat="50.730858" lon="7.157932">
      </trkpt>
      <trkpt lat="50.730428" lon="7.159068">
      </trkpt>
      <trkpt lat="50.729777" lon="7.160178">
      </trkpt>
      <trkpt lat="50.72923" lon="7.159861">
      </trkpt>
      <trkpt lat="50.728763" lon="7.159412">
      </trkpt>
      <trkpt lat="50.728141" lon="7.159517">
      </trkpt>
      <trkpt lat="50.728137" lon="7.16054">
      </trkpt>
      <trkpt lat="50.72837" lon="7.161592">
      </trkpt>
      <trkpt lat="50.728891" lon="7.162464">
      </trkpt>
      <trkpt lat="50.729483" lon="7.163188">
      </trkpt>
      <trkpt lat="50.729819" lon="7.163864">
      </trkpt>
      <trkpt lat="50.730696" lon="7.164587">
      </trkpt>
      <trkpt lat="50.731255" lon="7.165267">
      </trkpt>
      <trkpt lat="50.731914" lon="7.165872">
      </trkpt>
      <trkpt lat="50.732356" lon="7.166841">
      </trkpt>
      <trkpt lat="50.732569" lon="7.167865">
      </trkpt>
      <trkpt lat="50.732435" lon="7.169262">
      </trkpt>
      <trkpt lat="50.732466" lon="7.17013">
      </trkpt>
      <trkpt lat="50.732467" lon="7.17208">
      </trkpt>
      <trkpt lat="50.732455" lon="7.173337">
      </trkpt>
      <trkpt lat="50.732239" lon="7.17639">
      </trkpt>
      <trkpt lat="50.732277" lon="7.177322">
      </trkpt>
      <trkpt lat="50.732793" lon="7.179105">
      </trkpt>
      <trkpt lat="50.732984" lon="7.180125">
      </trkpt>
      <trkpt lat="50.73407" lon="7.180475">
      </trkpt>
      <trkpt lat="50.733898" lon="7.181294">
      </trkpt>
      <trkpt lat="50.733657" lon="7.182354">
      </trkpt>
      <trkpt lat="50.733494" lon="7.183243">
      </trkpt>
      <trkpt lat="50.733958" lon="7.183766">
      </trkpt>
      <trkpt lat="50.734834" lon="7.183723">
      </trkpt>
      <trkpt lat="50.73543" lon="7.184201">
      </trkpt>
      <trkpt lat="50.736677" lon="7.185333">
      </trkpt>
      <trkpt lat="50.73666" lon="7.186188">
      </trkpt>
      <trkpt lat="50.73691" lon="7.186952">
      </trkpt>
      <trkpt lat="50.736997" lon="7.188102">
      </trkpt>
      <trkpt lat="50.737812" lon="7.187004">
      </trkpt>
      <trkpt lat="50.738509" lon="7.187249">
      </trkpt>
      <trkpt lat="50.739094" lon="7.187367">
      </trkpt>
      <trkpt lat="50.739382" lon="7.188386">
      </trkpt>
      <trkpt lat="50.739683" lon="7.190248">
      </trkpt>
      <trkpt lat="50.739756" lon="7.1916">
      </trkpt>
      <trkpt lat="50.740302" lon="7.191537">
      </trkpt>
      <trkpt lat="50.741353" lon="7.190357">
      </trkpt>
      <trkpt lat="50.741908" lon="7.189769">
      </trkpt>
      <trkpt lat="50.742387" lon="7.189311">
      </trkpt>
      <trkpt lat="50.742707" lon="7.190691">
      </trkpt>
      <trkpt lat="50.742953" lon="7.191723">
      </trkpt>
      <trkpt lat="50.743803" lon="7.19042">
      </trkpt>
      <trkpt lat="50.744281" lon="7.189781">
      </trkpt>
      <trkpt lat="50.744606" lon="7.1905">
      </trkpt>
      <trkpt lat="50.745051" lon="7.191109">
      </trkpt>
      <trkpt lat="50.745779" lon="7.191736">
      </trkpt>
      <trkpt lat="50.746185" lon="7.19233">
      </trkpt>
      <trkpt lat="50.746696" lon="7.192768">
      </trkpt>
      <trkpt lat="50.746973" lon="7.193574">
      </trkpt>
      <trkpt lat="50.747244" lon="7.19497">
      </trkpt>
      <trkpt lat="50.746746" lon="7.197043">
      </trkpt>
      <trkpt lat="50.744353" lon="7.199588">
      </trkpt>
      <trkpt lat="50.745569" lon="7.201448">
      </trkpt>
      <trkpt lat="50.746454" lon="7.202146">
      </trkpt>
      <trkpt lat="50.746493" lon="7.204103">
      </trkpt>
      <trkpt lat="50.747342" lon="7.205732">
      </trkpt>
      <trkpt lat="50.747871" lon="7.206212">
      </trkpt>
      <trkpt lat="50.748165" lon="7.207009">
      </trkpt>
      <trkpt lat="50.748282" lon="7.207928">
      </trkpt>
      <trkpt lat="50.748765" lon="7.208823">
      </trkpt>
      <trkpt lat="50.749579" lon="7.210278">
      </trkpt>
      <trkpt lat="50.750047" lon="7.211361">
      </trkpt>
      <trkpt lat="50.751301" lon="7.210688">
      </trkpt>
      <trkpt lat="50.751891" lon="7.210159">
      </trkpt>
      <trkpt lat="50.752349" lon="7.209704">
      </trkpt>
      <trkpt lat="50.753098" lon="7.207421">
      </trkpt>
      <trkpt lat="50.753606" lon="7.205941">
      </trkpt>
      <trkpt lat="50.753821" lon="7.204881">
      </trkpt>
      <trkpt lat="50.753887" lon="7.203941">
      </trkpt>
      <trkpt lat="50.754282" lon="7.202067">
      </trkpt>
      <trkpt lat="50.754746" lon="7.201596">
      </trkpt>
      <trkpt lat="50.755122" lon="7.200981">
      </trkpt>
      <trkpt lat="50.755059" lon="7.200126">
      </trkpt>
      <trkpt lat="50.755797" lon="7.200619">
      </trkpt>
      <trkpt lat="50.755821" lon="7.199641">
      </trkpt>
      <trkpt lat="50.755503" lon="7.198039">
      </trkpt>
      <trkpt lat="50.755333" lon="7.196986">
      </trkpt>
      <trkpt lat="50.755026" lon="7.195719">
      </trkpt>
      <trkpt lat="50.755415" lon="7.195095">
      </trkpt>
      <trkpt lat="50.756602" lon="7.194746">
      </trkpt>
      <trkpt lat="50.756996" lon="7.195562">
      </trkpt>
      <trkpt lat="50.757318" lon="7.196256">
      </trkpt>
      <trkpt lat="50.75809" lon="7.196104">
      </trkpt>
      <trkpt lat="50.75898" lon="7.196184">
      </trkpt>
      <trkpt lat="50.759727" lon="7.196373">
      </trkpt>
      <trkpt lat="50.760268" lon="7.195913">
      </trkpt>
      <trkpt lat="50.760192" lon="7.194777">
      </trkpt>
      <trkpt lat="50.760758" lon="7.194222">
      </trkpt>
      <trkpt lat="50.76139" lon="7.194292">
      </trkpt>
      <trkpt lat="50.761921" lon="7.194122">
      </trkpt>
      <trkpt lat="50.763116" lon="7.194543">
      </trkpt>
      <trkpt lat="50.762792" lon="7.192514">
      </trkpt>
      <trkpt lat="50.762657" lon="7.191667">
      </trkpt>
      <trkpt lat="50.762122" lon="7.190591">
      </trkpt>
      <trkpt lat="50.761805" lon="7.189732">
      </trkpt>
      <trkpt lat="50.761673" lon="7.188852">
      </trkpt>
      <trkpt lat="50.76122" lon="7.188308">
      </trkpt>
      <trkpt lat="50.761476" lon="7.187201">
      </trkpt>
      <trkpt lat="50.76176" lon="7.18599">
      </trkpt>
      <trkpt lat="50.762293" lon="7.18547">
      </trkpt>
      <trkpt lat="50.763064" lon="7.184873">
      </trkpt>
      <trkpt lat="50.763568" lon="7.184533">
      </trkpt>
      <trkpt lat="50.763648" lon="7.18363">
      </trkpt>
      <trkpt lat="50.764043" lon="7.182824">
      </trkpt>
      <trkpt lat="50.765129" lon="7.181259">
      </trkpt>
      <trkpt lat="50.765912" lon="7.180298">
      </trkpt>
      <trkpt lat="50.766818" lon="7.180014">
      </trkpt>
      <trkpt lat="50.767374" lon="7.179422">
      </trkpt>
      <trkpt lat="50.767767" lon="7.17874">
      </trkpt>
      <trkpt lat="50.768248" lon="7.17941">
      </trkpt>
      <trkpt lat="50.768947" lon="7.180181">
      </trkpt>
      <trkpt lat="50.769728" lon="7.181317">
      </trkpt>
      <trkpt lat="50.77015" lon="7.180765">
      </trkpt>
      <trkpt lat="50.770883" lon="7.17947">
      </trkpt>
      <trkpt lat="50.771952" lon="7.177359">
      </trkpt>
      <trkpt lat="50.773114" lon="7.175671">
      </trkpt>
      <trkpt lat="50.773758" lon="7.174731">
      </trkpt>
      <trkpt lat="50.774124" lon="7.174086">
      </trkpt>
      <trkpt lat="50.774395" lon="7.173299">
      </trkpt>
      <trkpt lat="50.774757" lon="7.172664">
      </trkpt>
      <trkpt lat="50.775329" lon="7.172498">
      </trkpt>
      <trkpt lat="50.776754" lon="7.172384">
      </trkpt>
      <trkpt lat="50.777317" lon="7.172756">
      </trkpt>
      <trkpt lat="50.77759" lon="7.17359">
      </trkpt>
      <trkpt lat="50.778351" lon="7.174552">
      </trkpt>
      <trkpt lat="50.778721" lon="7.175251">
      </trkpt>
      <trkpt lat="50.778985" lon="7.176066">
      </trkpt>
      <trkpt lat="50.77951" lon="7.17744">
      </trkpt>
      <trkpt lat="50.780211" lon="7.178968">
      </trkpt>
      <trkpt lat="50.783106" lon="7.179636">
      </trkpt>
      <trkpt lat="50.783093" lon="7.178653">
      </trkpt>
      <trkpt lat="50.78282" lon="7.176522">
      </trkpt>
      <trkpt lat="50.78263" lon="7.175039">
      </trkpt>
      <trkpt lat="50.784308" lon="7.175411">
      </trkpt>
      <trkpt lat="50.785843" lon="7.175269">
      </trkpt>
      <trkpt lat="50.786307" lon="7.174618">
      </trkpt>
      <trkpt lat="50.78644" lon="7.173704">
      </trkpt>
      <trkpt lat="50.787691" lon="7.173819">
      </trkpt>
      <trkpt lat="50.788084" lon="7.171907">
      </trkpt>
      <trkpt lat="50.789167" lon="7.171519">
      </trkpt>
      <trkpt lat="50.789669" lon="7.170832">
      </trkpt>
      <trkpt lat="50.790193" lon="7.170239">
      </trkpt>
      <trkpt lat="50.790869" lon="7.170058">
      </trkpt>
      <trkpt lat="50.791496" lon="7.169674">
      </trkpt>
      <trkpt lat="50.792213" lon="7.169281">
      </trkpt>
      <trkpt lat="50.792564" lon="7.168315">
      </trkpt>
      <trkpt lat="50.792711" lon="7.167133">
      </trkpt>
      <trkpt lat="50.79289" lon="7.165654">
      </trkpt>
      <trkpt lat="50.793521" lon="7.1657">
      </trkpt>
      <trkpt lat="50.794179" lon="7.165953">
      </trkpt>
      <trkpt lat="50.794762" lon="7.166131">
      </trkpt>
      <trkpt lat="50.796232" lon="7.166412">
      </trkpt>
      <trkpt lat="50.798915" lon="7.166596">
      </trkpt>
      <trkpt lat="50.79925" lon="7.167415">
      </trkpt>
      <trkpt lat="50.799129" lon="7.1661">
      </trkpt>
      <trkpt lat="50.798912" lon="7.164578">
      </trkpt>
      <trkpt lat="50.798731" lon="7.163662">
      </trkpt>
      <trkpt lat="50.798377" lon="7.161239">
      </trkpt>
      <trkpt lat="50.798249" lon="7.159371">
      </trkpt>
      <trkpt lat="50.798277" lon="7.158062">
      </trkpt>
      <trkpt lat="50.79854" lon="7.157101">
      </trkpt>
      <trkpt lat="50.799256" lon="7.15696">
      </trkpt>
      <trkpt lat="50.798561" lon="7.157156">
      </trkpt>
      <trkpt lat="50.798341" lon="7.156224">
      </trkpt>
      <trkpt lat="50.798374" lon="7.15464">
      </trkpt>
      <trkpt lat="50.797566" lon="7.150513">
      </trkpt>
      <trkpt lat="50.797196" lon="7.149555">
      </trkpt>
      <trkpt lat="50.796982" lon="7.148505">
      </trkpt>
      <trkpt lat="50.796854" lon="7.147361">
      </trkpt>
      <trkpt lat="50.796183" lon="7.145385">
      </trkpt>
      <trkpt lat="50.79605" lon="7.144317">
      </trkpt>
      <trkpt lat="50.796112" lon="7.142999">
      </trkpt>
      <trkpt lat="50.795887" lon="7.141926">
      </trkpt>
      <trkpt lat="50.795185" lon="7.140502">
      </trkpt>
      <trkpt lat="50.794659" lon="7.139597">
      </trkpt>
      <trkpt lat="50.793882" lon="7.138726">
      </trkpt>
      <trkpt lat="50.79326" lon="7.138564">
      </trkpt>
      <trkpt lat="50.792381" lon="7.138478">
      </trkpt>
      <trkpt lat="50.791435" lon="7.138278">
      </trkpt>
      <trkpt lat="50.790913" lon="7.137772">
      </trkpt>
      <trkpt lat="50.790462" lon="7.136851">
      </trkpt>
      <trkpt lat="50.789195" lon="7.134539">
      </trkpt>
      <trkpt lat="50.788375" lon="7.133027">
      </trkpt>
      <trkpt lat="50.788231" lon="7.131776">
      </trkpt>
      <trkpt lat="50.788266" lon="7.130266">
      </trkpt>
      <trkpt lat="50.788043" lon="7.128908">
      </trkpt>
      <trkpt lat="50.787667" lon="7.127499">
      </trkpt>
      <trkpt lat="50.786456" lon="7.125603">
      </trkpt>
      <trkpt lat="50.786036" lon="7.124868">
      </trkpt>
      <trkpt lat="50.785165" lon="7.124138">
      </trkpt>
      <trkpt lat="50.786285" lon="7.122588">
      </trkpt>
      <trkpt lat="50.787461" lon="7.12077">
      </trkpt>
      <trkpt lat="50.787436" lon="7.119824">
      </trkpt>
      <trkpt lat="50.786434" lon="7.119788">
      </trkpt>
      <trkpt lat="50.78441" lon="7.119093">
      </trkpt>
      <trkpt lat="50.783813" lon="7.118789">
      </trkpt>
      <trkpt lat="50.782165" lon="7.117169">
      </trkpt>
      <trkpt lat="50.781676" lon="7.1166">
      </trkpt>
      <trkpt lat="50.781173" lon="7.11603">
      </trkpt>
      <trkpt lat="50.780443" lon="7.115424">
      </trkpt>
      <trkpt lat="50.780449" lon="7.114407">
      </trkpt>
      <trkpt lat="50.780505" lon="7.112233">
      </trkpt>
      <trkpt lat="50.779081" lon="7.111291">
      </trkpt>
      <trkpt lat="50.778132" lon="7.11067">
      </trkpt>
      <trkpt lat="50.776581" lon="7.110563">
      </trkpt>
      <trkpt lat="50.775823" lon="7.10951">
      </trkpt>
      <trkpt lat="50.774442" lon="7.107577">
      </trkpt>
      <trkpt lat="50.773682" lon="7.106569">
      </trkpt>
      <trkpt lat="50.773302" lon="7.105626">
      </trkpt>
      <trkpt lat="50.773324" lon="7.104497">
      </trkpt>
      <trkpt lat="50.773334" lon="7.103415">
      </trkpt>
      <trkpt lat="50.772762" lon="7.103552">
      </trkpt>
      <trkpt lat="50.77165" lon="7.103252">
      </trkpt>
      <trkpt lat="50.770931" lon="7.103098">
      </trkpt>
      <trkpt lat="50.770336" lon="7.103024">
      </trkpt>
      <trkpt lat="50.769778" lon="7.103175">
      </trkpt>
      <trkpt lat="50.767586" lon="7.104484">
      </trkpt>
      <trkpt lat="50.766711" lon="7.10571">
      </trkpt>
      <trkpt lat="50.765901" lon="7.107332">
      </trkpt>
      <trkpt lat="50.765545" lon="7.107973">
      </trkpt>
      <trkpt lat="50.765044" lon="7.108875">
      </trkpt>
      <trkpt lat="50.764237" lon="7.110204">
      </trkpt>
      <trkpt lat="50.763459" lon="7.11137">
      </trkpt>
      <trkpt lat="50.762256" lon="7.112919">
      </trkpt>
      <trkpt lat="50.761441" lon="7.113823">
      </trkpt>
      <trkpt lat="50.760774" lon="7.114504">
      </trkpt>
      <trkpt lat="50.760201" lon="7.114562">
      </trkpt>
      <trkpt lat="50.759759" lon="7.112447">
      </trkpt>
      <trkpt lat="50.759741" lon="7.111463">
      </trkpt>
      <trkpt lat="50.759969" lon="7.11031">
      </trkpt>
      <trkpt lat="50.759308" lon="7.109872">
      </trkpt>
      <trkpt lat="50.757594" lon="7.108998">
      </trkpt>
      <trkpt lat="50.757021" lon="7.108379">
      </trkpt>
      <trkpt lat="50.756289" lon="7.106742">
      </trkpt>
      <trkpt lat="50.755604" lon="7.107117">
      </trkpt>
      <trkpt lat="50.75448" lon="7.109262">
      </trkpt>
      <trkpt lat="50.754006" lon="7.110195">
      </trkpt>
      <trkpt lat="50.753592" lon="7.110784">
      </trkpt>
      <trkpt lat="50.752769" lon="7.110244">
      </trkpt>
      <trkpt lat="50.752075" lon="7.110113">
      </trkpt>
      <trkpt lat="50.751163" lon="7.110648">
      </trkpt>
      <trkpt lat="50.749635" lon="7.111867">
      </trkpt>
      <trkpt lat="50.748463" lon="7.112744">
      </trkpt>
      <trkpt lat="50.747951" lon="7.113169">
      </trkpt>
      <trkpt lat="50.747324" lon="7.113644">
      </trkpt>
      <trkpt lat="50.746705" lon="7.114088">
      </trkpt>
      <trkpt lat="50.745998" lon="7.114403">
      </trkpt>
      <trkpt lat="50.745193" lon="7.114292">
      </trkpt>
      <trkpt lat="50.745108" lon="7.11303">
      </trkpt>
      <trkpt lat="50.743689" lon="7.113046">
      </trkpt>
      <trkpt lat="50.742358" lon="7.113233">
      </trkpt>
      <trkpt lat="50.741867" lon="7.1126">
      </trkpt>
      <trkpt lat="50.741084" lon="7.112901">
      </trkpt>
      <trkpt lat="50.740466" lon="7.113008">
      </trkpt>
      <trkpt lat="50.739778" lon="7.112939">
      </trkpt>
      <trkpt lat="50.738815" lon="7.113125">
      </trkpt>
      <trkpt lat="50.7379" lon="7.11339">
      </trkpt>
      <trkpt lat="50.73689" lon="7.113659">
      </trkpt>
    </trkseg>
  </trk>
</gpx>