<?xml version="1.0" encoding="UTF-8"?>
<gpx xmlns="http://www.topografix.com/GPX/1/1" xmlns:xsi="http://www.w3.org/2001/XMLSchema-instance" xsi:schemaLocation="http://www.topografix.com/GPX/1/1 http://www.topografix.com/GPX/1/1/gpx.xsd" version="1.1" creator="gpx.py -- https://github.com/tkrajina/gpxpy">
  <metadata>
    <name>019</name>
  </metadata>
  <trk>
    <name>019</name>
    <trkseg>
      <trkpt lat="50.734134" lon="7.104269">
      </trkpt>
      <trkpt lat="50.734714" lon="7.104128">
      </trkpt>
      <trkpt lat="50.735244" lon="7.10382">
      </trkpt>
      <trkpt lat="50.735681" lon="7.104889">
      </trkpt>
      <trkpt lat="50.736251" lon="7.104704">
      </trkpt>
      <trkpt lat="50.736801" lon="7.10427">
      </trkpt>
      <trkpt lat="50.737374" lon="7.103767">
      </trkpt>
      <trkpt lat="50.738116" lon="7.103103">
      </trkpt>
      <trkpt lat="50.73879" lon="7.102651">
      </trkpt>
      <trkpt lat="50.739312" lon="7.10227">
      </trkpt>
      <trkpt lat="50.739905" lon="7.101925">
      </trkpt>
      <trkpt lat="50.739617" lon="7.100365">
      </trkpt>
      <trkpt lat="50.740113" lon="7.099292">
      </trkpt>
      <trkpt lat="50.740665" lon="7.098753">
      </trkpt>
      <trkpt lat="50.741199" lon="7.098194">
      </trkpt>
      <trkpt lat="50.741561" lon="7.097342">
      </trkpt>
      <trkpt lat="50.74184" lon="7.096424">
      </trkpt>
      <trkpt lat="50.742091" lon="7.095344">
      </trkpt>
      <trkpt lat="50.742618" lon="7.093377">
      </trkpt>
      <trkpt lat="50.743035" lon="7.091935">
      </trkpt>
      <trkpt lat="50.743544" lon="7.090247">
      </trkpt>
      <trkpt lat="50.743906" lon="7.08939">
      </trkpt>
      <trkpt lat="50.744331" lon="7.088129">
      </trkpt>
      <trkpt lat="50.744736" lon="7.087267">
      </trkpt>
      <trkpt lat="50.745297" lon="7.086977">
      </trkpt>
      <trkpt lat="50.746021" lon="7.087408">
      </trkpt>
      <trkpt lat="50.747033" lon="7.087709">
      </trkpt>
      <trkpt lat="50.748345" lon="7.087328">
      </trkpt>
      <trkpt lat="50.749857" lon="7.086907">
      </trkpt>
      <trkpt lat="50.751036" lon="7.086782">
      </trkpt>
      <trkpt lat="50.751797" lon="7.086465">
      </trkpt>
      <trkpt lat="50.752641" lon="7.08577">
      </trkpt>
      <trkpt lat="50.753042" lon="7.085161">
      </trkpt>
      <trkpt lat="50.754043" lon="7.084684">
      </trkpt>
      <trkpt lat="50.754528" lon="7.084312">
      </trkpt>
      <trkpt lat="50.755391" lon="7.084222">
      </trkpt>
      <trkpt lat="50.756453" lon="7.082766">
      </trkpt>
      <trkpt lat="50.757031" lon="7.082095">
      </trkpt>
      <trkpt lat="50.757584" lon="7.082235">
      </trkpt>
      <trkpt lat="50.758042" lon="7.081246">
      </trkpt>
      <trkpt lat="50.758655" lon="7.080946">
      </trkpt>
      <trkpt lat="50.759401" lon="7.080019">
      </trkpt>
      <trkpt lat="50.759975" lon="7.079462">
      </trkpt>
      <trkpt lat="50.760828" lon="7.07812">
      </trkpt>
      <trkpt lat="50.761218" lon="7.078755">
      </trkpt>
      <trkpt lat="50.761247" lon="7.079852">
      </trkpt>
      <trkpt lat="50.76133" lon="7.081013">
      </trkpt>
      <trkpt lat="50.761867" lon="7.080804">
      </trkpt>
      <trkpt lat="50.761559" lon="7.079846">
      </trkpt>
      <trkpt lat="50.761364" lon="7.077484">
      </trkpt>
      <trkpt lat="50.761317" lon="7.075343">
      </trkpt>
      <trkpt lat="50.76145" lon="7.07436">
      </trkpt>
      <trkpt lat="50.76158" lon="7.07316">
      </trkpt>
      <trkpt lat="50.761973" lon="7.072025">
      </trkpt>
      <trkpt lat="50.762349" lon="7.070943">
      </trkpt>
      <trkpt lat="50.762531" lon="7.07004">
      </trkpt>
      <trkpt lat="50.762595" lon="7.069022">
      </trkpt>
      <trkpt lat="50.762331" lon="7.067448">
      </trkpt>
      <trkpt lat="50.762104" lon="7.065785">
      </trkpt>
      <trkpt lat="50.761825" lon="7.063347">
      </trkpt>
      <trkpt lat="50.761731" lon="7.058516">
      </trkpt>
      <trkpt lat="50.761385" lon="7.057762">
      </trkpt>
      <trkpt lat="50.760419" lon="7.056211">
      </trkpt>
      <trkpt lat="50.759761" lon="7.055143">
      </trkpt>
      <trkpt lat="50.760285" lon="7.053764">
      </trkpt>
      <trkpt lat="50.760742" lon="7.053052">
      </trkpt>
      <trkpt lat="50.761413" lon="7.052007">
      </trkpt>
      <trkpt lat="50.761853" lon="7.052642">
      </trkpt>
      <trkpt lat="50.76232" lon="7.051755">
      </trkpt>
      <trkpt lat="50.76258" lon="7.050735">
      </trkpt>
      <trkpt lat="50.762307" lon="7.04993">
      </trkpt>
      <trkpt lat="50.761928" lon="7.049157">
      </trkpt>
      <trkpt lat="50.761309" lon="7.048794">
      </trkpt>
      <trkpt lat="50.760824" lon="7.048372">
      </trkpt>
      <trkpt lat="50.760994" lon="7.047556">
      </trkpt>
      <trkpt lat="50.761358" lon="7.046159">
      </trkpt>
      <trkpt lat="50.761738" lon="7.044684">
      </trkpt>
      <trkpt lat="50.759992" lon="7.042426">
      </trkpt>
      <trkpt lat="50.759304" lon="7.041537">
      </trkpt>
      <trkpt lat="50.760312" lon="7.039838">
      </trkpt>
      <trkpt lat="50.761555" lon="7.0373">
      </trkpt>
      <trkpt lat="50.761921" lon="7.037944">
      </trkpt>
      <trkpt lat="50.764087" lon="7.035149">
      </trkpt>
      <trkpt lat="50.765381" lon="7.033497">
      </trkpt>
      <trkpt lat="50.766477" lon="7.034996">
      </trkpt>
      <trkpt lat="50.767252" lon="7.03627">
      </trkpt>
      <trkpt lat="50.767897" lon="7.035854">
      </trkpt>
      <trkpt lat="50.768981" lon="7.034458">
      </trkpt>
      <trkpt lat="50.769761" lon="7.033643">
      </trkpt>
      <trkpt lat="50.770635" lon="7.032743">
      </trkpt>
      <trkpt lat="50.77113" lon="7.032234">
      </trkpt>
      <trkpt lat="50.773358" lon="7.029934">
      </trkpt>
      <trkpt lat="50.77411" lon="7.029158">
      </trkpt>
      <trkpt lat="50.775503" lon="7.027735">
      </trkpt>
      <trkpt lat="50.776856" lon="7.026405">
      </trkpt>
      <trkpt lat="50.778364" lon="7.024885">
      </trkpt>
      <trkpt lat="50.779968" lon="7.023325">
      </trkpt>
      <trkpt lat="50.777905" lon="7.018391">
      </trkpt>
      <trkpt lat="50.779023" lon="7.017373">
      </trkpt>
      <trkpt lat="50.779262" lon="7.016534">
      </trkpt>
      <trkpt lat="50.779818" lon="7.015908">
      </trkpt>
      <trkpt lat="50.78033" lon="7.015488">
      </trkpt>
      <trkpt lat="50.780218" lon="7.014084">
      </trkpt>
      <trkpt lat="50.779459" lon="7.011907">
      </trkpt>
      <trkpt lat="50.781579" lon="7.009956">
      </trkpt>
      <trkpt lat="50.783136" lon="7.009321">
      </trkpt>
      <trkpt lat="50.784273" lon="7.008982">
      </trkpt>
      <trkpt lat="50.785589" lon="7.008307">
      </trkpt>
      <trkpt lat="50.785042" lon="7.00702">
      </trkpt>
      <trkpt lat="50.784713" lon="7.006247">
      </trkpt>
      <trkpt lat="50.783981" lon="7.005708">
      </trkpt>
      <trkpt lat="50.781632" lon="7.005652">
      </trkpt>
      <trkpt lat="50.780662" lon="7.005579">
      </trkpt>
      <trkpt lat="50.779643" lon="7.005543">
      </trkpt>
      <trkpt lat="50.77887" lon="7.0052">
      </trkpt>
      <trkpt lat="50.778849" lon="7.003846">
      </trkpt>
      <trkpt lat="50.779106" lon="7.002435">
      </trkpt>
      <trkpt lat="50.779258" lon="7.001226">
      </trkpt>
      <trkpt lat="50.777727" lon="7.001302">
      </trkpt>
      <trkpt lat="50.777015" lon="7.001603">
      </trkpt>
      <trkpt lat="50.776597" lon="6.999517">
      </trkpt>
      <trkpt lat="50.776402" lon="6.998543">
      </trkpt>
      <trkpt lat="50.775702" lon="6.99695">
      </trkpt>
      <trkpt lat="50.776572" lon="6.9959">
      </trkpt>
      <trkpt lat="50.777126" lon="6.995146">
      </trkpt>
      <trkpt lat="50.77645" lon="6.994922">
      </trkpt>
      <trkpt lat="50.776938" lon="6.994557">
      </trkpt>
      <trkpt lat="50.777547" lon="6.99344">
      </trkpt>
      <trkpt lat="50.777874" lon="6.992487">
      </trkpt>
      <trkpt lat="50.777201" lon="6.991907">
      </trkpt>
      <trkpt lat="50.776355" lon="6.991266">
      </trkpt>
      <trkpt lat="50.773855" lon="6.99119">
      </trkpt>
      <trkpt lat="50.773136" lon="6.991295">
      </trkpt>
      <trkpt lat="50.772401" lon="6.991483">
      </trkpt>
      <trkpt lat="50.771333" lon="6.991613">
      </trkpt>
      <trkpt lat="50.771888" lon="6.991077">
      </trkpt>
      <trkpt lat="50.774851" lon="6.987144">
      </trkpt>
      <trkpt lat="50.77327" lon="6.983932">
      </trkpt>
      <trkpt lat="50.772504" lon="6.984683">
      </trkpt>
      <trkpt lat="50.773202" lon="6.983724">
      </trkpt>
      <trkpt lat="50.77388" lon="6.982821">
      </trkpt>
      <trkpt lat="50.774368" lon="6.982141">
      </trkpt>
      <trkpt lat="50.773277" lon="6.980642">
      </trkpt>
      <trkpt lat="50.771886" lon="6.978732">
      </trkpt>
      <trkpt lat="50.771167" lon="6.975902">
      </trkpt>
      <trkpt lat="50.770725" lon="6.974797">
      </trkpt>
      <trkpt lat="50.770945" lon="6.972836">
      </trkpt>
      <trkpt lat="50.768554" lon="6.972043">
      </trkpt>
      <trkpt lat="50.766262" lon="6.971255">
      </trkpt>
      <trkpt lat="50.764756" lon="6.970736">
      </trkpt>
      <trkpt lat="50.764958" lon="6.969051">
      </trkpt>
      <trkpt lat="50.76445" lon="6.970588">
      </trkpt>
      <trkpt lat="50.76431" lon="6.971855">
      </trkpt>
      <trkpt lat="50.762648" lon="6.970591">
      </trkpt>
      <trkpt lat="50.762784" lon="6.967591">
      </trkpt>
      <trkpt lat="50.762929" lon="6.966039">
      </trkpt>
      <trkpt lat="50.763097" lon="6.964293">
      </trkpt>
      <trkpt lat="50.762532" lon="6.964044">
      </trkpt>
      <trkpt lat="50.762042" lon="6.963628">
      </trkpt>
      <trkpt lat="50.761342" lon="6.963111">
      </trkpt>
      <trkpt lat="50.76161" lon="6.962217">
      </trkpt>
      <trkpt lat="50.762148" lon="6.961456">
      </trkpt>
      <trkpt lat="50.76085" lon="6.960921">
      </trkpt>
      <trkpt lat="50.760185" lon="6.960646">
      </trkpt>
      <trkpt lat="50.760306" lon="6.95979">
      </trkpt>
      <trkpt lat="50.759799" lon="6.959156">
      </trkpt>
      <trkpt lat="50.759229" lon="6.958916">
      </trkpt>
      <trkpt lat="50.758577" lon="6.958558">
      </trkpt>
      <trkpt lat="50.757828" lon="6.95806">
      </trkpt>
      <trkpt lat="50.757313" lon="6.957611">
      </trkpt>
      <trkpt lat="50.756824" lon="6.957003">
      </trkpt>
      <trkpt lat="50.756252" lon="6.956549">
      </trkpt>
      <trkpt lat="50.755246" lon="6.955429">
      </trkpt>
      <trkpt lat="50.754793" lon="6.954771">
      </trkpt>
      <trkpt lat="50.754286" lon="6.954231">
      </trkpt>
      <trkpt lat="50.753833" lon="6.953686">
      </trkpt>
      <trkpt lat="50.752829" lon="6.953073">
      </trkpt>
      <trkpt lat="50.751699" lon="6.95236">
      </trkpt>
      <trkpt lat="50.749428" lon="6.95031">
      </trkpt>
      <trkpt lat="50.74709" lon="6.948194">
      </trkpt>
      <trkpt lat="50.746648" lon="6.949802">
      </trkpt>
      <trkpt lat="50.746309" lon="6.951033">
      </trkpt>
      <trkpt lat="50.743236" lon="6.948667">
      </trkpt>
      <trkpt lat="50.742925" lon="6.950087">
      </trkpt>
      <trkpt lat="50.742706" lon="6.951112">
      </trkpt>
      <trkpt lat="50.741802" lon="6.954538">
      </trkpt>
      <trkpt lat="50.741467" lon="6.955785">
      </trkpt>
      <trkpt lat="50.740993" lon="6.95649">
      </trkpt>
      <trkpt lat="50.740365" lon="6.958498">
      </trkpt>
      <trkpt lat="50.740219" lon="6.961409">
      </trkpt>
      <trkpt lat="50.740158" lon="6.96269">
      </trkpt>
      <trkpt lat="50.73919" lon="6.96342">
      </trkpt>
      <trkpt lat="50.738753" lon="6.965116">
      </trkpt>
      <trkpt lat="50.738526" lon="6.966105">
      </trkpt>
      <trkpt lat="50.736965" lon="6.963982">
      </trkpt>
      <trkpt lat="50.735382" lon="6.961829">
      </trkpt>
      <trkpt lat="50.735745" lon="6.960262">
      </trkpt>
      <trkpt lat="50.735888" lon="6.957347">
      </trkpt>
      <trkpt lat="50.736664" lon="6.953962">
      </trkpt>
      <trkpt lat="50.733866" lon="6.952596">
      </trkpt>
      <trkpt lat="50.730658" lon="6.956905">
      </trkpt>
      <trkpt lat="50.730288" lon="6.957679">
      </trkpt>
      <trkpt lat="50.728445" lon="6.96153">
      </trkpt>
      <trkpt lat="50.728137" lon="6.96229">
      </trkpt>
      <trkpt lat="50.727943" lon="6.963183">
      </trkpt>
      <trkpt lat="50.727431" lon="6.964581">
      </trkpt>
      <trkpt lat="50.727266" lon="6.965428">
      </trkpt>
      <trkpt lat="50.727854" lon="6.966268">
      </trkpt>
      <trkpt lat="50.728632" lon="6.96696">
      </trkpt>
      <trkpt lat="50.729062" lon="6.96752">
      </trkpt>
      <trkpt lat="50.729647" lon="6.968313">
      </trkpt>
      <trkpt lat="50.730053" lon="6.968973">
      </trkpt>
      <trkpt lat="50.730528" lon="6.969673">
      </trkpt>
      <trkpt lat="50.730068" lon="6.970828">
      </trkpt>
      <trkpt lat="50.729902" lon="6.971684">
      </trkpt>
      <trkpt lat="50.729313" lon="6.971361">
      </trkpt>
      <trkpt lat="50.728583" lon="6.971338">
      </trkpt>
      <trkpt lat="50.727748" lon="6.971553">
      </trkpt>
      <trkpt lat="50.727094" lon="6.971813">
      </trkpt>
      <trkpt lat="50.725994" lon="6.972299">
      </trkpt>
      <trkpt lat="50.725956" lon="6.973473">
      </trkpt>
      <trkpt lat="50.726374" lon="6.974342">
      </trkpt>
      <trkpt lat="50.727543" lon="6.976206">
      </trkpt>
      <trkpt lat="50.728333" lon="6.977754">
      </trkpt>
      <trkpt lat="50.729249" lon="6.979022">
      </trkpt>
      <trkpt lat="50.730331" lon="6.980151">
      </trkpt>
      <trkpt lat="50.731446" lon="6.981011">
      </trkpt>
      <trkpt lat="50.73124" lon="6.981872">
      </trkpt>
      <trkpt lat="50.73053" lon="6.983263">
      </trkpt>
      <trkpt lat="50.730129" lon="6.983959">
      </trkpt>
      <trkpt lat="50.729849" lon="6.984987">
      </trkpt>
      <trkpt lat="50.729982" lon="6.985875">
      </trkpt>
      <trkpt lat="50.730126" lon="6.986701">
      </trkpt>
      <trkpt lat="50.729342" lon="6.986851">
      </trkpt>
      <trkpt lat="50.728781" lon="6.986581">
      </trkpt>
      <trkpt lat="50.728177" lon="6.986606">
      </trkpt>
      <trkpt lat="50.727501" lon="6.986703">
      </trkpt>
      <trkpt lat="50.726941" lon="6.987076">
      </trkpt>
      <trkpt lat="50.726413" lon="6.987427">
      </trkpt>
      <trkpt lat="50.725998" lon="6.98801">
      </trkpt>
      <trkpt lat="50.725853" lon="6.98902">
      </trkpt>
      <trkpt lat="50.72623" lon="6.990122">
      </trkpt>
      <trkpt lat="50.726663" lon="6.991577">
      </trkpt>
      <trkpt lat="50.727148" lon="6.992543">
      </trkpt>
      <trkpt lat="50.727509" lon="6.993435">
      </trkpt>
      <trkpt lat="50.728245" lon="6.993901">
      </trkpt>
      <trkpt lat="50.728663" lon="6.994556">
      </trkpt>
      <trkpt lat="50.72915" lon="6.994988">
      </trkpt>
      <trkpt lat="50.72955" lon="6.995579">
      </trkpt>
      <trkpt lat="50.728948" lon="6.996043">
      </trkpt>
      <trkpt lat="50.729047" lon="6.99807">
      </trkpt>
      <trkpt lat="50.729457" lon="6.998925">
      </trkpt>
      <trkpt lat="50.729756" lon="6.999719">
      </trkpt>
      <trkpt lat="50.730309" lon="7.000497">
      </trkpt>
      <trkpt lat="50.730495" lon="7.001526">
      </trkpt>
      <trkpt lat="50.731206" lon="7.002612">
      </trkpt>
      <trkpt lat="50.731816" lon="7.003495">
      </trkpt>
      <trkpt lat="50.732353" lon="7.004668">
      </trkpt>
      <trkpt lat="50.732377" lon="7.00554">
      </trkpt>
      <trkpt lat="50.733264" lon="7.006958">
      </trkpt>
      <trkpt lat="50.732709" lon="7.008279">
      </trkpt>
      <trkpt lat="50.732521" lon="7.00965">
      </trkpt>
      <trkpt lat="50.731989" lon="7.01025">
      </trkpt>
      <trkpt lat="50.730954" lon="7.010882">
      </trkpt>
      <trkpt lat="50.730011" lon="7.010951">
      </trkpt>
      <trkpt lat="50.728948" lon="7.010598">
      </trkpt>
      <trkpt lat="50.728289" lon="7.01111">
      </trkpt>
      <trkpt lat="50.727652" lon="7.011651">
      </trkpt>
      <trkpt lat="50.727052" lon="7.011942">
      </trkpt>
      <trkpt lat="50.725935" lon="7.013255">
      </trkpt>
      <trkpt lat="50.725627" lon="7.014716">
      </trkpt>
      <trkpt lat="50.725374" lon="7.015478">
      </trkpt>
      <trkpt lat="50.724957" lon="7.016198">
      </trkpt>
      <trkpt lat="50.725437" lon="7.017437">
      </trkpt>
      <trkpt lat="50.725398" lon="7.018495">
      </trkpt>
      <trkpt lat="50.725561" lon="7.019318">
      </trkpt>
      <trkpt lat="50.72489" lon="7.019161">
      </trkpt>
      <trkpt lat="50.724719" lon="7.020008">
      </trkpt>
      <trkpt lat="50.724152" lon="7.020623">
      </trkpt>
      <trkpt lat="50.72368" lon="7.021222">
      </trkpt>
      <trkpt lat="50.723431" lon="7.021987">
      </trkpt>
      <trkpt lat="50.723565" lon="7.022954">
      </trkpt>
      <trkpt lat="50.724028" lon="7.024787">
      </trkpt>
      <trkpt lat="50.723531" lon="7.025418">
      </trkpt>
      <trkpt lat="50.723519" lon="7.02636">
      </trkpt>
      <trkpt lat="50.723692" lon="7.027537">
      </trkpt>
      <trkpt lat="50.723775" lon="7.02852">
      </trkpt>
      <trkpt lat="50.723877" lon="7.029978">
      </trkpt>
      <trkpt lat="50.724046" lon="7.032408">
      </trkpt>
      <trkpt lat="50.724807" lon="7.033201">
      </trkpt>
      <trkpt lat="50.725487" lon="7.03352">
      </trkpt>
      <trkpt lat="50.725848" lon="7.034459">
      </trkpt>
      <trkpt lat="50.726352" lon="7.035724">
      </trkpt>
      <trkpt lat="50.726608" lon="7.03668">
      </trkpt>
      <trkpt lat="50.726774" lon="7.037907">
      </trkpt>
      <trkpt lat="50.727111" lon="7.039116">
      </trkpt>
      <trkpt lat="50.727471" lon="7.040162">
      </trkpt>
      <trkpt lat="50.727768" lon="7.04144">
      </trkpt>
      <trkpt lat="50.728247" lon="7.042292">
      </trkpt>
      <trkpt lat="50.728337" lon="7.044474">
      </trkpt>
      <trkpt lat="50.728331" lon="7.045943">
      </trkpt>
      <trkpt lat="50.728929" lon="7.047182">
      </trkpt>
      <trkpt lat="50.728955" lon="7.04807">
      </trkpt>
      <trkpt lat="50.728997" lon="7.049054">
      </trkpt>
      <trkpt lat="50.728923" lon="7.051328">
      </trkpt>
      <trkpt lat="50.728956" lon="7.054797">
      </trkpt>
      <trkpt lat="50.729028" lon="7.056954">
      </trkpt>
      <trkpt lat="50.729159" lon="7.05943">
      </trkpt>
      <trkpt lat="50.729379" lon="7.060553">
      </trkpt>
      <trkpt lat="50.729542" lon="7.061641">
      </trkpt>
      <trkpt lat="50.729669" lon="7.062495">
      </trkpt>
      <trkpt lat="50.729915" lon="7.065043">
      </trkpt>
      <trkpt lat="50.730066" lon="7.066368">
      </trkpt>
      <trkpt lat="50.730217" lon="7.06764">
      </trkpt>
      <trkpt lat="50.73036" lon="7.06864">
      </trkpt>
      <trkpt lat="50.730731" lon="7.06926">
      </trkpt>
      <trkpt lat="50.731189" lon="7.070033">
      </trkpt>
      <trkpt lat="50.730797" lon="7.070643">
      </trkpt>
      <trkpt lat="50.73037" lon="7.071307">
      </trkpt>
      <trkpt lat="50.729833" lon="7.072026">
      </trkpt>
      <trkpt lat="50.729375" lon="7.072491">
      </trkpt>
      <trkpt lat="50.728899" lon="7.072972">
      </trkpt>
      <trkpt lat="50.728398" lon="7.073394">
      </trkpt>
      <trkpt lat="50.727839" lon="7.073882">
      </trkpt>
      <trkpt lat="50.727308" lon="7.074738">
      </trkpt>
      <trkpt lat="50.727056" lon="7.07554">
      </trkpt>
      <trkpt lat="50.726569" lon="7.076192">
      </trkpt>
      <trkpt lat="50.726919" lon="7.076842">
      </trkpt>
      <trkpt lat="50.727065" lon="7.077831">
      </trkpt>
      <trkpt lat="50.727187" lon="7.078748">
      </trkpt>
      <trkpt lat="50.727293" lon="7.079789">
      </trkpt>
      <trkpt lat="50.727427" lon="7.080799">
      </trkpt>
      <trkpt lat="50.727563" lon="7.081689">
      </trkpt>
      <trkpt lat="50.727602" lon="7.082938">
      </trkpt>
      <trkpt lat="50.727902" lon="7.083734">
      </trkpt>
      <trkpt lat="50.7285" lon="7.085119">
      </trkpt>
      <trkpt lat="50.728883" lon="7.08594">
      </trkpt>
      <trkpt lat="50.729266" lon="7.086775">
      </trkpt>
      <trkpt lat="50.729719" lon="7.087774">
      </trkpt>
      <trkpt lat="50.730068" lon="7.088552">
      </trkpt>
      <trkpt lat="50.730423" lon="7.089284">
      </trkpt>
      <trkpt lat="50.730823" lon="7.090094">
      </trkpt>
      <trkpt lat="50.731135" lon="7.090815">
      </trkpt>
      <trkpt lat="50.731566" lon="7.092523">
      </trkpt>
      <trkpt lat="50.731946" lon="7.094075">
      </trkpt>
    </trkseg>
  </trk>
</gpx>