<?xml version="1.0" encoding="UTF-8"?>
<gpx xmlns="http://www.topografix.com/GPX/1/1" xmlns:xsi="http://www.w3.org/2001/XMLSchema-instance" xsi:schemaLocation="http://www.topografix.com/GPX/1/1 http://www.topografix.com/GPX/1/1/gpx.xsd" version="1.1" creator="gpx.py -- https://github.com/tkrajina/gpxpy">
  <metadata>
    <name>021</name>
  </metadata>
  <trk>
    <name>021</name>
    <trkseg>
      <trkpt lat="50.73397" lon="7.104312">
      </trkpt>
      <trkpt lat="50.733422" lon="7.104426">
      </trkpt>
      <trkpt lat="50.732878" lon="7.105476">
      </trkpt>
      <trkpt lat="50.732366" lon="7.105861">
      </trkpt>
      <trkpt lat="50.731509" lon="7.105369">
      </trkpt>
      <trkpt lat="50.731133" lon="7.104666">
      </trkpt>
      <trkpt lat="50.730676" lon="7.103937">
      </trkpt>
      <trkpt lat="50.729632" lon="7.104797">
      </trkpt>
      <trkpt lat="50.729139" lon="7.10522">
      </trkpt>
      <trkpt lat="50.728831" lon="7.104197">
      </trkpt>
      <trkpt lat="50.727633" lon="7.105195">
      </trkpt>
      <trkpt lat="50.727043" lon="7.105751">
      </trkpt>
      <trkpt lat="50.726442" lon="7.105329">
      </trkpt>
      <trkpt lat="50.72577" lon="7.10578">
      </trkpt>
      <trkpt lat="50.725027" lon="7.106264">
      </trkpt>
      <trkpt lat="50.72451" lon="7.106607">
      </trkpt>
      <trkpt lat="50.72308" lon="7.106822">
      </trkpt>
      <trkpt lat="50.722255" lon="7.106849">
      </trkpt>
      <trkpt lat="50.721001" lon="7.106893">
      </trkpt>
      <trkpt lat="50.720257" lon="7.10686">
      </trkpt>
      <trkpt lat="50.719243" lon="7.107083">
      </trkpt>
      <trkpt lat="50.718686" lon="7.107188">
      </trkpt>
      <trkpt lat="50.718117" lon="7.107454">
      </trkpt>
      <trkpt lat="50.717466" lon="7.107729">
      </trkpt>
      <trkpt lat="50.716801" lon="7.107812">
      </trkpt>
      <trkpt lat="50.716685" lon="7.106802">
      </trkpt>
      <trkpt lat="50.71679" lon="7.105776">
      </trkpt>
      <trkpt lat="50.717092" lon="7.104891">
      </trkpt>
      <trkpt lat="50.716619" lon="7.104284">
      </trkpt>
      <trkpt lat="50.716447" lon="7.103026">
      </trkpt>
      <trkpt lat="50.716473" lon="7.102126">
      </trkpt>
      <trkpt lat="50.716694" lon="7.100387">
      </trkpt>
      <trkpt lat="50.716972" lon="7.099318">
      </trkpt>
      <trkpt lat="50.71726" lon="7.098373">
      </trkpt>
      <trkpt lat="50.717396" lon="7.097341">
      </trkpt>
      <trkpt lat="50.716369" lon="7.098535">
      </trkpt>
      <trkpt lat="50.715967" lon="7.099316">
      </trkpt>
      <trkpt lat="50.715494" lon="7.098687">
      </trkpt>
      <trkpt lat="50.714902" lon="7.098613">
      </trkpt>
      <trkpt lat="50.71443" lon="7.099319">
      </trkpt>
      <trkpt lat="50.713653" lon="7.09903">
      </trkpt>
      <trkpt lat="50.713121" lon="7.09835">
      </trkpt>
      <trkpt lat="50.712475" lon="7.098343">
      </trkpt>
      <trkpt lat="50.711869" lon="7.098353">
      </trkpt>
      <trkpt lat="50.711383" lon="7.098901">
      </trkpt>
      <trkpt lat="50.710869" lon="7.099897">
      </trkpt>
      <trkpt lat="50.710385" lon="7.100475">
      </trkpt>
      <trkpt lat="50.710109" lon="7.101621">
      </trkpt>
      <trkpt lat="50.709524" lon="7.101695">
      </trkpt>
      <trkpt lat="50.708922" lon="7.101898">
      </trkpt>
      <trkpt lat="50.708298" lon="7.102149">
      </trkpt>
      <trkpt lat="50.707776" lon="7.102533">
      </trkpt>
      <trkpt lat="50.707248" lon="7.102328">
      </trkpt>
      <trkpt lat="50.706557" lon="7.103434">
      </trkpt>
      <trkpt lat="50.70636" lon="7.104432">
      </trkpt>
      <trkpt lat="50.705856" lon="7.105256">
      </trkpt>
      <trkpt lat="50.705125" lon="7.105444">
      </trkpt>
      <trkpt lat="50.70451" lon="7.105384">
      </trkpt>
      <trkpt lat="50.703971" lon="7.105908">
      </trkpt>
      <trkpt lat="50.704313" lon="7.1051">
      </trkpt>
      <trkpt lat="50.703641" lon="7.104527">
      </trkpt>
      <trkpt lat="50.703018" lon="7.104459">
      </trkpt>
      <trkpt lat="50.70252" lon="7.104884">
      </trkpt>
      <trkpt lat="50.702044" lon="7.105695">
      </trkpt>
      <trkpt lat="50.701615" lon="7.10658">
      </trkpt>
      <trkpt lat="50.701241" lon="7.107247">
      </trkpt>
      <trkpt lat="50.700575" lon="7.107553">
      </trkpt>
      <trkpt lat="50.699805" lon="7.107807">
      </trkpt>
      <trkpt lat="50.699244" lon="7.107649">
      </trkpt>
      <trkpt lat="50.697851" lon="7.108188">
      </trkpt>
      <trkpt lat="50.697112" lon="7.108455">
      </trkpt>
      <trkpt lat="50.696166" lon="7.108604">
      </trkpt>
      <trkpt lat="50.694492" lon="7.107933">
      </trkpt>
      <trkpt lat="50.693813" lon="7.10733">
      </trkpt>
      <trkpt lat="50.693307" lon="7.106932">
      </trkpt>
      <trkpt lat="50.692776" lon="7.106071">
      </trkpt>
      <trkpt lat="50.692026" lon="7.106154">
      </trkpt>
      <trkpt lat="50.691027" lon="7.106757">
      </trkpt>
      <trkpt lat="50.690496" lon="7.107407">
      </trkpt>
      <trkpt lat="50.689827" lon="7.107172">
      </trkpt>
      <trkpt lat="50.689182" lon="7.107447">
      </trkpt>
      <trkpt lat="50.688501" lon="7.107274">
      </trkpt>
      <trkpt lat="50.687782" lon="7.107011">
      </trkpt>
      <trkpt lat="50.6874" lon="7.108148">
      </trkpt>
      <trkpt lat="50.686938" lon="7.1089">
      </trkpt>
      <trkpt lat="50.68611" lon="7.110248">
      </trkpt>
      <trkpt lat="50.683526" lon="7.114443">
      </trkpt>
      <trkpt lat="50.683151" lon="7.115345">
      </trkpt>
      <trkpt lat="50.682572" lon="7.115001">
      </trkpt>
      <trkpt lat="50.682128" lon="7.114356">
      </trkpt>
      <trkpt lat="50.681197" lon="7.11428">
      </trkpt>
      <trkpt lat="50.680502" lon="7.114211">
      </trkpt>
      <trkpt lat="50.679731" lon="7.114345">
      </trkpt>
      <trkpt lat="50.678985" lon="7.11457">
      </trkpt>
      <trkpt lat="50.677996" lon="7.114151">
      </trkpt>
      <trkpt lat="50.677366" lon="7.113996">
      </trkpt>
      <trkpt lat="50.676523" lon="7.113778">
      </trkpt>
      <trkpt lat="50.676525" lon="7.116115">
      </trkpt>
      <trkpt lat="50.675675" lon="7.115487">
      </trkpt>
      <trkpt lat="50.674106" lon="7.115095">
      </trkpt>
      <trkpt lat="50.673491" lon="7.114942">
      </trkpt>
      <trkpt lat="50.670997" lon="7.116083">
      </trkpt>
      <trkpt lat="50.670281" lon="7.116675">
      </trkpt>
      <trkpt lat="50.666207" lon="7.12215">
      </trkpt>
      <trkpt lat="50.665942" lon="7.12457">
      </trkpt>
      <trkpt lat="50.665847" lon="7.125524">
      </trkpt>
      <trkpt lat="50.665472" lon="7.126184">
      </trkpt>
      <trkpt lat="50.665496" lon="7.127493">
      </trkpt>
      <trkpt lat="50.665169" lon="7.128573">
      </trkpt>
      <trkpt lat="50.665778" lon="7.128614">
      </trkpt>
      <trkpt lat="50.665686" lon="7.129517">
      </trkpt>
      <trkpt lat="50.666218" lon="7.129781">
      </trkpt>
      <trkpt lat="50.666101" lon="7.130627">
      </trkpt>
      <trkpt lat="50.665518" lon="7.130733">
      </trkpt>
      <trkpt lat="50.66487" lon="7.13061">
      </trkpt>
      <trkpt lat="50.664314" lon="7.130773">
      </trkpt>
      <trkpt lat="50.664657" lon="7.131476">
      </trkpt>
      <trkpt lat="50.665064" lon="7.132456">
      </trkpt>
      <trkpt lat="50.664259" lon="7.132095">
      </trkpt>
      <trkpt lat="50.663496" lon="7.133495">
      </trkpt>
      <trkpt lat="50.663337" lon="7.134363">
      </trkpt>
      <trkpt lat="50.663828" lon="7.135441">
      </trkpt>
      <trkpt lat="50.664295" lon="7.136512">
      </trkpt>
      <trkpt lat="50.664944" lon="7.13762">
      </trkpt>
      <trkpt lat="50.665723" lon="7.138604">
      </trkpt>
      <trkpt lat="50.665966" lon="7.139612">
      </trkpt>
      <trkpt lat="50.666469" lon="7.141891">
      </trkpt>
      <trkpt lat="50.66542" lon="7.143058">
      </trkpt>
      <trkpt lat="50.664908" lon="7.143522">
      </trkpt>
      <trkpt lat="50.664646" lon="7.144713">
      </trkpt>
      <trkpt lat="50.664896" lon="7.145635">
      </trkpt>
      <trkpt lat="50.66519" lon="7.14684">
      </trkpt>
      <trkpt lat="50.665195" lon="7.147759">
      </trkpt>
      <trkpt lat="50.663858" lon="7.14696">
      </trkpt>
      <trkpt lat="50.66323" lon="7.146307">
      </trkpt>
      <trkpt lat="50.662687" lon="7.145531">
      </trkpt>
      <trkpt lat="50.662299" lon="7.144895">
      </trkpt>
      <trkpt lat="50.661976" lon="7.143891">
      </trkpt>
      <trkpt lat="50.661239" lon="7.143909">
      </trkpt>
      <trkpt lat="50.660314" lon="7.143972">
      </trkpt>
      <trkpt lat="50.657992" lon="7.142883">
      </trkpt>
      <trkpt lat="50.657501" lon="7.14237">
      </trkpt>
      <trkpt lat="50.656436" lon="7.141782">
      </trkpt>
      <trkpt lat="50.655014" lon="7.141527">
      </trkpt>
      <trkpt lat="50.654188" lon="7.141296">
      </trkpt>
      <trkpt lat="50.653646" lon="7.140941">
      </trkpt>
      <trkpt lat="50.652473" lon="7.140805">
      </trkpt>
      <trkpt lat="50.651601" lon="7.14069">
      </trkpt>
      <trkpt lat="50.650989" lon="7.140981">
      </trkpt>
      <trkpt lat="50.650037" lon="7.140964">
      </trkpt>
      <trkpt lat="50.648614" lon="7.141402">
      </trkpt>
      <trkpt lat="50.64702" lon="7.141941">
      </trkpt>
      <trkpt lat="50.645411" lon="7.14247">
      </trkpt>
      <trkpt lat="50.645908" lon="7.145008">
      </trkpt>
      <trkpt lat="50.64638" lon="7.150935">
      </trkpt>
      <trkpt lat="50.644891" lon="7.149766">
      </trkpt>
      <trkpt lat="50.64306" lon="7.149178">
      </trkpt>
      <trkpt lat="50.641626" lon="7.151931">
      </trkpt>
      <trkpt lat="50.640682" lon="7.153754">
      </trkpt>
      <trkpt lat="50.639721" lon="7.154724">
      </trkpt>
      <trkpt lat="50.639129" lon="7.154975">
      </trkpt>
      <trkpt lat="50.638893" lon="7.155869">
      </trkpt>
      <trkpt lat="50.63826" lon="7.157377">
      </trkpt>
      <trkpt lat="50.637443" lon="7.157746">
      </trkpt>
      <trkpt lat="50.636606" lon="7.158523">
      </trkpt>
      <trkpt lat="50.636144" lon="7.159036">
      </trkpt>
      <trkpt lat="50.635025" lon="7.158652">
      </trkpt>
      <trkpt lat="50.633636" lon="7.158098">
      </trkpt>
      <trkpt lat="50.632408" lon="7.157621">
      </trkpt>
      <trkpt lat="50.63128" lon="7.157219">
      </trkpt>
      <trkpt lat="50.630831" lon="7.157932">
      </trkpt>
      <trkpt lat="50.629831" lon="7.158444">
      </trkpt>
      <trkpt lat="50.629217" lon="7.15833">
      </trkpt>
      <trkpt lat="50.628586" lon="7.158535">
      </trkpt>
      <trkpt lat="50.627452" lon="7.160724">
      </trkpt>
      <trkpt lat="50.62717" lon="7.161471">
      </trkpt>
      <trkpt lat="50.626646" lon="7.162098">
      </trkpt>
      <trkpt lat="50.625483" lon="7.162642">
      </trkpt>
      <trkpt lat="50.625024" lon="7.163957">
      </trkpt>
      <trkpt lat="50.625815" lon="7.163163">
      </trkpt>
      <trkpt lat="50.626527" lon="7.162968">
      </trkpt>
      <trkpt lat="50.627225" lon="7.164193">
      </trkpt>
      <trkpt lat="50.627872" lon="7.165515">
      </trkpt>
      <trkpt lat="50.628364" lon="7.166338">
      </trkpt>
      <trkpt lat="50.627286" lon="7.167738">
      </trkpt>
      <trkpt lat="50.6263" lon="7.169532">
      </trkpt>
      <trkpt lat="50.625921" lon="7.170622">
      </trkpt>
      <trkpt lat="50.625412" lon="7.172492">
      </trkpt>
      <trkpt lat="50.62526" lon="7.173764">
      </trkpt>
      <trkpt lat="50.625937" lon="7.177396">
      </trkpt>
      <trkpt lat="50.626332" lon="7.179736">
      </trkpt>
      <trkpt lat="50.626856" lon="7.181749">
      </trkpt>
      <trkpt lat="50.627381" lon="7.184131">
      </trkpt>
      <trkpt lat="50.627083" lon="7.185619">
      </trkpt>
      <trkpt lat="50.627725" lon="7.18663">
      </trkpt>
      <trkpt lat="50.628506" lon="7.188156">
      </trkpt>
      <trkpt lat="50.628067" lon="7.188801">
      </trkpt>
      <trkpt lat="50.627523" lon="7.188597">
      </trkpt>
      <trkpt lat="50.626919" lon="7.189499">
      </trkpt>
      <trkpt lat="50.627431" lon="7.190479">
      </trkpt>
      <trkpt lat="50.628224" lon="7.19141">
      </trkpt>
      <trkpt lat="50.628695" lon="7.192357">
      </trkpt>
      <trkpt lat="50.629364" lon="7.193703">
      </trkpt>
      <trkpt lat="50.62963" lon="7.194452">
      </trkpt>
      <trkpt lat="50.629895" lon="7.195369">
      </trkpt>
      <trkpt lat="50.630487" lon="7.195391">
      </trkpt>
      <trkpt lat="50.631028" lon="7.195531">
      </trkpt>
      <trkpt lat="50.631883" lon="7.195762">
      </trkpt>
      <trkpt lat="50.6325" lon="7.196461">
      </trkpt>
      <trkpt lat="50.632823" lon="7.197778">
      </trkpt>
      <trkpt lat="50.632994" lon="7.199138">
      </trkpt>
      <trkpt lat="50.633192" lon="7.200077">
      </trkpt>
      <trkpt lat="50.633742" lon="7.201687">
      </trkpt>
      <trkpt lat="50.634487" lon="7.202955">
      </trkpt>
      <trkpt lat="50.63498" lon="7.203549">
      </trkpt>
      <trkpt lat="50.635662" lon="7.203689">
      </trkpt>
      <trkpt lat="50.636215" lon="7.203505">
      </trkpt>
      <trkpt lat="50.636848" lon="7.203282">
      </trkpt>
      <trkpt lat="50.637247" lon="7.202319">
      </trkpt>
      <trkpt lat="50.637296" lon="7.203252">
      </trkpt>
      <trkpt lat="50.637622" lon="7.204277">
      </trkpt>
      <trkpt lat="50.637887" lon="7.205062">
      </trkpt>
      <trkpt lat="50.63801" lon="7.20589">
      </trkpt>
      <trkpt lat="50.63952" lon="7.206151">
      </trkpt>
      <trkpt lat="50.640143" lon="7.206356">
      </trkpt>
      <trkpt lat="50.641099" lon="7.206442">
      </trkpt>
      <trkpt lat="50.641833" lon="7.206521">
      </trkpt>
      <trkpt lat="50.642749" lon="7.206553">
      </trkpt>
      <trkpt lat="50.644014" lon="7.206387">
      </trkpt>
      <trkpt lat="50.644663" lon="7.206445">
      </trkpt>
      <trkpt lat="50.645667" lon="7.206349">
      </trkpt>
      <trkpt lat="50.647357" lon="7.206321">
      </trkpt>
      <trkpt lat="50.648754" lon="7.206467">
      </trkpt>
      <trkpt lat="50.649295" lon="7.206457">
      </trkpt>
      <trkpt lat="50.65067" lon="7.20622">
      </trkpt>
      <trkpt lat="50.651639" lon="7.206072">
      </trkpt>
      <trkpt lat="50.652358" lon="7.205683">
      </trkpt>
      <trkpt lat="50.653578" lon="7.204527">
      </trkpt>
      <trkpt lat="50.654975" lon="7.203051">
      </trkpt>
      <trkpt lat="50.655561" lon="7.202454">
      </trkpt>
      <trkpt lat="50.657068" lon="7.201267">
      </trkpt>
      <trkpt lat="50.657612" lon="7.20073">
      </trkpt>
      <trkpt lat="50.658452" lon="7.199696">
      </trkpt>
      <trkpt lat="50.658962" lon="7.19909">
      </trkpt>
      <trkpt lat="50.660486" lon="7.197748">
      </trkpt>
      <trkpt lat="50.661274" lon="7.197041">
      </trkpt>
      <trkpt lat="50.662356" lon="7.195974">
      </trkpt>
      <trkpt lat="50.663318" lon="7.194989">
      </trkpt>
      <trkpt lat="50.664195" lon="7.194046">
      </trkpt>
      <trkpt lat="50.664679" lon="7.193569">
      </trkpt>
      <trkpt lat="50.665435" lon="7.192744">
      </trkpt>
      <trkpt lat="50.666313" lon="7.192151">
      </trkpt>
      <trkpt lat="50.666951" lon="7.191524">
      </trkpt>
      <trkpt lat="50.667567" lon="7.191139">
      </trkpt>
      <trkpt lat="50.668016" lon="7.190583">
      </trkpt>
      <trkpt lat="50.66857" lon="7.19021">
      </trkpt>
      <trkpt lat="50.669157" lon="7.189455">
      </trkpt>
      <trkpt lat="50.669691" lon="7.189021">
      </trkpt>
      <trkpt lat="50.670441" lon="7.188383">
      </trkpt>
      <trkpt lat="50.673441" lon="7.185979">
      </trkpt>
      <trkpt lat="50.677368" lon="7.182599">
      </trkpt>
      <trkpt lat="50.677982" lon="7.182027">
      </trkpt>
      <trkpt lat="50.678922" lon="7.181087">
      </trkpt>
      <trkpt lat="50.679729" lon="7.180219">
      </trkpt>
      <trkpt lat="50.680254" lon="7.179664">
      </trkpt>
      <trkpt lat="50.681225" lon="7.178726">
      </trkpt>
      <trkpt lat="50.682695" lon="7.177228">
      </trkpt>
      <trkpt lat="50.683874" lon="7.175762">
      </trkpt>
      <trkpt lat="50.684966" lon="7.174671">
      </trkpt>
      <trkpt lat="50.685663" lon="7.174115">
      </trkpt>
      <trkpt lat="50.688418" lon="7.172622">
      </trkpt>
      <trkpt lat="50.689074" lon="7.172311">
      </trkpt>
      <trkpt lat="50.689631" lon="7.172038">
      </trkpt>
      <trkpt lat="50.69025" lon="7.171733">
      </trkpt>
      <trkpt lat="50.690923" lon="7.171427">
      </trkpt>
      <trkpt lat="50.691487" lon="7.171102">
      </trkpt>
      <trkpt lat="50.692425" lon="7.170638">
      </trkpt>
      <trkpt lat="50.693219" lon="7.170225">
      </trkpt>
      <trkpt lat="50.693846" lon="7.169731">
      </trkpt>
      <trkpt lat="50.69466" lon="7.169534">
      </trkpt>
      <trkpt lat="50.696304" lon="7.169005">
      </trkpt>
      <trkpt lat="50.698153" lon="7.168176">
      </trkpt>
      <trkpt lat="50.698976" lon="7.167825">
      </trkpt>
      <trkpt lat="50.699791" lon="7.167468">
      </trkpt>
      <trkpt lat="50.700823" lon="7.166879">
      </trkpt>
      <trkpt lat="50.70167" lon="7.166327">
      </trkpt>
      <trkpt lat="50.70217" lon="7.165921">
      </trkpt>
      <trkpt lat="50.702676" lon="7.165454">
      </trkpt>
      <trkpt lat="50.703326" lon="7.16488">
      </trkpt>
      <trkpt lat="50.70409" lon="7.164194">
      </trkpt>
      <trkpt lat="50.704995" lon="7.163404">
      </trkpt>
      <trkpt lat="50.705986" lon="7.162434">
      </trkpt>
      <trkpt lat="50.706476" lon="7.161883">
      </trkpt>
      <trkpt lat="50.707754" lon="7.160382">
      </trkpt>
      <trkpt lat="50.708746" lon="7.159113">
      </trkpt>
      <trkpt lat="50.70928" lon="7.158308">
      </trkpt>
      <trkpt lat="50.710338" lon="7.156615">
      </trkpt>
      <trkpt lat="50.711708" lon="7.154154">
      </trkpt>
      <trkpt lat="50.712556" lon="7.152388">
      </trkpt>
      <trkpt lat="50.713758" lon="7.149572">
      </trkpt>
      <trkpt lat="50.714329" lon="7.148119">
      </trkpt>
      <trkpt lat="50.714717" lon="7.147349">
      </trkpt>
      <trkpt lat="50.715185" lon="7.14575">
      </trkpt>
      <trkpt lat="50.715639" lon="7.143867">
      </trkpt>
      <trkpt lat="50.715943" lon="7.142589">
      </trkpt>
      <trkpt lat="50.716194" lon="7.141491">
      </trkpt>
      <trkpt lat="50.716444" lon="7.140688">
      </trkpt>
      <trkpt lat="50.716895" lon="7.138826">
      </trkpt>
      <trkpt lat="50.717288" lon="7.137064">
      </trkpt>
      <trkpt lat="50.717621" lon="7.135722">
      </trkpt>
      <trkpt lat="50.717937" lon="7.134393">
      </trkpt>
      <trkpt lat="50.718168" lon="7.133254">
      </trkpt>
      <trkpt lat="50.718401" lon="7.132125">
      </trkpt>
      <trkpt lat="50.718676" lon="7.130738">
      </trkpt>
      <trkpt lat="50.718856" lon="7.129833">
      </trkpt>
      <trkpt lat="50.719118" lon="7.12862">
      </trkpt>
      <trkpt lat="50.719587" lon="7.126695">
      </trkpt>
      <trkpt lat="50.719859" lon="7.125743">
      </trkpt>
      <trkpt lat="50.720185" lon="7.124757">
      </trkpt>
      <trkpt lat="50.720912" lon="7.12284">
      </trkpt>
      <trkpt lat="50.721427" lon="7.121617">
      </trkpt>
      <trkpt lat="50.722446" lon="7.119719">
      </trkpt>
      <trkpt lat="50.723829" lon="7.117462">
      </trkpt>
      <trkpt lat="50.725152" lon="7.115492">
      </trkpt>
      <trkpt lat="50.725684" lon="7.11475">
      </trkpt>
      <trkpt lat="50.727075" lon="7.113114">
      </trkpt>
      <trkpt lat="50.727889" lon="7.112297">
      </trkpt>
      <trkpt lat="50.72845" lon="7.111791">
      </trkpt>
      <trkpt lat="50.729885" lon="7.110769">
      </trkpt>
      <trkpt lat="50.731859" lon="7.109381">
      </trkpt>
      <trkpt lat="50.732955" lon="7.109366">
      </trkpt>
    </trkseg>
  </trk>
</gpx>