<?xml version="1.0" encoding="UTF-8"?>
<gpx xmlns="http://www.topografix.com/GPX/1/1" xmlns:xsi="http://www.w3.org/2001/XMLSchema-instance" xsi:schemaLocation="http://www.topografix.com/GPX/1/1 http://www.topografix.com/GPX/1/1/gpx.xsd" version="1.1" creator="gpx.py -- https://github.com/tkrajina/gpxpy">
  <metadata>
    <name>022</name>
  </metadata>
  <trk>
    <name>022</name>
    <trkseg>
      <trkpt lat="50.734398" lon="7.103993">
      </trkpt>
      <trkpt lat="50.734998" lon="7.104011">
      </trkpt>
      <trkpt lat="50.73552" lon="7.104395">
      </trkpt>
      <trkpt lat="50.735778" lon="7.105198">
      </trkpt>
      <trkpt lat="50.736045" lon="7.106103">
      </trkpt>
      <trkpt lat="50.7366" lon="7.105918">
      </trkpt>
      <trkpt lat="50.737277" lon="7.105735">
      </trkpt>
      <trkpt lat="50.73765" lon="7.106707">
      </trkpt>
      <trkpt lat="50.738118" lon="7.110063">
      </trkpt>
      <trkpt lat="50.738574" lon="7.11341">
      </trkpt>
      <trkpt lat="50.738727" lon="7.114479">
      </trkpt>
      <trkpt lat="50.738828" lon="7.115368">
      </trkpt>
      <trkpt lat="50.738415" lon="7.116284">
      </trkpt>
      <trkpt lat="50.738223" lon="7.115354">
      </trkpt>
      <trkpt lat="50.737996" lon="7.114226">
      </trkpt>
      <trkpt lat="50.738563" lon="7.113912">
      </trkpt>
      <trkpt lat="50.739841" lon="7.113563">
      </trkpt>
      <trkpt lat="50.740527" lon="7.11343">
      </trkpt>
      <trkpt lat="50.741456" lon="7.113335">
      </trkpt>
      <trkpt lat="50.742358" lon="7.113233">
      </trkpt>
      <trkpt lat="50.743689" lon="7.113046">
      </trkpt>
      <trkpt lat="50.74468" lon="7.113035">
      </trkpt>
      <trkpt lat="50.745193" lon="7.114292">
      </trkpt>
      <trkpt lat="50.745924" lon="7.11424">
      </trkpt>
      <trkpt lat="50.746705" lon="7.114088">
      </trkpt>
      <trkpt lat="50.747324" lon="7.113644">
      </trkpt>
      <trkpt lat="50.747951" lon="7.113169">
      </trkpt>
      <trkpt lat="50.748463" lon="7.112744">
      </trkpt>
      <trkpt lat="50.749493" lon="7.111977">
      </trkpt>
      <trkpt lat="50.751163" lon="7.110648">
      </trkpt>
      <trkpt lat="50.751652" lon="7.110284">
      </trkpt>
      <trkpt lat="50.752464" lon="7.110122">
      </trkpt>
      <trkpt lat="50.75318" lon="7.110502">
      </trkpt>
      <trkpt lat="50.753693" lon="7.1108">
      </trkpt>
      <trkpt lat="50.753844" lon="7.111788">
      </trkpt>
      <trkpt lat="50.753823" lon="7.113453">
      </trkpt>
      <trkpt lat="50.753689" lon="7.114386">
      </trkpt>
      <trkpt lat="50.753669" lon="7.116156">
      </trkpt>
      <trkpt lat="50.754058" lon="7.117865">
      </trkpt>
      <trkpt lat="50.754414" lon="7.118632">
      </trkpt>
      <trkpt lat="50.755155" lon="7.118809">
      </trkpt>
      <trkpt lat="50.755364" lon="7.119812">
      </trkpt>
      <trkpt lat="50.755622" lon="7.120728">
      </trkpt>
      <trkpt lat="50.755844" lon="7.121708">
      </trkpt>
      <trkpt lat="50.756067" lon="7.122693">
      </trkpt>
      <trkpt lat="50.756042" lon="7.124318">
      </trkpt>
      <trkpt lat="50.755956" lon="7.125319">
      </trkpt>
      <trkpt lat="50.755736" lon="7.126906">
      </trkpt>
      <trkpt lat="50.755595" lon="7.128435">
      </trkpt>
      <trkpt lat="50.75471" lon="7.132568">
      </trkpt>
      <trkpt lat="50.755481" lon="7.134702">
      </trkpt>
      <trkpt lat="50.756899" lon="7.135613">
      </trkpt>
      <trkpt lat="50.756546" lon="7.136689">
      </trkpt>
      <trkpt lat="50.757003" lon="7.137633">
      </trkpt>
      <trkpt lat="50.757709" lon="7.138763">
      </trkpt>
      <trkpt lat="50.758703" lon="7.140294">
      </trkpt>
      <trkpt lat="50.759343" lon="7.141275">
      </trkpt>
      <trkpt lat="50.760275" lon="7.138822">
      </trkpt>
      <trkpt lat="50.761891" lon="7.139425">
      </trkpt>
      <trkpt lat="50.763263" lon="7.14021">
      </trkpt>
      <trkpt lat="50.764543" lon="7.140931">
      </trkpt>
      <trkpt lat="50.766632" lon="7.142174">
      </trkpt>
      <trkpt lat="50.767799" lon="7.142666">
      </trkpt>
      <trkpt lat="50.768331" lon="7.143893">
      </trkpt>
      <trkpt lat="50.769081" lon="7.146217">
      </trkpt>
      <trkpt lat="50.769525" lon="7.147693">
      </trkpt>
      <trkpt lat="50.77024" lon="7.149121">
      </trkpt>
      <trkpt lat="50.770634" lon="7.149896">
      </trkpt>
      <trkpt lat="50.770974" lon="7.150701">
      </trkpt>
      <trkpt lat="50.771313" lon="7.151888">
      </trkpt>
      <trkpt lat="50.771496" lon="7.153048">
      </trkpt>
      <trkpt lat="50.771535" lon="7.154407">
      </trkpt>
      <trkpt lat="50.774209" lon="7.156017">
      </trkpt>
      <trkpt lat="50.773988" lon="7.15847">
      </trkpt>
      <trkpt lat="50.776355" lon="7.159279">
      </trkpt>
      <trkpt lat="50.776805" lon="7.161101">
      </trkpt>
      <trkpt lat="50.776788" lon="7.162006">
      </trkpt>
      <trkpt lat="50.779" lon="7.162689">
      </trkpt>
      <trkpt lat="50.779854" lon="7.162601">
      </trkpt>
      <trkpt lat="50.780383" lon="7.162397">
      </trkpt>
      <trkpt lat="50.781188" lon="7.162057">
      </trkpt>
      <trkpt lat="50.781166" lon="7.160403">
      </trkpt>
      <trkpt lat="50.781706" lon="7.160349">
      </trkpt>
      <trkpt lat="50.78228" lon="7.160368">
      </trkpt>
      <trkpt lat="50.78289" lon="7.160392">
      </trkpt>
      <trkpt lat="50.7835" lon="7.160484">
      </trkpt>
      <trkpt lat="50.784115" lon="7.160603">
      </trkpt>
      <trkpt lat="50.784944" lon="7.1607">
      </trkpt>
      <trkpt lat="50.785722" lon="7.160711">
      </trkpt>
      <trkpt lat="50.786507" lon="7.16066">
      </trkpt>
      <trkpt lat="50.787428" lon="7.160589">
      </trkpt>
      <trkpt lat="50.788597" lon="7.160804">
      </trkpt>
      <trkpt lat="50.789658" lon="7.160693">
      </trkpt>
      <trkpt lat="50.790202" lon="7.160717">
      </trkpt>
      <trkpt lat="50.790756" lon="7.160833">
      </trkpt>
      <trkpt lat="50.791296" lon="7.161246">
      </trkpt>
      <trkpt lat="50.792027" lon="7.161105">
      </trkpt>
      <trkpt lat="50.792627" lon="7.161839">
      </trkpt>
      <trkpt lat="50.792985" lon="7.162704">
      </trkpt>
      <trkpt lat="50.793009" lon="7.164119">
      </trkpt>
      <trkpt lat="50.79295" lon="7.165215">
      </trkpt>
      <trkpt lat="50.793521" lon="7.1657">
      </trkpt>
      <trkpt lat="50.794179" lon="7.165953">
      </trkpt>
      <trkpt lat="50.794762" lon="7.166131">
      </trkpt>
      <trkpt lat="50.796232" lon="7.166412">
      </trkpt>
      <trkpt lat="50.797784" lon="7.166552">
      </trkpt>
      <trkpt lat="50.798916" lon="7.166671">
      </trkpt>
      <trkpt lat="50.79925" lon="7.167415">
      </trkpt>
      <trkpt lat="50.799519" lon="7.16866">
      </trkpt>
      <trkpt lat="50.799903" lon="7.170193">
      </trkpt>
      <trkpt lat="50.800098" lon="7.171368">
      </trkpt>
      <trkpt lat="50.800338" lon="7.172258">
      </trkpt>
      <trkpt lat="50.800917" lon="7.173902">
      </trkpt>
      <trkpt lat="50.801376" lon="7.174537">
      </trkpt>
      <trkpt lat="50.802" lon="7.175103">
      </trkpt>
      <trkpt lat="50.802709" lon="7.175419">
      </trkpt>
      <trkpt lat="50.803239" lon="7.175154">
      </trkpt>
      <trkpt lat="50.803962" lon="7.175073">
      </trkpt>
      <trkpt lat="50.804896" lon="7.175535">
      </trkpt>
      <trkpt lat="50.805539" lon="7.175845">
      </trkpt>
      <trkpt lat="50.805246" lon="7.177285">
      </trkpt>
      <trkpt lat="50.806176" lon="7.177553">
      </trkpt>
      <trkpt lat="50.806983" lon="7.178666">
      </trkpt>
      <trkpt lat="50.807024" lon="7.179523">
      </trkpt>
      <trkpt lat="50.8068" lon="7.180326">
      </trkpt>
      <trkpt lat="50.807325" lon="7.180654">
      </trkpt>
      <trkpt lat="50.808073" lon="7.18148">
      </trkpt>
      <trkpt lat="50.809086" lon="7.184454">
      </trkpt>
      <trkpt lat="50.809693" lon="7.185064">
      </trkpt>
      <trkpt lat="50.810512" lon="7.186051">
      </trkpt>
      <trkpt lat="50.811083" lon="7.186331">
      </trkpt>
      <trkpt lat="50.811026" lon="7.185419">
      </trkpt>
      <trkpt lat="50.811589" lon="7.185732">
      </trkpt>
      <trkpt lat="50.811991" lon="7.18742">
      </trkpt>
      <trkpt lat="50.811937" lon="7.188318">
      </trkpt>
      <trkpt lat="50.812341" lon="7.188946">
      </trkpt>
      <trkpt lat="50.812734" lon="7.189999">
      </trkpt>
      <trkpt lat="50.813272" lon="7.191048">
      </trkpt>
      <trkpt lat="50.813801" lon="7.19246">
      </trkpt>
      <trkpt lat="50.814121" lon="7.193292">
      </trkpt>
      <trkpt lat="50.81438" lon="7.194214">
      </trkpt>
      <trkpt lat="50.814978" lon="7.194052">
      </trkpt>
      <trkpt lat="50.815809" lon="7.194629">
      </trkpt>
      <trkpt lat="50.816301" lon="7.195549">
      </trkpt>
      <trkpt lat="50.816809" lon="7.19645">
      </trkpt>
      <trkpt lat="50.81742" lon="7.196141">
      </trkpt>
      <trkpt lat="50.818094" lon="7.19608">
      </trkpt>
      <trkpt lat="50.818943" lon="7.195444">
      </trkpt>
      <trkpt lat="50.819685" lon="7.194795">
      </trkpt>
      <trkpt lat="50.820251" lon="7.195873">
      </trkpt>
      <trkpt lat="50.8206" lon="7.196858">
      </trkpt>
      <trkpt lat="50.82051" lon="7.197833">
      </trkpt>
      <trkpt lat="50.821043" lon="7.198104">
      </trkpt>
      <trkpt lat="50.821563" lon="7.199624">
      </trkpt>
      <trkpt lat="50.822255" lon="7.200668">
      </trkpt>
      <trkpt lat="50.82335" lon="7.20113">
      </trkpt>
      <trkpt lat="50.824326" lon="7.201036">
      </trkpt>
      <trkpt lat="50.825682" lon="7.201782">
      </trkpt>
      <trkpt lat="50.826206" lon="7.202059">
      </trkpt>
      <trkpt lat="50.827751" lon="7.201737">
      </trkpt>
      <trkpt lat="50.828612" lon="7.201562">
      </trkpt>
      <trkpt lat="50.829912" lon="7.201691">
      </trkpt>
      <trkpt lat="50.831054" lon="7.201036">
      </trkpt>
      <trkpt lat="50.831532" lon="7.200578">
      </trkpt>
      <trkpt lat="50.833399" lon="7.20068">
      </trkpt>
      <trkpt lat="50.835455" lon="7.200774">
      </trkpt>
      <trkpt lat="50.835697" lon="7.201537">
      </trkpt>
      <trkpt lat="50.83648" lon="7.201533">
      </trkpt>
      <trkpt lat="50.838569" lon="7.202231">
      </trkpt>
      <trkpt lat="50.839419" lon="7.202568">
      </trkpt>
      <trkpt lat="50.839957" lon="7.203256">
      </trkpt>
      <trkpt lat="50.840524" lon="7.203464">
      </trkpt>
      <trkpt lat="50.840627" lon="7.202617">
      </trkpt>
      <trkpt lat="50.840783" lon="7.201536">
      </trkpt>
      <trkpt lat="50.841271" lon="7.20055">
      </trkpt>
      <trkpt lat="50.840866" lon="7.199956">
      </trkpt>
      <trkpt lat="50.840413" lon="7.199351">
      </trkpt>
      <trkpt lat="50.839806" lon="7.198923">
      </trkpt>
      <trkpt lat="50.839324" lon="7.198473">
      </trkpt>
      <trkpt lat="50.838396" lon="7.197242">
      </trkpt>
      <trkpt lat="50.837332" lon="7.19645">
      </trkpt>
      <trkpt lat="50.836754" lon="7.196335">
      </trkpt>
      <trkpt lat="50.836051" lon="7.196082">
      </trkpt>
      <trkpt lat="50.835333" lon="7.195668">
      </trkpt>
      <trkpt lat="50.834693" lon="7.195447">
      </trkpt>
      <trkpt lat="50.833942" lon="7.195215">
      </trkpt>
      <trkpt lat="50.833192" lon="7.194824">
      </trkpt>
      <trkpt lat="50.832558" lon="7.194205">
      </trkpt>
      <trkpt lat="50.832409" lon="7.193379">
      </trkpt>
      <trkpt lat="50.83275" lon="7.192706">
      </trkpt>
      <trkpt lat="50.833798" lon="7.191095">
      </trkpt>
      <trkpt lat="50.833862" lon="7.188731">
      </trkpt>
      <trkpt lat="50.833759" lon="7.187719">
      </trkpt>
      <trkpt lat="50.833616" lon="7.18657">
      </trkpt>
      <trkpt lat="50.832898" lon="7.186544">
      </trkpt>
      <trkpt lat="50.832536" lon="7.187198">
      </trkpt>
      <trkpt lat="50.831917" lon="7.187468">
      </trkpt>
      <trkpt lat="50.831099" lon="7.187087">
      </trkpt>
      <trkpt lat="50.830396" lon="7.1873">
      </trkpt>
      <trkpt lat="50.829818" lon="7.1868">
      </trkpt>
      <trkpt lat="50.829175" lon="7.186855">
      </trkpt>
      <trkpt lat="50.82921" lon="7.185352">
      </trkpt>
      <trkpt lat="50.829411" lon="7.184034">
      </trkpt>
      <trkpt lat="50.829645" lon="7.183164">
      </trkpt>
      <trkpt lat="50.829963" lon="7.182315">
      </trkpt>
      <trkpt lat="50.830178" lon="7.181498">
      </trkpt>
      <trkpt lat="50.830681" lon="7.180803">
      </trkpt>
      <trkpt lat="50.831138" lon="7.179553">
      </trkpt>
      <trkpt lat="50.83168" lon="7.179094">
      </trkpt>
      <trkpt lat="50.832086" lon="7.178372">
      </trkpt>
      <trkpt lat="50.832801" lon="7.176637">
      </trkpt>
      <trkpt lat="50.833346" lon="7.175752">
      </trkpt>
      <trkpt lat="50.833912" lon="7.175081">
      </trkpt>
      <trkpt lat="50.834688" lon="7.17499">
      </trkpt>
      <trkpt lat="50.835244" lon="7.175479">
      </trkpt>
      <trkpt lat="50.835545" lon="7.176198">
      </trkpt>
      <trkpt lat="50.836088" lon="7.17766">
      </trkpt>
      <trkpt lat="50.83644" lon="7.178377">
      </trkpt>
      <trkpt lat="50.836955" lon="7.178672">
      </trkpt>
      <trkpt lat="50.837534" lon="7.17817">
      </trkpt>
      <trkpt lat="50.837933" lon="7.177536">
      </trkpt>
      <trkpt lat="50.839016" lon="7.174455">
      </trkpt>
      <trkpt lat="50.839251" lon="7.173493">
      </trkpt>
      <trkpt lat="50.83954" lon="7.171863">
      </trkpt>
      <trkpt lat="50.839716" lon="7.17078">
      </trkpt>
      <trkpt lat="50.839779" lon="7.168924">
      </trkpt>
      <trkpt lat="50.839685" lon="7.167853">
      </trkpt>
      <trkpt lat="50.839751" lon="7.166821">
      </trkpt>
      <trkpt lat="50.840132" lon="7.165508">
      </trkpt>
      <trkpt lat="50.840847" lon="7.163266">
      </trkpt>
      <trkpt lat="50.841607" lon="7.162132">
      </trkpt>
      <trkpt lat="50.842609" lon="7.160076">
      </trkpt>
      <trkpt lat="50.843585" lon="7.158528">
      </trkpt>
      <trkpt lat="50.841714" lon="7.154778">
      </trkpt>
      <trkpt lat="50.840678" lon="7.152532">
      </trkpt>
      <trkpt lat="50.840328" lon="7.151867">
      </trkpt>
      <trkpt lat="50.83984" lon="7.15099">
      </trkpt>
      <trkpt lat="50.839247" lon="7.150952">
      </trkpt>
      <trkpt lat="50.838446" lon="7.150929">
      </trkpt>
      <trkpt lat="50.838476" lon="7.151922">
      </trkpt>
      <trkpt lat="50.83791" lon="7.153197">
      </trkpt>
      <trkpt lat="50.837809" lon="7.154058">
      </trkpt>
      <trkpt lat="50.837542" lon="7.155195">
      </trkpt>
      <trkpt lat="50.83746" lon="7.15629">
      </trkpt>
      <trkpt lat="50.83737" lon="7.157219">
      </trkpt>
      <trkpt lat="50.837326" lon="7.158835">
      </trkpt>
      <trkpt lat="50.837221" lon="7.159897">
      </trkpt>
      <trkpt lat="50.836622" lon="7.16175">
      </trkpt>
      <trkpt lat="50.835905" lon="7.161534">
      </trkpt>
      <trkpt lat="50.83516" lon="7.161395">
      </trkpt>
      <trkpt lat="50.834523" lon="7.161212">
      </trkpt>
      <trkpt lat="50.833978" lon="7.161601">
      </trkpt>
      <trkpt lat="50.833212" lon="7.161449">
      </trkpt>
      <trkpt lat="50.833289" lon="7.162387">
      </trkpt>
      <trkpt lat="50.832723" lon="7.16247">
      </trkpt>
      <trkpt lat="50.832582" lon="7.164338">
      </trkpt>
      <trkpt lat="50.831386" lon="7.163128">
      </trkpt>
      <trkpt lat="50.83073" lon="7.162563">
      </trkpt>
      <trkpt lat="50.830173" lon="7.162194">
      </trkpt>
      <trkpt lat="50.830482" lon="7.160434">
      </trkpt>
      <trkpt lat="50.830707" lon="7.158989">
      </trkpt>
      <trkpt lat="50.830326" lon="7.156281">
      </trkpt>
      <trkpt lat="50.830952" lon="7.155236">
      </trkpt>
      <trkpt lat="50.831601" lon="7.154463">
      </trkpt>
      <trkpt lat="50.832413" lon="7.154509">
      </trkpt>
      <trkpt lat="50.832934" lon="7.154246">
      </trkpt>
      <trkpt lat="50.832358" lon="7.15372">
      </trkpt>
      <trkpt lat="50.831787" lon="7.153099">
      </trkpt>
      <trkpt lat="50.832053" lon="7.15141">
      </trkpt>
      <trkpt lat="50.832263" lon="7.150191">
      </trkpt>
      <trkpt lat="50.831931" lon="7.149514">
      </trkpt>
      <trkpt lat="50.831315" lon="7.149537">
      </trkpt>
      <trkpt lat="50.830322" lon="7.149916">
      </trkpt>
      <trkpt lat="50.829649" lon="7.150074">
      </trkpt>
      <trkpt lat="50.829064" lon="7.149829">
      </trkpt>
      <trkpt lat="50.827706" lon="7.148345">
      </trkpt>
      <trkpt lat="50.828098" lon="7.146332">
      </trkpt>
      <trkpt lat="50.827989" lon="7.145323">
      </trkpt>
      <trkpt lat="50.828089" lon="7.144424">
      </trkpt>
      <trkpt lat="50.827759" lon="7.1437">
      </trkpt>
      <trkpt lat="50.827735" lon="7.142754">
      </trkpt>
      <trkpt lat="50.827458" lon="7.141923">
      </trkpt>
      <trkpt lat="50.826872" lon="7.141311">
      </trkpt>
      <trkpt lat="50.826194" lon="7.139959">
      </trkpt>
      <trkpt lat="50.82585" lon="7.139066">
      </trkpt>
      <trkpt lat="50.825746" lon="7.13801">
      </trkpt>
      <trkpt lat="50.8257" lon="7.136877">
      </trkpt>
      <trkpt lat="50.825094" lon="7.137064">
      </trkpt>
      <trkpt lat="50.824794" lon="7.136189">
      </trkpt>
      <trkpt lat="50.824373" lon="7.135628">
      </trkpt>
      <trkpt lat="50.823754" lon="7.134939">
      </trkpt>
      <trkpt lat="50.822992" lon="7.134106">
      </trkpt>
      <trkpt lat="50.822224" lon="7.133211">
      </trkpt>
      <trkpt lat="50.821758" lon="7.132703">
      </trkpt>
      <trkpt lat="50.820407" lon="7.131189">
      </trkpt>
      <trkpt lat="50.820859" lon="7.12954">
      </trkpt>
      <trkpt lat="50.82127" lon="7.128211">
      </trkpt>
      <trkpt lat="50.821515" lon="7.127418">
      </trkpt>
      <trkpt lat="50.82177" lon="7.126616">
      </trkpt>
      <trkpt lat="50.82206" lon="7.125702">
      </trkpt>
      <trkpt lat="50.822601" lon="7.124766">
      </trkpt>
      <trkpt lat="50.82196" lon="7.123584">
      </trkpt>
      <trkpt lat="50.821683" lon="7.122827">
      </trkpt>
      <trkpt lat="50.821282" lon="7.12196">
      </trkpt>
      <trkpt lat="50.820775" lon="7.121601">
      </trkpt>
      <trkpt lat="50.819643" lon="7.119961">
      </trkpt>
      <trkpt lat="50.81928" lon="7.119213">
      </trkpt>
      <trkpt lat="50.818921" lon="7.118216">
      </trkpt>
      <trkpt lat="50.818585" lon="7.117298">
      </trkpt>
      <trkpt lat="50.818309" lon="7.116534">
      </trkpt>
      <trkpt lat="50.817761" lon="7.116401">
      </trkpt>
      <trkpt lat="50.816597" lon="7.116142">
      </trkpt>
      <trkpt lat="50.816005" lon="7.115272">
      </trkpt>
      <trkpt lat="50.81538" lon="7.115457">
      </trkpt>
      <trkpt lat="50.8146" lon="7.116146">
      </trkpt>
      <trkpt lat="50.81399" lon="7.116488">
      </trkpt>
      <trkpt lat="50.813608" lon="7.117404">
      </trkpt>
      <trkpt lat="50.813107" lon="7.116855">
      </trkpt>
      <trkpt lat="50.812888" lon="7.115924">
      </trkpt>
      <trkpt lat="50.812742" lon="7.114598">
      </trkpt>
      <trkpt lat="50.811934" lon="7.11464">
      </trkpt>
      <trkpt lat="50.811373" lon="7.115001">
      </trkpt>
      <trkpt lat="50.811167" lon="7.114027">
      </trkpt>
      <trkpt lat="50.81049" lon="7.113676">
      </trkpt>
      <trkpt lat="50.809821" lon="7.114142">
      </trkpt>
      <trkpt lat="50.809204" lon="7.114437">
      </trkpt>
      <trkpt lat="50.80872" lon="7.114966">
      </trkpt>
      <trkpt lat="50.80811" lon="7.115164">
      </trkpt>
      <trkpt lat="50.807355" lon="7.115642">
      </trkpt>
      <trkpt lat="50.806804" lon="7.115994">
      </trkpt>
      <trkpt lat="50.806275" lon="7.11688">
      </trkpt>
      <trkpt lat="50.805744" lon="7.116139">
      </trkpt>
      <trkpt lat="50.805103" lon="7.114012">
      </trkpt>
      <trkpt lat="50.805715" lon="7.112427">
      </trkpt>
      <trkpt lat="50.806251" lon="7.110964">
      </trkpt>
      <trkpt lat="50.806402" lon="7.109986">
      </trkpt>
      <trkpt lat="50.805992" lon="7.109271">
      </trkpt>
      <trkpt lat="50.805418" lon="7.108575">
      </trkpt>
      <trkpt lat="50.80471" lon="7.107457">
      </trkpt>
      <trkpt lat="50.804017" lon="7.106529">
      </trkpt>
      <trkpt lat="50.80365" lon="7.107218">
      </trkpt>
      <trkpt lat="50.803219" lon="7.108013">
      </trkpt>
      <trkpt lat="50.802898" lon="7.108948">
      </trkpt>
      <trkpt lat="50.80148" lon="7.108838">
      </trkpt>
      <trkpt lat="50.801029" lon="7.108113">
      </trkpt>
      <trkpt lat="50.800531" lon="7.10698">
      </trkpt>
      <trkpt lat="50.800121" lon="7.105867">
      </trkpt>
      <trkpt lat="50.799141" lon="7.105785">
      </trkpt>
      <trkpt lat="50.797943" lon="7.106007">
      </trkpt>
      <trkpt lat="50.796787" lon="7.105968">
      </trkpt>
      <trkpt lat="50.796081" lon="7.106026">
      </trkpt>
      <trkpt lat="50.79547" lon="7.105073">
      </trkpt>
      <trkpt lat="50.794923" lon="7.104206">
      </trkpt>
      <trkpt lat="50.794176" lon="7.103017">
      </trkpt>
      <trkpt lat="50.793398" lon="7.102469">
      </trkpt>
      <trkpt lat="50.792828" lon="7.102405">
      </trkpt>
      <trkpt lat="50.79191" lon="7.102839">
      </trkpt>
      <trkpt lat="50.791072" lon="7.102923">
      </trkpt>
      <trkpt lat="50.790541" lon="7.103742">
      </trkpt>
      <trkpt lat="50.790341" lon="7.104739">
      </trkpt>
      <trkpt lat="50.790028" lon="7.106289">
      </trkpt>
      <trkpt lat="50.78959" lon="7.107176">
      </trkpt>
      <trkpt lat="50.789238" lon="7.108623">
      </trkpt>
      <trkpt lat="50.788945" lon="7.10939">
      </trkpt>
      <trkpt lat="50.787798" lon="7.109548">
      </trkpt>
      <trkpt lat="50.783747" lon="7.109501">
      </trkpt>
      <trkpt lat="50.782641" lon="7.10949">
      </trkpt>
      <trkpt lat="50.781771" lon="7.109641">
      </trkpt>
      <trkpt lat="50.780936" lon="7.109609">
      </trkpt>
      <trkpt lat="50.780505" lon="7.112233">
      </trkpt>
      <trkpt lat="50.779081" lon="7.111291">
      </trkpt>
      <trkpt lat="50.778132" lon="7.11067">
      </trkpt>
      <trkpt lat="50.777899" lon="7.11182">
      </trkpt>
      <trkpt lat="50.777433" lon="7.112692">
      </trkpt>
      <trkpt lat="50.776837" lon="7.113247">
      </trkpt>
      <trkpt lat="50.776197" lon="7.112096">
      </trkpt>
      <trkpt lat="50.775091" lon="7.110776">
      </trkpt>
      <trkpt lat="50.774523" lon="7.109791">
      </trkpt>
      <trkpt lat="50.773739" lon="7.10767">
      </trkpt>
      <trkpt lat="50.773178" lon="7.105587">
      </trkpt>
      <trkpt lat="50.773324" lon="7.104497">
      </trkpt>
      <trkpt lat="50.773334" lon="7.103415">
      </trkpt>
      <trkpt lat="50.772762" lon="7.103552">
      </trkpt>
      <trkpt lat="50.77165" lon="7.103252">
      </trkpt>
      <trkpt lat="50.770931" lon="7.103098">
      </trkpt>
      <trkpt lat="50.770336" lon="7.103024">
      </trkpt>
      <trkpt lat="50.769778" lon="7.103175">
      </trkpt>
      <trkpt lat="50.767783" lon="7.104363">
      </trkpt>
      <trkpt lat="50.766711" lon="7.10571">
      </trkpt>
      <trkpt lat="50.765901" lon="7.107332">
      </trkpt>
      <trkpt lat="50.765044" lon="7.108875">
      </trkpt>
      <trkpt lat="50.764237" lon="7.110204">
      </trkpt>
      <trkpt lat="50.763459" lon="7.11137">
      </trkpt>
      <trkpt lat="50.764084" lon="7.110991">
      </trkpt>
      <trkpt lat="50.764781" lon="7.110398">
      </trkpt>
      <trkpt lat="50.765039" lon="7.109089">
      </trkpt>
      <trkpt lat="50.764593" lon="7.108009">
      </trkpt>
      <trkpt lat="50.763767" lon="7.107597">
      </trkpt>
      <trkpt lat="50.763187" lon="7.107094">
      </trkpt>
      <trkpt lat="50.762624" lon="7.106405">
      </trkpt>
      <trkpt lat="50.76162" lon="7.106631">
      </trkpt>
      <trkpt lat="50.760975" lon="7.106715">
      </trkpt>
      <trkpt lat="50.760662" lon="7.105952">
      </trkpt>
      <trkpt lat="50.759805" lon="7.105129">
      </trkpt>
      <trkpt lat="50.759388" lon="7.104131">
      </trkpt>
      <trkpt lat="50.758928" lon="7.103401">
      </trkpt>
      <trkpt lat="50.758468" lon="7.103919">
      </trkpt>
      <trkpt lat="50.758059" lon="7.103342">
      </trkpt>
      <trkpt lat="50.757609" lon="7.102279">
      </trkpt>
      <trkpt lat="50.75622" lon="7.103747">
      </trkpt>
      <trkpt lat="50.755543" lon="7.104533">
      </trkpt>
      <trkpt lat="50.754464" lon="7.105569">
      </trkpt>
      <trkpt lat="50.753735" lon="7.106153">
      </trkpt>
      <trkpt lat="50.75325" lon="7.106638">
      </trkpt>
      <trkpt lat="50.752805" lon="7.107125">
      </trkpt>
      <trkpt lat="50.75217" lon="7.107499">
      </trkpt>
      <trkpt lat="50.751478" lon="7.107739">
      </trkpt>
      <trkpt lat="50.75039" lon="7.108355">
      </trkpt>
      <trkpt lat="50.74921" lon="7.108519">
      </trkpt>
      <trkpt lat="50.747759" lon="7.109188">
      </trkpt>
      <trkpt lat="50.746471" lon="7.10968">
      </trkpt>
      <trkpt lat="50.745437" lon="7.110331">
      </trkpt>
      <trkpt lat="50.744846" lon="7.110763">
      </trkpt>
      <trkpt lat="50.744119" lon="7.111256">
      </trkpt>
      <trkpt lat="50.743277" lon="7.111634">
      </trkpt>
      <trkpt lat="50.742146" lon="7.112145">
      </trkpt>
      <trkpt lat="50.741425" lon="7.11272">
      </trkpt>
      <trkpt lat="50.740466" lon="7.113008">
      </trkpt>
      <trkpt lat="50.739778" lon="7.112939">
      </trkpt>
      <trkpt lat="50.738815" lon="7.113125">
      </trkpt>
      <trkpt lat="50.739012" lon="7.114687">
      </trkpt>
      <trkpt lat="50.738899" lon="7.113807">
      </trkpt>
      <trkpt lat="50.738289" lon="7.110067">
      </trkpt>
      <trkpt lat="50.737833" lon="7.106791">
      </trkpt>
      <trkpt lat="50.73773" lon="7.105888">
      </trkpt>
      <trkpt lat="50.737556" lon="7.104666">
      </trkpt>
      <trkpt lat="50.737519" lon="7.103698">
      </trkpt>
      <trkpt lat="50.736935" lon="7.104088">
      </trkpt>
      <trkpt lat="50.736466" lon="7.104548">
      </trkpt>
      <trkpt lat="50.73583" lon="7.104982">
      </trkpt>
      <trkpt lat="50.73527" lon="7.105278">
      </trkpt>
      <trkpt lat="50.734693" lon="7.105412">
      </trkpt>
      <trkpt lat="50.73444" lon="7.104193">
      </trkpt>
    </trkseg>
  </trk>
</gpx>