<?xml version="1.0" encoding="UTF-8"?>
<gpx xmlns="http://www.topografix.com/GPX/1/1" xmlns:xsi="http://www.w3.org/2001/XMLSchema-instance" xsi:schemaLocation="http://www.topografix.com/GPX/1/1 http://www.topografix.com/GPX/1/1/gpx.xsd" version="1.1" creator="gpx.py -- https://github.com/tkrajina/gpxpy">
  <metadata>
    <name>023</name>
  </metadata>
  <trk>
    <name>023</name>
    <trkseg>
      <trkpt lat="50.732061" lon="7.101404">
      </trkpt>
      <trkpt lat="50.7316" lon="7.100564">
      </trkpt>
      <trkpt lat="50.731199" lon="7.099917">
      </trkpt>
      <trkpt lat="50.730712" lon="7.099339">
      </trkpt>
      <trkpt lat="50.730374" lon="7.098565">
      </trkpt>
      <trkpt lat="50.729909" lon="7.097968">
      </trkpt>
      <trkpt lat="50.729406" lon="7.097357">
      </trkpt>
      <trkpt lat="50.728938" lon="7.096759">
      </trkpt>
      <trkpt lat="50.728445" lon="7.096128">
      </trkpt>
      <trkpt lat="50.728023" lon="7.095589">
      </trkpt>
      <trkpt lat="50.727556" lon="7.094994">
      </trkpt>
      <trkpt lat="50.727119" lon="7.094427">
      </trkpt>
      <trkpt lat="50.726678" lon="7.093869">
      </trkpt>
      <trkpt lat="50.726484" lon="7.092982">
      </trkpt>
      <trkpt lat="50.725926" lon="7.091932">
      </trkpt>
      <trkpt lat="50.725343" lon="7.091214">
      </trkpt>
      <trkpt lat="50.724815" lon="7.090542">
      </trkpt>
      <trkpt lat="50.724321" lon="7.090098">
      </trkpt>
      <trkpt lat="50.723854" lon="7.089646">
      </trkpt>
      <trkpt lat="50.723229" lon="7.089189">
      </trkpt>
      <trkpt lat="50.722705" lon="7.088809">
      </trkpt>
      <trkpt lat="50.722189" lon="7.088456">
      </trkpt>
      <trkpt lat="50.721578" lon="7.0882">
      </trkpt>
      <trkpt lat="50.721023" lon="7.087692">
      </trkpt>
      <trkpt lat="50.720523" lon="7.087323">
      </trkpt>
      <trkpt lat="50.719996" lon="7.087089">
      </trkpt>
      <trkpt lat="50.719495" lon="7.086446">
      </trkpt>
      <trkpt lat="50.718932" lon="7.08582">
      </trkpt>
      <trkpt lat="50.718318" lon="7.085813">
      </trkpt>
      <trkpt lat="50.718426" lon="7.086828">
      </trkpt>
      <trkpt lat="50.718581" lon="7.087745">
      </trkpt>
      <trkpt lat="50.718377" lon="7.088575">
      </trkpt>
      <trkpt lat="50.717889" lon="7.089312">
      </trkpt>
      <trkpt lat="50.717569" lon="7.090183">
      </trkpt>
      <trkpt lat="50.717022" lon="7.0903">
      </trkpt>
      <trkpt lat="50.716485" lon="7.090047">
      </trkpt>
      <trkpt lat="50.71587" lon="7.090502">
      </trkpt>
      <trkpt lat="50.715537" lon="7.091497">
      </trkpt>
      <trkpt lat="50.715322" lon="7.09228">
      </trkpt>
      <trkpt lat="50.715459" lon="7.093113">
      </trkpt>
      <trkpt lat="50.715466" lon="7.094006">
      </trkpt>
      <trkpt lat="50.715044" lon="7.094544">
      </trkpt>
      <trkpt lat="50.714412" lon="7.0951">
      </trkpt>
      <trkpt lat="50.71312" lon="7.096082">
      </trkpt>
      <trkpt lat="50.712566" lon="7.096307">
      </trkpt>
      <trkpt lat="50.712084" lon="7.096718">
      </trkpt>
      <trkpt lat="50.711604" lon="7.097126">
      </trkpt>
      <trkpt lat="50.711152" lon="7.097655">
      </trkpt>
      <trkpt lat="50.710664" lon="7.098095">
      </trkpt>
      <trkpt lat="50.71029" lon="7.098881">
      </trkpt>
      <trkpt lat="50.709879" lon="7.099702">
      </trkpt>
      <trkpt lat="50.709494" lon="7.100458">
      </trkpt>
      <trkpt lat="50.708872" lon="7.100879">
      </trkpt>
      <trkpt lat="50.70831" lon="7.100773">
      </trkpt>
      <trkpt lat="50.707728" lon="7.100607">
      </trkpt>
      <trkpt lat="50.707308" lon="7.099929">
      </trkpt>
      <trkpt lat="50.706806" lon="7.099493">
      </trkpt>
      <trkpt lat="50.706385" lon="7.09895">
      </trkpt>
      <trkpt lat="50.70587" lon="7.099494">
      </trkpt>
      <trkpt lat="50.706061" lon="7.100421">
      </trkpt>
      <trkpt lat="50.705862" lon="7.101361">
      </trkpt>
      <trkpt lat="50.70581" lon="7.102296">
      </trkpt>
      <trkpt lat="50.705494" lon="7.103005">
      </trkpt>
      <trkpt lat="50.704967" lon="7.103463">
      </trkpt>
      <trkpt lat="50.704335" lon="7.103606">
      </trkpt>
      <trkpt lat="50.703806" lon="7.103888">
      </trkpt>
      <trkpt lat="50.703356" lon="7.104475">
      </trkpt>
      <trkpt lat="50.702795" lon="7.104367">
      </trkpt>
      <trkpt lat="50.702281" lon="7.104947">
      </trkpt>
      <trkpt lat="50.702017" lon="7.105734">
      </trkpt>
      <trkpt lat="50.701662" lon="7.106434">
      </trkpt>
      <trkpt lat="50.701282" lon="7.107183">
      </trkpt>
      <trkpt lat="50.700616" lon="7.107546">
      </trkpt>
      <trkpt lat="50.700031" lon="7.10782">
      </trkpt>
      <trkpt lat="50.699418" lon="7.107693">
      </trkpt>
      <trkpt lat="50.698863" lon="7.107728">
      </trkpt>
      <trkpt lat="50.69823" lon="7.108021">
      </trkpt>
      <trkpt lat="50.697644" lon="7.108275">
      </trkpt>
      <trkpt lat="50.697109" lon="7.108465">
      </trkpt>
      <trkpt lat="50.696481" lon="7.108546">
      </trkpt>
      <trkpt lat="50.695817" lon="7.10864">
      </trkpt>
      <trkpt lat="50.695422" lon="7.109276">
      </trkpt>
      <trkpt lat="50.695065" lon="7.109966">
      </trkpt>
      <trkpt lat="50.694565" lon="7.110338">
      </trkpt>
      <trkpt lat="50.69403" lon="7.110818">
      </trkpt>
      <trkpt lat="50.693815" lon="7.111714">
      </trkpt>
      <trkpt lat="50.693968" lon="7.112539">
      </trkpt>
      <trkpt lat="50.69352" lon="7.111999">
      </trkpt>
      <trkpt lat="50.693263" lon="7.111208">
      </trkpt>
      <trkpt lat="50.692915" lon="7.110326">
      </trkpt>
      <trkpt lat="50.692816" lon="7.109247">
      </trkpt>
      <trkpt lat="50.692645" lon="7.108258">
      </trkpt>
      <trkpt lat="50.692499" lon="7.107332">
      </trkpt>
      <trkpt lat="50.69231" lon="7.106453">
      </trkpt>
      <trkpt lat="50.69177" lon="7.10621">
      </trkpt>
      <trkpt lat="50.691228" lon="7.106625">
      </trkpt>
      <trkpt lat="50.690768" lon="7.107242">
      </trkpt>
      <trkpt lat="50.690174" lon="7.1073">
      </trkpt>
      <trkpt lat="50.68957" lon="7.10733">
      </trkpt>
      <trkpt lat="50.688981" lon="7.107378">
      </trkpt>
      <trkpt lat="50.688427" lon="7.107225">
      </trkpt>
      <trkpt lat="50.687865" lon="7.10699">
      </trkpt>
      <trkpt lat="50.687582" lon="7.107847">
      </trkpt>
      <trkpt lat="50.687078" lon="7.108668">
      </trkpt>
      <trkpt lat="50.686608" lon="7.109436">
      </trkpt>
      <trkpt lat="50.68605" lon="7.110346">
      </trkpt>
      <trkpt lat="50.685562" lon="7.111137">
      </trkpt>
      <trkpt lat="50.685173" lon="7.111768">
      </trkpt>
      <trkpt lat="50.684774" lon="7.112417">
      </trkpt>
      <trkpt lat="50.684298" lon="7.113191">
      </trkpt>
      <trkpt lat="50.683914" lon="7.113812">
      </trkpt>
      <trkpt lat="50.683537" lon="7.114424">
      </trkpt>
      <trkpt lat="50.68315" lon="7.115343">
      </trkpt>
      <trkpt lat="50.682588" lon="7.115012">
      </trkpt>
      <trkpt lat="50.682177" lon="7.11443">
      </trkpt>
      <trkpt lat="50.681569" lon="7.114182">
      </trkpt>
      <trkpt lat="50.680919" lon="7.114235">
      </trkpt>
      <trkpt lat="50.68028" lon="7.114253">
      </trkpt>
      <trkpt lat="50.679709" lon="7.11435">
      </trkpt>
      <trkpt lat="50.678893" lon="7.11453">
      </trkpt>
      <trkpt lat="50.67833" lon="7.114291">
      </trkpt>
      <trkpt lat="50.677673" lon="7.114074">
      </trkpt>
      <trkpt lat="50.677042" lon="7.113915">
      </trkpt>
      <trkpt lat="50.676448" lon="7.113847">
      </trkpt>
      <trkpt lat="50.67648" lon="7.114711">
      </trkpt>
      <trkpt lat="50.676521" lon="7.115859">
      </trkpt>
      <trkpt lat="50.676553" lon="7.116794">
      </trkpt>
      <trkpt lat="50.676591" lon="7.11778">
      </trkpt>
      <trkpt lat="50.676627" lon="7.11871">
      </trkpt>
      <trkpt lat="50.676666" lon="7.119709">
      </trkpt>
      <trkpt lat="50.676714" lon="7.120705">
      </trkpt>
      <trkpt lat="50.676159" lon="7.121407">
      </trkpt>
      <trkpt lat="50.675983" lon="7.122347">
      </trkpt>
      <trkpt lat="50.675944" lon="7.123516">
      </trkpt>
      <trkpt lat="50.676132" lon="7.124384">
      </trkpt>
      <trkpt lat="50.676276" lon="7.125372">
      </trkpt>
      <trkpt lat="50.675996" lon="7.126371">
      </trkpt>
      <trkpt lat="50.675438" lon="7.127054">
      </trkpt>
      <trkpt lat="50.674805" lon="7.127027">
      </trkpt>
      <trkpt lat="50.674466" lon="7.126245">
      </trkpt>
      <trkpt lat="50.674028" lon="7.125189">
      </trkpt>
      <trkpt lat="50.673679" lon="7.124345">
      </trkpt>
      <trkpt lat="50.673306" lon="7.123431">
      </trkpt>
      <trkpt lat="50.672966" lon="7.122599">
      </trkpt>
      <trkpt lat="50.672659" lon="7.12185">
      </trkpt>
      <trkpt lat="50.672346" lon="7.121083">
      </trkpt>
      <trkpt lat="50.672012" lon="7.120266">
      </trkpt>
      <trkpt lat="50.671654" lon="7.119471">
      </trkpt>
      <trkpt lat="50.671236" lon="7.118507">
      </trkpt>
      <trkpt lat="50.671235" lon="7.117474">
      </trkpt>
      <trkpt lat="50.670991" lon="7.116682">
      </trkpt>
      <trkpt lat="50.670549" lon="7.116118">
      </trkpt>
      <trkpt lat="50.67022" lon="7.116806">
      </trkpt>
      <trkpt lat="50.669831" lon="7.117395">
      </trkpt>
      <trkpt lat="50.669139" lon="7.118305">
      </trkpt>
      <trkpt lat="50.668721" lon="7.118855">
      </trkpt>
      <trkpt lat="50.668303" lon="7.119403">
      </trkpt>
      <trkpt lat="50.66762" lon="7.120301">
      </trkpt>
      <trkpt lat="50.667187" lon="7.120871">
      </trkpt>
      <trkpt lat="50.666663" lon="7.121559">
      </trkpt>
      <trkpt lat="50.666157" lon="7.122074">
      </trkpt>
      <trkpt lat="50.665694" lon="7.121357">
      </trkpt>
      <trkpt lat="50.665185" lon="7.120567">
      </trkpt>
      <trkpt lat="50.664719" lon="7.119791">
      </trkpt>
      <trkpt lat="50.664349" lon="7.119115">
      </trkpt>
      <trkpt lat="50.663941" lon="7.118373">
      </trkpt>
      <trkpt lat="50.663516" lon="7.117597">
      </trkpt>
      <trkpt lat="50.663157" lon="7.116944">
      </trkpt>
      <trkpt lat="50.662614" lon="7.11663">
      </trkpt>
      <trkpt lat="50.662051" lon="7.116439">
      </trkpt>
      <trkpt lat="50.661596" lon="7.115831">
      </trkpt>
      <trkpt lat="50.661164" lon="7.114849">
      </trkpt>
      <trkpt lat="50.660802" lon="7.114137">
      </trkpt>
      <trkpt lat="50.660276" lon="7.11334">
      </trkpt>
      <trkpt lat="50.659893" lon="7.112728">
      </trkpt>
      <trkpt lat="50.65954" lon="7.111805">
      </trkpt>
      <trkpt lat="50.659536" lon="7.110847">
      </trkpt>
      <trkpt lat="50.659677" lon="7.109806">
      </trkpt>
      <trkpt lat="50.659718" lon="7.108732">
      </trkpt>
      <trkpt lat="50.659763" lon="7.107752">
      </trkpt>
      <trkpt lat="50.65969" lon="7.106867">
      </trkpt>
      <trkpt lat="50.659781" lon="7.105915">
      </trkpt>
      <trkpt lat="50.659325" lon="7.105055">
      </trkpt>
      <trkpt lat="50.658791" lon="7.10466">
      </trkpt>
      <trkpt lat="50.658294" lon="7.104308">
      </trkpt>
      <trkpt lat="50.657664" lon="7.103652">
      </trkpt>
      <trkpt lat="50.65732" lon="7.102742">
      </trkpt>
      <trkpt lat="50.656992" lon="7.101987">
      </trkpt>
      <trkpt lat="50.656757" lon="7.101148">
      </trkpt>
      <trkpt lat="50.65631" lon="7.10025">
      </trkpt>
      <trkpt lat="50.655866" lon="7.099557">
      </trkpt>
      <trkpt lat="50.655417" lon="7.098838">
      </trkpt>
      <trkpt lat="50.654966" lon="7.098333">
      </trkpt>
      <trkpt lat="50.654414" lon="7.097884">
      </trkpt>
      <trkpt lat="50.653846" lon="7.097421">
      </trkpt>
      <trkpt lat="50.653412" lon="7.096913">
      </trkpt>
      <trkpt lat="50.652886" lon="7.096283">
      </trkpt>
      <trkpt lat="50.652403" lon="7.095634">
      </trkpt>
      <trkpt lat="50.651969" lon="7.094929">
      </trkpt>
      <trkpt lat="50.651598" lon="7.094232">
      </trkpt>
      <trkpt lat="50.651384" lon="7.093324">
      </trkpt>
      <trkpt lat="50.650818" lon="7.093609">
      </trkpt>
      <trkpt lat="50.650254" lon="7.093868">
      </trkpt>
      <trkpt lat="50.650983" lon="7.093525">
      </trkpt>
      <trkpt lat="50.65114" lon="7.092665">
      </trkpt>
      <trkpt lat="50.65085" lon="7.091947">
      </trkpt>
      <trkpt lat="50.650525" lon="7.091145">
      </trkpt>
      <trkpt lat="50.65022" lon="7.090386">
      </trkpt>
      <trkpt lat="50.649866" lon="7.089696">
      </trkpt>
      <trkpt lat="50.649458" lon="7.088902">
      </trkpt>
      <trkpt lat="50.649044" lon="7.088021">
      </trkpt>
      <trkpt lat="50.648778" lon="7.087087">
      </trkpt>
      <trkpt lat="50.648227" lon="7.087111">
      </trkpt>
      <trkpt lat="50.647897" lon="7.086388">
      </trkpt>
      <trkpt lat="50.647475" lon="7.085462">
      </trkpt>
      <trkpt lat="50.647146" lon="7.084744">
      </trkpt>
      <trkpt lat="50.646776" lon="7.083944">
      </trkpt>
      <trkpt lat="50.64623" lon="7.083235">
      </trkpt>
      <trkpt lat="50.646142" lon="7.082304">
      </trkpt>
      <trkpt lat="50.645479" lon="7.081915">
      </trkpt>
      <trkpt lat="50.644957" lon="7.081653">
      </trkpt>
      <trkpt lat="50.645053" lon="7.080482">
      </trkpt>
      <trkpt lat="50.645126" lon="7.079588">
      </trkpt>
      <trkpt lat="50.645207" lon="7.078588">
      </trkpt>
      <trkpt lat="50.64529" lon="7.077573">
      </trkpt>
      <trkpt lat="50.645359" lon="7.076727">
      </trkpt>
      <trkpt lat="50.644735" lon="7.076213">
      </trkpt>
      <trkpt lat="50.64398" lon="7.075986">
      </trkpt>
      <trkpt lat="50.643262" lon="7.075771">
      </trkpt>
      <trkpt lat="50.642719" lon="7.075608">
      </trkpt>
      <trkpt lat="50.642074" lon="7.075414">
      </trkpt>
      <trkpt lat="50.641476" lon="7.075235">
      </trkpt>
      <trkpt lat="50.640804" lon="7.074687">
      </trkpt>
      <trkpt lat="50.640343" lon="7.073995">
      </trkpt>
      <trkpt lat="50.640401" lon="7.073027">
      </trkpt>
      <trkpt lat="50.640523" lon="7.071977">
      </trkpt>
      <trkpt lat="50.640677" lon="7.070918">
      </trkpt>
      <trkpt lat="50.640803" lon="7.070052">
      </trkpt>
      <trkpt lat="50.640951" lon="7.069182">
      </trkpt>
      <trkpt lat="50.641133" lon="7.068217">
      </trkpt>
      <trkpt lat="50.641264" lon="7.06737">
      </trkpt>
      <trkpt lat="50.641335" lon="7.066466">
      </trkpt>
      <trkpt lat="50.641427" lon="7.06528">
      </trkpt>
      <trkpt lat="50.641522" lon="7.064066">
      </trkpt>
      <trkpt lat="50.641595" lon="7.063127">
      </trkpt>
      <trkpt lat="50.641662" lon="7.062271">
      </trkpt>
      <trkpt lat="50.641736" lon="7.061324">
      </trkpt>
      <trkpt lat="50.642333" lon="7.060865">
      </trkpt>
      <trkpt lat="50.643004" lon="7.060974">
      </trkpt>
      <trkpt lat="50.643635" lon="7.061077">
      </trkpt>
      <trkpt lat="50.644296" lon="7.061186">
      </trkpt>
      <trkpt lat="50.645155" lon="7.061326">
      </trkpt>
      <trkpt lat="50.645977" lon="7.061461">
      </trkpt>
      <trkpt lat="50.646589" lon="7.061561">
      </trkpt>
      <trkpt lat="50.647213" lon="7.061663">
      </trkpt>
      <trkpt lat="50.647907" lon="7.061776">
      </trkpt>
      <trkpt lat="50.64868" lon="7.061903">
      </trkpt>
      <trkpt lat="50.649388" lon="7.062019">
      </trkpt>
      <trkpt lat="50.649955" lon="7.062111">
      </trkpt>
      <trkpt lat="50.650564" lon="7.062211">
      </trkpt>
      <trkpt lat="50.651133" lon="7.062304">
      </trkpt>
      <trkpt lat="50.651739" lon="7.062398">
      </trkpt>
      <trkpt lat="50.65237" lon="7.062496">
      </trkpt>
      <trkpt lat="50.653128" lon="7.062613">
      </trkpt>
      <trkpt lat="50.653788" lon="7.062715">
      </trkpt>
      <trkpt lat="50.654381" lon="7.062805">
      </trkpt>
      <trkpt lat="50.65505" lon="7.062988">
      </trkpt>
      <trkpt lat="50.655783" lon="7.063215">
      </trkpt>
      <trkpt lat="50.656348" lon="7.06339">
      </trkpt>
      <trkpt lat="50.657094" lon="7.063622">
      </trkpt>
      <trkpt lat="50.657883" lon="7.063866">
      </trkpt>
      <trkpt lat="50.658514" lon="7.064062">
      </trkpt>
      <trkpt lat="50.659101" lon="7.06423">
      </trkpt>
      <trkpt lat="50.659672" lon="7.064389">
      </trkpt>
      <trkpt lat="50.660427" lon="7.064598">
      </trkpt>
      <trkpt lat="50.660989" lon="7.064754">
      </trkpt>
      <trkpt lat="50.661574" lon="7.064916">
      </trkpt>
      <trkpt lat="50.662109" lon="7.065065">
      </trkpt>
      <trkpt lat="50.662657" lon="7.065217">
      </trkpt>
      <trkpt lat="50.66299" lon="7.065888">
      </trkpt>
      <trkpt lat="50.663294" lon="7.066796">
      </trkpt>
      <trkpt lat="50.663585" lon="7.067666">
      </trkpt>
      <trkpt lat="50.663884" lon="7.068558">
      </trkpt>
      <trkpt lat="50.664183" lon="7.069451">
      </trkpt>
      <trkpt lat="50.664449" lon="7.070251">
      </trkpt>
      <trkpt lat="50.664715" lon="7.071126">
      </trkpt>
      <trkpt lat="50.664973" lon="7.071969">
      </trkpt>
      <trkpt lat="50.665249" lon="7.072822">
      </trkpt>
      <trkpt lat="50.665575" lon="7.073747">
      </trkpt>
      <trkpt lat="50.665905" lon="7.074685">
      </trkpt>
      <trkpt lat="50.666169" lon="7.075433">
      </trkpt>
      <trkpt lat="50.666497" lon="7.076406">
      </trkpt>
      <trkpt lat="50.666761" lon="7.077226">
      </trkpt>
      <trkpt lat="50.667016" lon="7.078015">
      </trkpt>
      <trkpt lat="50.667284" lon="7.078847">
      </trkpt>
      <trkpt lat="50.667563" lon="7.079711">
      </trkpt>
      <trkpt lat="50.667929" lon="7.080846">
      </trkpt>
      <trkpt lat="50.668188" lon="7.081648">
      </trkpt>
      <trkpt lat="50.668446" lon="7.082448">
      </trkpt>
      <trkpt lat="50.668701" lon="7.083201">
      </trkpt>
      <trkpt lat="50.668993" lon="7.084093">
      </trkpt>
      <trkpt lat="50.669505" lon="7.083728">
      </trkpt>
      <trkpt lat="50.670003" lon="7.083311">
      </trkpt>
      <trkpt lat="50.670692" lon="7.082732">
      </trkpt>
      <trkpt lat="50.671353" lon="7.082179">
      </trkpt>
      <trkpt lat="50.671954" lon="7.082205">
      </trkpt>
      <trkpt lat="50.672444" lon="7.082855">
      </trkpt>
      <trkpt lat="50.672984" lon="7.083408">
      </trkpt>
      <trkpt lat="50.673455" lon="7.083954">
      </trkpt>
      <trkpt lat="50.67402" lon="7.084149">
      </trkpt>
      <trkpt lat="50.674538" lon="7.083896">
      </trkpt>
      <trkpt lat="50.675094" lon="7.084001">
      </trkpt>
      <trkpt lat="50.675666" lon="7.084154">
      </trkpt>
      <trkpt lat="50.676265" lon="7.084358">
      </trkpt>
      <trkpt lat="50.676832" lon="7.08466">
      </trkpt>
      <trkpt lat="50.677381" lon="7.085176">
      </trkpt>
      <trkpt lat="50.677899" lon="7.085646">
      </trkpt>
      <trkpt lat="50.678382" lon="7.086044">
      </trkpt>
      <trkpt lat="50.679027" lon="7.086264">
      </trkpt>
      <trkpt lat="50.679688" lon="7.086167">
      </trkpt>
      <trkpt lat="50.680245" lon="7.085939">
      </trkpt>
      <trkpt lat="50.680928" lon="7.085904">
      </trkpt>
      <trkpt lat="50.681496" lon="7.08546">
      </trkpt>
      <trkpt lat="50.681878" lon="7.084694">
      </trkpt>
      <trkpt lat="50.682462" lon="7.084337">
      </trkpt>
      <trkpt lat="50.682998" lon="7.084068">
      </trkpt>
      <trkpt lat="50.683555" lon="7.083889">
      </trkpt>
      <trkpt lat="50.684078" lon="7.083668">
      </trkpt>
      <trkpt lat="50.684608" lon="7.083931">
      </trkpt>
      <trkpt lat="50.685154" lon="7.084748">
      </trkpt>
      <trkpt lat="50.685544" lon="7.085574">
      </trkpt>
      <trkpt lat="50.685796" lon="7.086377">
      </trkpt>
      <trkpt lat="50.685432" lon="7.087204">
      </trkpt>
      <trkpt lat="50.68507" lon="7.088032">
      </trkpt>
      <trkpt lat="50.684707" lon="7.088853">
      </trkpt>
      <trkpt lat="50.684386" lon="7.08972">
      </trkpt>
      <trkpt lat="50.684701" lon="7.090508">
      </trkpt>
      <trkpt lat="50.684932" lon="7.091288">
      </trkpt>
      <trkpt lat="50.685289" lon="7.092155">
      </trkpt>
      <trkpt lat="50.685527" lon="7.093002">
      </trkpt>
      <trkpt lat="50.685771" lon="7.093824">
      </trkpt>
      <trkpt lat="50.685934" lon="7.094696">
      </trkpt>
      <trkpt lat="50.686141" lon="7.095555">
      </trkpt>
      <trkpt lat="50.686339" lon="7.096414">
      </trkpt>
      <trkpt lat="50.686868" lon="7.097191">
      </trkpt>
      <trkpt lat="50.687363" lon="7.097967">
      </trkpt>
      <trkpt lat="50.687891" lon="7.098482">
      </trkpt>
      <trkpt lat="50.688442" lon="7.098962">
      </trkpt>
      <trkpt lat="50.688994" lon="7.099575">
      </trkpt>
      <trkpt lat="50.689511" lon="7.09997">
      </trkpt>
      <trkpt lat="50.690116" lon="7.100127">
      </trkpt>
      <trkpt lat="50.690671" lon="7.099907">
      </trkpt>
      <trkpt lat="50.691212" lon="7.09983">
      </trkpt>
      <trkpt lat="50.691499" lon="7.099108">
      </trkpt>
      <trkpt lat="50.692048" lon="7.099068">
      </trkpt>
      <trkpt lat="50.69253" lon="7.099455">
      </trkpt>
      <trkpt lat="50.692972" lon="7.098963">
      </trkpt>
      <trkpt lat="50.69349" lon="7.099314">
      </trkpt>
      <trkpt lat="50.694047" lon="7.099047">
      </trkpt>
      <trkpt lat="50.694598" lon="7.09852">
      </trkpt>
      <trkpt lat="50.694906" lon="7.097813">
      </trkpt>
      <trkpt lat="50.69526" lon="7.097079">
      </trkpt>
      <trkpt lat="50.695872" lon="7.096779">
      </trkpt>
      <trkpt lat="50.696493" lon="7.09679">
      </trkpt>
      <trkpt lat="50.697118" lon="7.096876">
      </trkpt>
      <trkpt lat="50.697696" lon="7.096969">
      </trkpt>
      <trkpt lat="50.698035" lon="7.096105">
      </trkpt>
      <trkpt lat="50.698257" lon="7.09526">
      </trkpt>
      <trkpt lat="50.698481" lon="7.09437">
      </trkpt>
      <trkpt lat="50.698857" lon="7.093735">
      </trkpt>
      <trkpt lat="50.699139" lon="7.092832">
      </trkpt>
      <trkpt lat="50.699687" lon="7.09234">
      </trkpt>
      <trkpt lat="50.700101" lon="7.09179">
      </trkpt>
      <trkpt lat="50.700195" lon="7.090927">
      </trkpt>
      <trkpt lat="50.70077" lon="7.09026">
      </trkpt>
      <trkpt lat="50.701306" lon="7.090011">
      </trkpt>
      <trkpt lat="50.701905" lon="7.089613">
      </trkpt>
      <trkpt lat="50.702363" lon="7.089116">
      </trkpt>
      <trkpt lat="50.702929" lon="7.088943">
      </trkpt>
      <trkpt lat="50.702764" lon="7.088066">
      </trkpt>
      <trkpt lat="50.702694" lon="7.087159">
      </trkpt>
      <trkpt lat="50.702645" lon="7.086158">
      </trkpt>
      <trkpt lat="50.703383" lon="7.085653">
      </trkpt>
      <trkpt lat="50.703919" lon="7.085495">
      </trkpt>
      <trkpt lat="50.704393" lon="7.084916">
      </trkpt>
      <trkpt lat="50.704939" lon="7.084698">
      </trkpt>
      <trkpt lat="50.705684" lon="7.084923">
      </trkpt>
      <trkpt lat="50.706159" lon="7.085353">
      </trkpt>
      <trkpt lat="50.706767" lon="7.085831">
      </trkpt>
      <trkpt lat="50.707306" lon="7.085372">
      </trkpt>
      <trkpt lat="50.707805" lon="7.085828">
      </trkpt>
      <trkpt lat="50.708466" lon="7.086276">
      </trkpt>
      <trkpt lat="50.708994" lon="7.086684">
      </trkpt>
      <trkpt lat="50.709638" lon="7.087011">
      </trkpt>
      <trkpt lat="50.710197" lon="7.087232">
      </trkpt>
      <trkpt lat="50.710708" lon="7.087631">
      </trkpt>
      <trkpt lat="50.711308" lon="7.087994">
      </trkpt>
      <trkpt lat="50.711421" lon="7.089111">
      </trkpt>
      <trkpt lat="50.712043" lon="7.089481">
      </trkpt>
      <trkpt lat="50.712836" lon="7.089632">
      </trkpt>
      <trkpt lat="50.713393" lon="7.089758">
      </trkpt>
      <trkpt lat="50.713768" lon="7.090399">
      </trkpt>
      <trkpt lat="50.714271" lon="7.090092">
      </trkpt>
      <trkpt lat="50.714754" lon="7.08955">
      </trkpt>
      <trkpt lat="50.715256" lon="7.089198">
      </trkpt>
      <trkpt lat="50.715897" lon="7.088793">
      </trkpt>
      <trkpt lat="50.716534" lon="7.088244">
      </trkpt>
      <trkpt lat="50.717156" lon="7.087608">
      </trkpt>
      <trkpt lat="50.717791" lon="7.087218">
      </trkpt>
      <trkpt lat="50.718281" lon="7.086829">
      </trkpt>
      <trkpt lat="50.718376" lon="7.085769">
      </trkpt>
      <trkpt lat="50.718943" lon="7.085829">
      </trkpt>
      <trkpt lat="50.719479" lon="7.086422">
      </trkpt>
      <trkpt lat="50.719909" lon="7.087003">
      </trkpt>
      <trkpt lat="50.720544" lon="7.08733">
      </trkpt>
      <trkpt lat="50.721163" lon="7.08785">
      </trkpt>
      <trkpt lat="50.721726" lon="7.088302">
      </trkpt>
      <trkpt lat="50.722246" lon="7.088647">
      </trkpt>
      <trkpt lat="50.722754" lon="7.088979">
      </trkpt>
      <trkpt lat="50.723289" lon="7.089338">
      </trkpt>
      <trkpt lat="50.723785" lon="7.089704">
      </trkpt>
      <trkpt lat="50.7243" lon="7.090252">
      </trkpt>
      <trkpt lat="50.724855" lon="7.09059">
      </trkpt>
      <trkpt lat="50.72531" lon="7.091174">
      </trkpt>
      <trkpt lat="50.725717" lon="7.091763">
      </trkpt>
      <trkpt lat="50.725632" lon="7.09261">
      </trkpt>
      <trkpt lat="50.726106" lon="7.093415">
      </trkpt>
      <trkpt lat="50.726429" lon="7.094146">
      </trkpt>
      <trkpt lat="50.72706" lon="7.094959">
      </trkpt>
      <trkpt lat="50.727459" lon="7.095585">
      </trkpt>
      <trkpt lat="50.727927" lon="7.096156">
      </trkpt>
      <trkpt lat="50.728408" lon="7.096781">
      </trkpt>
      <trkpt lat="50.728873" lon="7.097372">
      </trkpt>
      <trkpt lat="50.729348" lon="7.097974">
      </trkpt>
      <trkpt lat="50.729862" lon="7.098633">
      </trkpt>
      <trkpt lat="50.730305" lon="7.099206">
      </trkpt>
      <trkpt lat="50.730834" lon="7.098845">
      </trkpt>
      <trkpt lat="50.731162" lon="7.099614">
      </trkpt>
      <trkpt lat="50.731851" lon="7.098948">
      </trkpt>
      <trkpt lat="50.731995" lon="7.099809">
      </trkpt>
      <trkpt lat="50.731813" lon="7.100672">
      </trkpt>
      <trkpt lat="50.73221" lon="7.101591">
      </trkpt>
      <trkpt lat="50.732724" lon="7.10234">
      </trkpt>
      <trkpt lat="50.733259" lon="7.103013">
      </trkpt>
      <trkpt lat="50.733712" lon="7.103582">
      </trkpt>
      <trkpt lat="50.734144" lon="7.104189">
      </trkpt>
      <trkpt lat="50.734553" lon="7.103626">
      </trkpt>
      <trkpt lat="50.734177" lon="7.104346">
      </trkpt>
      <trkpt lat="50.733638" lon="7.103744">
      </trkpt>
    </trkseg>
  </trk>
</gpx>