<?xml version="1.0" encoding="UTF-8"?>
<gpx xmlns="http://www.topografix.com/GPX/1/1" xmlns:xsi="http://www.w3.org/2001/XMLSchema-instance" xsi:schemaLocation="http://www.topografix.com/GPX/1/1 http://www.topografix.com/GPX/1/1/gpx.xsd" version="1.1" creator="gpx.py -- https://github.com/tkrajina/gpxpy">
  <metadata>
    <name>024</name>
  </metadata>
  <trk>
    <name>024</name>
    <trkseg>
      <trkpt lat="50.734361" lon="7.103825">
      </trkpt>
      <trkpt lat="50.733422" lon="7.104426">
      </trkpt>
      <trkpt lat="50.732878" lon="7.105476">
      </trkpt>
      <trkpt lat="50.732366" lon="7.105861">
      </trkpt>
      <trkpt lat="50.731509" lon="7.105369">
      </trkpt>
      <trkpt lat="50.731133" lon="7.104666">
      </trkpt>
      <trkpt lat="50.730319" lon="7.105444">
      </trkpt>
      <trkpt lat="50.729819" lon="7.10589">
      </trkpt>
      <trkpt lat="50.729274" lon="7.105665">
      </trkpt>
      <trkpt lat="50.728831" lon="7.104197">
      </trkpt>
      <trkpt lat="50.728812" lon="7.103128">
      </trkpt>
      <trkpt lat="50.728259" lon="7.102918">
      </trkpt>
      <trkpt lat="50.727627" lon="7.103409">
      </trkpt>
      <trkpt lat="50.726968" lon="7.103949">
      </trkpt>
      <trkpt lat="50.726808" lon="7.104896">
      </trkpt>
      <trkpt lat="50.726096" lon="7.105585">
      </trkpt>
      <trkpt lat="50.725027" lon="7.106264">
      </trkpt>
      <trkpt lat="50.72451" lon="7.106607">
      </trkpt>
      <trkpt lat="50.72308" lon="7.106822">
      </trkpt>
      <trkpt lat="50.722255" lon="7.106849">
      </trkpt>
      <trkpt lat="50.721001" lon="7.106893">
      </trkpt>
      <trkpt lat="50.72042" lon="7.106658">
      </trkpt>
      <trkpt lat="50.719594" lon="7.106606">
      </trkpt>
      <trkpt lat="50.71927" lon="7.105759">
      </trkpt>
      <trkpt lat="50.718575" lon="7.105667">
      </trkpt>
      <trkpt lat="50.718371" lon="7.104828">
      </trkpt>
      <trkpt lat="50.717441" lon="7.104936">
      </trkpt>
      <trkpt lat="50.71694" lon="7.104565">
      </trkpt>
      <trkpt lat="50.716536" lon="7.103945">
      </trkpt>
      <trkpt lat="50.716447" lon="7.103026">
      </trkpt>
      <trkpt lat="50.716473" lon="7.102126">
      </trkpt>
      <trkpt lat="50.716694" lon="7.100387">
      </trkpt>
      <trkpt lat="50.716972" lon="7.099318">
      </trkpt>
      <trkpt lat="50.71726" lon="7.098373">
      </trkpt>
      <trkpt lat="50.717396" lon="7.097341">
      </trkpt>
      <trkpt lat="50.717631" lon="7.096557">
      </trkpt>
      <trkpt lat="50.718184" lon="7.095824">
      </trkpt>
      <trkpt lat="50.718393" lon="7.094894">
      </trkpt>
      <trkpt lat="50.718324" lon="7.093907">
      </trkpt>
      <trkpt lat="50.718159" lon="7.094824">
      </trkpt>
      <trkpt lat="50.717484" lon="7.095381">
      </trkpt>
      <trkpt lat="50.71698" lon="7.095889">
      </trkpt>
      <trkpt lat="50.716615" lon="7.096596">
      </trkpt>
      <trkpt lat="50.716117" lon="7.097062">
      </trkpt>
      <trkpt lat="50.715709" lon="7.097981">
      </trkpt>
      <trkpt lat="50.715141" lon="7.098324">
      </trkpt>
      <trkpt lat="50.7146" lon="7.098987">
      </trkpt>
      <trkpt lat="50.714271" lon="7.099759">
      </trkpt>
      <trkpt lat="50.714475" lon="7.098195">
      </trkpt>
      <trkpt lat="50.714755" lon="7.096831">
      </trkpt>
      <trkpt lat="50.714638" lon="7.095831">
      </trkpt>
      <trkpt lat="50.713779" lon="7.095082">
      </trkpt>
      <trkpt lat="50.71281" lon="7.096204">
      </trkpt>
      <trkpt lat="50.712085" lon="7.096278">
      </trkpt>
      <trkpt lat="50.711445" lon="7.096153">
      </trkpt>
      <trkpt lat="50.710894" lon="7.096324">
      </trkpt>
      <trkpt lat="50.710261" lon="7.096518">
      </trkpt>
      <trkpt lat="50.709718" lon="7.096939">
      </trkpt>
      <trkpt lat="50.708895" lon="7.097199">
      </trkpt>
      <trkpt lat="50.708292" lon="7.097499">
      </trkpt>
      <trkpt lat="50.707675" lon="7.09791">
      </trkpt>
      <trkpt lat="50.707148" lon="7.09824">
      </trkpt>
      <trkpt lat="50.706559" lon="7.098527">
      </trkpt>
      <trkpt lat="50.706048" lon="7.099063">
      </trkpt>
      <trkpt lat="50.706032" lon="7.100001">
      </trkpt>
      <trkpt lat="50.705941" lon="7.100881">
      </trkpt>
      <trkpt lat="50.70591" lon="7.1019">
      </trkpt>
      <trkpt lat="50.705578" lon="7.103227">
      </trkpt>
      <trkpt lat="50.704715" lon="7.103517">
      </trkpt>
      <trkpt lat="50.704128" lon="7.103639">
      </trkpt>
      <trkpt lat="50.70348" lon="7.104369">
      </trkpt>
      <trkpt lat="50.70279" lon="7.104363">
      </trkpt>
      <trkpt lat="50.702501" lon="7.105236">
      </trkpt>
      <trkpt lat="50.702044" lon="7.105695">
      </trkpt>
      <trkpt lat="50.701615" lon="7.10658">
      </trkpt>
      <trkpt lat="50.701241" lon="7.107247">
      </trkpt>
      <trkpt lat="50.700575" lon="7.107553">
      </trkpt>
      <trkpt lat="50.699805" lon="7.107807">
      </trkpt>
      <trkpt lat="50.699244" lon="7.107649">
      </trkpt>
      <trkpt lat="50.697455" lon="7.10836">
      </trkpt>
      <trkpt lat="50.696903" lon="7.108707">
      </trkpt>
      <trkpt lat="50.696166" lon="7.108604">
      </trkpt>
      <trkpt lat="50.694492" lon="7.107933">
      </trkpt>
      <trkpt lat="50.693813" lon="7.10733">
      </trkpt>
      <trkpt lat="50.693307" lon="7.106932">
      </trkpt>
      <trkpt lat="50.692776" lon="7.106071">
      </trkpt>
      <trkpt lat="50.692026" lon="7.106154">
      </trkpt>
      <trkpt lat="50.691027" lon="7.106757">
      </trkpt>
      <trkpt lat="50.690496" lon="7.107407">
      </trkpt>
      <trkpt lat="50.689827" lon="7.107172">
      </trkpt>
      <trkpt lat="50.689182" lon="7.107447">
      </trkpt>
      <trkpt lat="50.688501" lon="7.107274">
      </trkpt>
      <trkpt lat="50.687782" lon="7.107011">
      </trkpt>
      <trkpt lat="50.6874" lon="7.108148">
      </trkpt>
      <trkpt lat="50.68611" lon="7.110248">
      </trkpt>
      <trkpt lat="50.683526" lon="7.114443">
      </trkpt>
      <trkpt lat="50.683151" lon="7.115345">
      </trkpt>
      <trkpt lat="50.682644" lon="7.116548">
      </trkpt>
      <trkpt lat="50.682065" lon="7.117767">
      </trkpt>
      <trkpt lat="50.681978" lon="7.118711">
      </trkpt>
      <trkpt lat="50.680126" lon="7.118024">
      </trkpt>
      <trkpt lat="50.680486" lon="7.119154">
      </trkpt>
      <trkpt lat="50.679917" lon="7.119319">
      </trkpt>
      <trkpt lat="50.678376" lon="7.120414">
      </trkpt>
      <trkpt lat="50.677819" lon="7.120526">
      </trkpt>
      <trkpt lat="50.67721" lon="7.120407">
      </trkpt>
      <trkpt lat="50.676764" lon="7.120947">
      </trkpt>
      <trkpt lat="50.676063" lon="7.121482">
      </trkpt>
      <trkpt lat="50.675887" lon="7.122609">
      </trkpt>
      <trkpt lat="50.676187" lon="7.124827">
      </trkpt>
      <trkpt lat="50.676256" lon="7.125828">
      </trkpt>
      <trkpt lat="50.675848" lon="7.126578">
      </trkpt>
      <trkpt lat="50.675239" lon="7.127371">
      </trkpt>
      <trkpt lat="50.675065" lon="7.128371">
      </trkpt>
      <trkpt lat="50.674943" lon="7.129563">
      </trkpt>
      <trkpt lat="50.675111" lon="7.130782">
      </trkpt>
      <trkpt lat="50.675433" lon="7.131529">
      </trkpt>
      <trkpt lat="50.675997" lon="7.132355">
      </trkpt>
      <trkpt lat="50.676113" lon="7.133327">
      </trkpt>
      <trkpt lat="50.676514" lon="7.133951">
      </trkpt>
      <trkpt lat="50.676564" lon="7.135386">
      </trkpt>
      <trkpt lat="50.675596" lon="7.136536">
      </trkpt>
      <trkpt lat="50.675014" lon="7.137106">
      </trkpt>
      <trkpt lat="50.674071" lon="7.139118">
      </trkpt>
      <trkpt lat="50.672611" lon="7.137638">
      </trkpt>
      <trkpt lat="50.672092" lon="7.13714">
      </trkpt>
      <trkpt lat="50.671333" lon="7.137961">
      </trkpt>
      <trkpt lat="50.670593" lon="7.138051">
      </trkpt>
      <trkpt lat="50.66988" lon="7.138359">
      </trkpt>
      <trkpt lat="50.667753" lon="7.140721">
      </trkpt>
      <trkpt lat="50.666469" lon="7.141891">
      </trkpt>
      <trkpt lat="50.66646" lon="7.143673">
      </trkpt>
      <trkpt lat="50.666815" lon="7.144676">
      </trkpt>
      <trkpt lat="50.66764" lon="7.14551">
      </trkpt>
      <trkpt lat="50.66815" lon="7.146224">
      </trkpt>
      <trkpt lat="50.668203" lon="7.147287">
      </trkpt>
      <trkpt lat="50.668491" lon="7.148152">
      </trkpt>
      <trkpt lat="50.667692" lon="7.147616">
      </trkpt>
      <trkpt lat="50.66691" lon="7.147314">
      </trkpt>
      <trkpt lat="50.66616" lon="7.147608">
      </trkpt>
      <trkpt lat="50.66553" lon="7.148252">
      </trkpt>
      <trkpt lat="50.665892" lon="7.149697">
      </trkpt>
      <trkpt lat="50.666181" lon="7.150913">
      </trkpt>
      <trkpt lat="50.666266" lon="7.151905">
      </trkpt>
      <trkpt lat="50.66616" lon="7.153128">
      </trkpt>
      <trkpt lat="50.665842" lon="7.154105">
      </trkpt>
      <trkpt lat="50.665362" lon="7.155012">
      </trkpt>
      <trkpt lat="50.665526" lon="7.156154">
      </trkpt>
      <trkpt lat="50.665702" lon="7.156996">
      </trkpt>
      <trkpt lat="50.664879" lon="7.157143">
      </trkpt>
      <trkpt lat="50.665" lon="7.158073">
      </trkpt>
      <trkpt lat="50.665237" lon="7.159276">
      </trkpt>
      <trkpt lat="50.665492" lon="7.160398">
      </trkpt>
      <trkpt lat="50.665308" lon="7.161491">
      </trkpt>
      <trkpt lat="50.664823" lon="7.162222">
      </trkpt>
      <trkpt lat="50.664296" lon="7.161802">
      </trkpt>
      <trkpt lat="50.663626" lon="7.161276">
      </trkpt>
      <trkpt lat="50.66272" lon="7.161431">
      </trkpt>
      <trkpt lat="50.662053" lon="7.161631">
      </trkpt>
      <trkpt lat="50.662006" lon="7.1627">
      </trkpt>
      <trkpt lat="50.661157" lon="7.163072">
      </trkpt>
      <trkpt lat="50.661373" lon="7.164087">
      </trkpt>
      <trkpt lat="50.661245" lon="7.164999">
      </trkpt>
      <trkpt lat="50.661243" lon="7.16616">
      </trkpt>
      <trkpt lat="50.661532" lon="7.166943">
      </trkpt>
      <trkpt lat="50.661901" lon="7.167618">
      </trkpt>
      <trkpt lat="50.662371" lon="7.168607">
      </trkpt>
      <trkpt lat="50.663121" lon="7.169544">
      </trkpt>
      <trkpt lat="50.663626" lon="7.170081">
      </trkpt>
      <trkpt lat="50.664339" lon="7.170921">
      </trkpt>
      <trkpt lat="50.664955" lon="7.171921">
      </trkpt>
      <trkpt lat="50.665411" lon="7.173239">
      </trkpt>
      <trkpt lat="50.665703" lon="7.174158">
      </trkpt>
      <trkpt lat="50.666171" lon="7.175755">
      </trkpt>
      <trkpt lat="50.666497" lon="7.176813">
      </trkpt>
      <trkpt lat="50.666909" lon="7.178076">
      </trkpt>
      <trkpt lat="50.667285" lon="7.179011">
      </trkpt>
      <trkpt lat="50.667604" lon="7.179852">
      </trkpt>
      <trkpt lat="50.667891" lon="7.180666">
      </trkpt>
      <trkpt lat="50.668194" lon="7.181507">
      </trkpt>
      <trkpt lat="50.668521" lon="7.182254">
      </trkpt>
      <trkpt lat="50.66881" lon="7.18304">
      </trkpt>
      <trkpt lat="50.669377" lon="7.184401">
      </trkpt>
      <trkpt lat="50.669817" lon="7.185432">
      </trkpt>
      <trkpt lat="50.670123" lon="7.186333">
      </trkpt>
      <trkpt lat="50.67052" lon="7.187587">
      </trkpt>
      <trkpt lat="50.670774" lon="7.188372">
      </trkpt>
      <trkpt lat="50.671821" lon="7.190368">
      </trkpt>
      <trkpt lat="50.672745" lon="7.191954">
      </trkpt>
      <trkpt lat="50.672352" lon="7.192705">
      </trkpt>
      <trkpt lat="50.671884" lon="7.19333">
      </trkpt>
      <trkpt lat="50.671796" lon="7.194542">
      </trkpt>
      <trkpt lat="50.672716" lon="7.194854">
      </trkpt>
      <trkpt lat="50.673388" lon="7.194755">
      </trkpt>
      <trkpt lat="50.673984" lon="7.194285">
      </trkpt>
      <trkpt lat="50.674287" lon="7.195308">
      </trkpt>
      <trkpt lat="50.674532" lon="7.196554">
      </trkpt>
      <trkpt lat="50.675213" lon="7.196274">
      </trkpt>
      <trkpt lat="50.675887" lon="7.195904">
      </trkpt>
      <trkpt lat="50.676871" lon="7.195058">
      </trkpt>
      <trkpt lat="50.677623" lon="7.194272">
      </trkpt>
      <trkpt lat="50.677912" lon="7.19515">
      </trkpt>
      <trkpt lat="50.678326" lon="7.196421">
      </trkpt>
      <trkpt lat="50.67838" lon="7.19775">
      </trkpt>
      <trkpt lat="50.679273" lon="7.197151">
      </trkpt>
      <trkpt lat="50.679858" lon="7.196772">
      </trkpt>
      <trkpt lat="50.680233" lon="7.197891">
      </trkpt>
      <trkpt lat="50.680846" lon="7.198304">
      </trkpt>
      <trkpt lat="50.681337" lon="7.198867">
      </trkpt>
      <trkpt lat="50.681444" lon="7.198029">
      </trkpt>
      <trkpt lat="50.681412" lon="7.197046">
      </trkpt>
      <trkpt lat="50.681612" lon="7.195892">
      </trkpt>
      <trkpt lat="50.681348" lon="7.195022">
      </trkpt>
      <trkpt lat="50.682018" lon="7.194073">
      </trkpt>
      <trkpt lat="50.682581" lon="7.193187">
      </trkpt>
      <trkpt lat="50.683265" lon="7.192456">
      </trkpt>
      <trkpt lat="50.68428" lon="7.191626">
      </trkpt>
      <trkpt lat="50.685591" lon="7.190887">
      </trkpt>
      <trkpt lat="50.68625" lon="7.190684">
      </trkpt>
      <trkpt lat="50.686809" lon="7.191284">
      </trkpt>
      <trkpt lat="50.687166" lon="7.192125">
      </trkpt>
      <trkpt lat="50.687862" lon="7.192766">
      </trkpt>
      <trkpt lat="50.688049" lon="7.193571">
      </trkpt>
      <trkpt lat="50.688576" lon="7.193758">
      </trkpt>
      <trkpt lat="50.688282" lon="7.194498">
      </trkpt>
      <trkpt lat="50.688587" lon="7.195255">
      </trkpt>
      <trkpt lat="50.689488" lon="7.194416">
      </trkpt>
      <trkpt lat="50.690033" lon="7.194219">
      </trkpt>
      <trkpt lat="50.690106" lon="7.195095">
      </trkpt>
      <trkpt lat="50.690104" lon="7.197149">
      </trkpt>
      <trkpt lat="50.689907" lon="7.198029">
      </trkpt>
      <trkpt lat="50.690736" lon="7.199366">
      </trkpt>
      <trkpt lat="50.690303" lon="7.200683">
      </trkpt>
      <trkpt lat="50.690067" lon="7.201552">
      </trkpt>
      <trkpt lat="50.690213" lon="7.202822">
      </trkpt>
      <trkpt lat="50.690425" lon="7.204179">
      </trkpt>
      <trkpt lat="50.690447" lon="7.205226">
      </trkpt>
      <trkpt lat="50.690391" lon="7.207109">
      </trkpt>
      <trkpt lat="50.690259" lon="7.208082">
      </trkpt>
      <trkpt lat="50.690068" lon="7.208941">
      </trkpt>
      <trkpt lat="50.688871" lon="7.210558">
      </trkpt>
      <trkpt lat="50.688444" lon="7.211914">
      </trkpt>
      <trkpt lat="50.687585" lon="7.213624">
      </trkpt>
      <trkpt lat="50.687452" lon="7.215051">
      </trkpt>
      <trkpt lat="50.687386" lon="7.216044">
      </trkpt>
      <trkpt lat="50.687697" lon="7.217018">
      </trkpt>
      <trkpt lat="50.687906" lon="7.21852">
      </trkpt>
      <trkpt lat="50.687904" lon="7.219824">
      </trkpt>
      <trkpt lat="50.687512" lon="7.220819">
      </trkpt>
      <trkpt lat="50.687372" lon="7.221815">
      </trkpt>
      <trkpt lat="50.687016" lon="7.223276">
      </trkpt>
      <trkpt lat="50.687013" lon="7.22483">
      </trkpt>
      <trkpt lat="50.687397" lon="7.225545">
      </trkpt>
      <trkpt lat="50.687959" lon="7.225789">
      </trkpt>
      <trkpt lat="50.688787" lon="7.225815">
      </trkpt>
      <trkpt lat="50.689746" lon="7.225464">
      </trkpt>
      <trkpt lat="50.690209" lon="7.226">
      </trkpt>
      <trkpt lat="50.690356" lon="7.226963">
      </trkpt>
      <trkpt lat="50.690361" lon="7.227997">
      </trkpt>
      <trkpt lat="50.690958" lon="7.228528">
      </trkpt>
      <trkpt lat="50.691632" lon="7.228621">
      </trkpt>
      <trkpt lat="50.692613" lon="7.227577">
      </trkpt>
      <trkpt lat="50.692958" lon="7.226571">
      </trkpt>
      <trkpt lat="50.693049" lon="7.22534">
      </trkpt>
      <trkpt lat="50.692726" lon="7.223983">
      </trkpt>
      <trkpt lat="50.692283" lon="7.223103">
      </trkpt>
      <trkpt lat="50.6915" lon="7.222717">
      </trkpt>
      <trkpt lat="50.690847" lon="7.222798">
      </trkpt>
      <trkpt lat="50.692029" lon="7.222203">
      </trkpt>
      <trkpt lat="50.692957" lon="7.222177">
      </trkpt>
      <trkpt lat="50.693517" lon="7.222298">
      </trkpt>
      <trkpt lat="50.693886" lon="7.222957">
      </trkpt>
      <trkpt lat="50.694437" lon="7.222367">
      </trkpt>
      <trkpt lat="50.694777" lon="7.221679">
      </trkpt>
      <trkpt lat="50.695952" lon="7.220486">
      </trkpt>
      <trkpt lat="50.696508" lon="7.221357">
      </trkpt>
      <trkpt lat="50.697147" lon="7.221722">
      </trkpt>
      <trkpt lat="50.697726" lon="7.22258">
      </trkpt>
      <trkpt lat="50.697949" lon="7.223389">
      </trkpt>
      <trkpt lat="50.698669" lon="7.22354">
      </trkpt>
      <trkpt lat="50.699167" lon="7.222824">
      </trkpt>
      <trkpt lat="50.699663" lon="7.22338">
      </trkpt>
      <trkpt lat="50.700496" lon="7.223505">
      </trkpt>
      <trkpt lat="50.701117" lon="7.222834">
      </trkpt>
      <trkpt lat="50.702516" lon="7.222424">
      </trkpt>
      <trkpt lat="50.702536" lon="7.223341">
      </trkpt>
      <trkpt lat="50.70356" lon="7.222983">
      </trkpt>
      <trkpt lat="50.704122" lon="7.22237">
      </trkpt>
      <trkpt lat="50.70475" lon="7.221563">
      </trkpt>
      <trkpt lat="50.705231" lon="7.221156">
      </trkpt>
      <trkpt lat="50.705698" lon="7.220619">
      </trkpt>
      <trkpt lat="50.706167" lon="7.2198">
      </trkpt>
      <trkpt lat="50.70671" lon="7.218415">
      </trkpt>
      <trkpt lat="50.707144" lon="7.217465">
      </trkpt>
      <trkpt lat="50.707359" lon="7.216665">
      </trkpt>
      <trkpt lat="50.707662" lon="7.215535">
      </trkpt>
      <trkpt lat="50.707817" lon="7.213482">
      </trkpt>
      <trkpt lat="50.707818" lon="7.210293">
      </trkpt>
      <trkpt lat="50.708184" lon="7.209479">
      </trkpt>
      <trkpt lat="50.708726" lon="7.209034">
      </trkpt>
      <trkpt lat="50.711213" lon="7.207225">
      </trkpt>
      <trkpt lat="50.711804" lon="7.207278">
      </trkpt>
      <trkpt lat="50.712503" lon="7.207145">
      </trkpt>
      <trkpt lat="50.712396" lon="7.205808">
      </trkpt>
      <trkpt lat="50.713118" lon="7.205239">
      </trkpt>
      <trkpt lat="50.712811" lon="7.204075">
      </trkpt>
      <trkpt lat="50.712517" lon="7.203079">
      </trkpt>
      <trkpt lat="50.712086" lon="7.202338">
      </trkpt>
      <trkpt lat="50.711609" lon="7.201422">
      </trkpt>
      <trkpt lat="50.711571" lon="7.200513">
      </trkpt>
      <trkpt lat="50.711487" lon="7.199562">
      </trkpt>
      <trkpt lat="50.712074" lon="7.198872">
      </trkpt>
      <trkpt lat="50.711648" lon="7.199445">
      </trkpt>
      <trkpt lat="50.712168" lon="7.198718">
      </trkpt>
      <trkpt lat="50.712797" lon="7.197467">
      </trkpt>
      <trkpt lat="50.71312" lon="7.196643">
      </trkpt>
      <trkpt lat="50.713181" lon="7.195751">
      </trkpt>
      <trkpt lat="50.713515" lon="7.194997">
      </trkpt>
      <trkpt lat="50.71428" lon="7.193234">
      </trkpt>
      <trkpt lat="50.714738" lon="7.191856">
      </trkpt>
      <trkpt lat="50.715116" lon="7.191039">
      </trkpt>
      <trkpt lat="50.71571" lon="7.189627">
      </trkpt>
      <trkpt lat="50.716218" lon="7.188981">
      </trkpt>
      <trkpt lat="50.716739" lon="7.188314">
      </trkpt>
      <trkpt lat="50.716825" lon="7.186736">
      </trkpt>
      <trkpt lat="50.716934" lon="7.184811">
      </trkpt>
      <trkpt lat="50.71702" lon="7.183813">
      </trkpt>
      <trkpt lat="50.716811" lon="7.182245">
      </trkpt>
      <trkpt lat="50.716715" lon="7.181075">
      </trkpt>
      <trkpt lat="50.716597" lon="7.180223">
      </trkpt>
      <trkpt lat="50.716444" lon="7.179318">
      </trkpt>
      <trkpt lat="50.715921" lon="7.17849">
      </trkpt>
      <trkpt lat="50.715442" lon="7.177932">
      </trkpt>
      <trkpt lat="50.714895" lon="7.178942">
      </trkpt>
      <trkpt lat="50.71439" lon="7.179759">
      </trkpt>
      <trkpt lat="50.713832" lon="7.179626">
      </trkpt>
      <trkpt lat="50.713279" lon="7.179347">
      </trkpt>
      <trkpt lat="50.71343" lon="7.178421">
      </trkpt>
      <trkpt lat="50.713653" lon="7.177155">
      </trkpt>
      <trkpt lat="50.713675" lon="7.175936">
      </trkpt>
      <trkpt lat="50.713514" lon="7.174911">
      </trkpt>
      <trkpt lat="50.714062" lon="7.174422">
      </trkpt>
      <trkpt lat="50.714878" lon="7.173809">
      </trkpt>
      <trkpt lat="50.717287" lon="7.17137">
      </trkpt>
      <trkpt lat="50.718598" lon="7.169959">
      </trkpt>
      <trkpt lat="50.719311" lon="7.170255">
      </trkpt>
      <trkpt lat="50.719667" lon="7.169395">
      </trkpt>
      <trkpt lat="50.720178" lon="7.168646">
      </trkpt>
      <trkpt lat="50.720808" lon="7.168572">
      </trkpt>
      <trkpt lat="50.721393" lon="7.168481">
      </trkpt>
      <trkpt lat="50.721512" lon="7.169768">
      </trkpt>
      <trkpt lat="50.722156" lon="7.169826">
      </trkpt>
      <trkpt lat="50.722815" lon="7.169224">
      </trkpt>
      <trkpt lat="50.723386" lon="7.169189">
      </trkpt>
      <trkpt lat="50.724039" lon="7.169731">
      </trkpt>
      <trkpt lat="50.724752" lon="7.169632">
      </trkpt>
      <trkpt lat="50.725535" lon="7.169411">
      </trkpt>
      <trkpt lat="50.726284" lon="7.16901">
      </trkpt>
      <trkpt lat="50.726772" lon="7.168419">
      </trkpt>
      <trkpt lat="50.727133" lon="7.167705">
      </trkpt>
      <trkpt lat="50.727538" lon="7.166541">
      </trkpt>
      <trkpt lat="50.727875" lon="7.165517">
      </trkpt>
      <trkpt lat="50.728398" lon="7.165859">
      </trkpt>
      <trkpt lat="50.728899" lon="7.166226">
      </trkpt>
      <trkpt lat="50.729655" lon="7.166987">
      </trkpt>
      <trkpt lat="50.730975" lon="7.16824">
      </trkpt>
      <trkpt lat="50.731481" lon="7.168833">
      </trkpt>
      <trkpt lat="50.731974" lon="7.169332">
      </trkpt>
      <trkpt lat="50.732397" lon="7.170068">
      </trkpt>
      <trkpt lat="50.732895" lon="7.169348">
      </trkpt>
      <trkpt lat="50.733417" lon="7.168474">
      </trkpt>
      <trkpt lat="50.733966" lon="7.167255">
      </trkpt>
      <trkpt lat="50.734195" lon="7.165623">
      </trkpt>
      <trkpt lat="50.734287" lon="7.164728">
      </trkpt>
      <trkpt lat="50.735204" lon="7.164618">
      </trkpt>
      <trkpt lat="50.73585" lon="7.164093">
      </trkpt>
      <trkpt lat="50.73759" lon="7.16289">
      </trkpt>
      <trkpt lat="50.738263" lon="7.161646">
      </trkpt>
      <trkpt lat="50.738542" lon="7.160182">
      </trkpt>
      <trkpt lat="50.738199" lon="7.159198">
      </trkpt>
      <trkpt lat="50.737803" lon="7.158194">
      </trkpt>
      <trkpt lat="50.737347" lon="7.157421">
      </trkpt>
      <trkpt lat="50.736506" lon="7.155984">
      </trkpt>
      <trkpt lat="50.736295" lon="7.154588">
      </trkpt>
      <trkpt lat="50.736163" lon="7.153682">
      </trkpt>
      <trkpt lat="50.735939" lon="7.152309">
      </trkpt>
      <trkpt lat="50.73572" lon="7.15135">
      </trkpt>
      <trkpt lat="50.735221" lon="7.150046">
      </trkpt>
      <trkpt lat="50.735824" lon="7.148466">
      </trkpt>
      <trkpt lat="50.736407" lon="7.148633">
      </trkpt>
      <trkpt lat="50.736011" lon="7.147564">
      </trkpt>
      <trkpt lat="50.73527" lon="7.147409">
      </trkpt>
      <trkpt lat="50.734703" lon="7.147365">
      </trkpt>
      <trkpt lat="50.733965" lon="7.146239">
      </trkpt>
      <trkpt lat="50.733568" lon="7.145246">
      </trkpt>
      <trkpt lat="50.733201" lon="7.14461">
      </trkpt>
      <trkpt lat="50.732693" lon="7.143865">
      </trkpt>
      <trkpt lat="50.732265" lon="7.143004">
      </trkpt>
      <trkpt lat="50.731919" lon="7.142109">
      </trkpt>
      <trkpt lat="50.731703" lon="7.141229">
      </trkpt>
      <trkpt lat="50.731808" lon="7.139805">
      </trkpt>
      <trkpt lat="50.732383" lon="7.139292">
      </trkpt>
      <trkpt lat="50.732697" lon="7.138214">
      </trkpt>
      <trkpt lat="50.732839" lon="7.13727">
      </trkpt>
      <trkpt lat="50.733174" lon="7.136533">
      </trkpt>
      <trkpt lat="50.732749" lon="7.135574">
      </trkpt>
      <trkpt lat="50.731955" lon="7.134582">
      </trkpt>
      <trkpt lat="50.732783" lon="7.133549">
      </trkpt>
      <trkpt lat="50.732761" lon="7.13204">
      </trkpt>
      <trkpt lat="50.732425" lon="7.131122">
      </trkpt>
      <trkpt lat="50.732093" lon="7.130241">
      </trkpt>
      <trkpt lat="50.731474" lon="7.12916">
      </trkpt>
      <trkpt lat="50.7326" lon="7.127582">
      </trkpt>
      <trkpt lat="50.733289" lon="7.126661">
      </trkpt>
      <trkpt lat="50.733765" lon="7.126012">
      </trkpt>
      <trkpt lat="50.734213" lon="7.125419">
      </trkpt>
      <trkpt lat="50.73471" lon="7.12456">
      </trkpt>
      <trkpt lat="50.735345" lon="7.123713">
      </trkpt>
      <trkpt lat="50.735061" lon="7.122573">
      </trkpt>
      <trkpt lat="50.734747" lon="7.121234">
      </trkpt>
      <trkpt lat="50.734117" lon="7.119726">
      </trkpt>
      <trkpt lat="50.734033" lon="7.118656">
      </trkpt>
      <trkpt lat="50.733803" lon="7.11766">
      </trkpt>
      <trkpt lat="50.733587" lon="7.116739">
      </trkpt>
      <trkpt lat="50.733398" lon="7.115877">
      </trkpt>
      <trkpt lat="50.734641" lon="7.114459">
      </trkpt>
      <trkpt lat="50.735214" lon="7.114172">
      </trkpt>
      <trkpt lat="50.735835" lon="7.113916">
      </trkpt>
      <trkpt lat="50.736457" lon="7.113743">
      </trkpt>
      <trkpt lat="50.73758" lon="7.113455">
      </trkpt>
      <trkpt lat="50.738153" lon="7.113315">
      </trkpt>
    </trkseg>
  </trk>
</gpx>