<?xml version="1.0" encoding="UTF-8"?>
<gpx xmlns="http://www.topografix.com/GPX/1/1" xmlns:xsi="http://www.w3.org/2001/XMLSchema-instance" xsi:schemaLocation="http://www.topografix.com/GPX/1/1 http://www.topografix.com/GPX/1/1/gpx.xsd" version="1.1" creator="gpx.py -- https://github.com/tkrajina/gpxpy">
  <metadata>
    <name>025</name>
  </metadata>
  <trk>
    <name>025</name>
    <trkseg>
      <trkpt lat="50.725571" lon="7.092747">
      </trkpt>
      <trkpt lat="50.725711" lon="7.091769">
      </trkpt>
      <trkpt lat="50.72591" lon="7.09049">
      </trkpt>
      <trkpt lat="50.726301" lon="7.089733">
      </trkpt>
      <trkpt lat="50.726878" lon="7.088615">
      </trkpt>
      <trkpt lat="50.727336" lon="7.087722">
      </trkpt>
      <trkpt lat="50.727696" lon="7.086991">
      </trkpt>
      <trkpt lat="50.728053" lon="7.086307">
      </trkpt>
      <trkpt lat="50.728535" lon="7.085411">
      </trkpt>
      <trkpt lat="50.728362" lon="7.084538">
      </trkpt>
      <trkpt lat="50.728039" lon="7.083813">
      </trkpt>
      <trkpt lat="50.727733" lon="7.082919">
      </trkpt>
      <trkpt lat="50.727485" lon="7.081997">
      </trkpt>
      <trkpt lat="50.72712" lon="7.081293">
      </trkpt>
      <trkpt lat="50.726118" lon="7.079367">
      </trkpt>
      <trkpt lat="50.725777" lon="7.078685">
      </trkpt>
      <trkpt lat="50.725304" lon="7.077805">
      </trkpt>
      <trkpt lat="50.724779" lon="7.076822">
      </trkpt>
      <trkpt lat="50.724336" lon="7.076297">
      </trkpt>
      <trkpt lat="50.723863" lon="7.075719">
      </trkpt>
      <trkpt lat="50.723878" lon="7.074634">
      </trkpt>
      <trkpt lat="50.724329" lon="7.073517">
      </trkpt>
      <trkpt lat="50.724806" lon="7.072809">
      </trkpt>
      <trkpt lat="50.725754" lon="7.071803">
      </trkpt>
      <trkpt lat="50.725764" lon="7.070796">
      </trkpt>
      <trkpt lat="50.725331" lon="7.070161">
      </trkpt>
      <trkpt lat="50.725219" lon="7.069245">
      </trkpt>
      <trkpt lat="50.725969" lon="7.068482">
      </trkpt>
      <trkpt lat="50.726506" lon="7.067912">
      </trkpt>
      <trkpt lat="50.727182" lon="7.067206">
      </trkpt>
      <trkpt lat="50.727687" lon="7.066699">
      </trkpt>
      <trkpt lat="50.727414" lon="7.063978">
      </trkpt>
      <trkpt lat="50.727285" lon="7.063096">
      </trkpt>
      <trkpt lat="50.727057" lon="7.061882">
      </trkpt>
      <trkpt lat="50.728331" lon="7.058383">
      </trkpt>
      <trkpt lat="50.728623" lon="7.056994">
      </trkpt>
      <trkpt lat="50.728956" lon="7.054797">
      </trkpt>
      <trkpt lat="50.72894" lon="7.05313">
      </trkpt>
      <trkpt lat="50.728923" lon="7.051328">
      </trkpt>
      <trkpt lat="50.728977" lon="7.049666">
      </trkpt>
      <trkpt lat="50.728936" lon="7.048384">
      </trkpt>
      <trkpt lat="50.728937" lon="7.047526">
      </trkpt>
      <trkpt lat="50.729202" lon="7.045195">
      </trkpt>
      <trkpt lat="50.728704" lon="7.044603">
      </trkpt>
      <trkpt lat="50.728566" lon="7.042969">
      </trkpt>
      <trkpt lat="50.727935" lon="7.041853">
      </trkpt>
      <trkpt lat="50.727471" lon="7.040162">
      </trkpt>
      <trkpt lat="50.727111" lon="7.039116">
      </trkpt>
      <trkpt lat="50.726774" lon="7.037907">
      </trkpt>
      <trkpt lat="50.726608" lon="7.03668">
      </trkpt>
      <trkpt lat="50.726352" lon="7.035724">
      </trkpt>
      <trkpt lat="50.725848" lon="7.034459">
      </trkpt>
      <trkpt lat="50.726212" lon="7.033722">
      </trkpt>
      <trkpt lat="50.727071" lon="7.032173">
      </trkpt>
      <trkpt lat="50.727683" lon="7.030622">
      </trkpt>
      <trkpt lat="50.728275" lon="7.02939">
      </trkpt>
      <trkpt lat="50.729091" lon="7.028001">
      </trkpt>
      <trkpt lat="50.729737" lon="7.026755">
      </trkpt>
      <trkpt lat="50.731427" lon="7.023834">
      </trkpt>
      <trkpt lat="50.732002" lon="7.022692">
      </trkpt>
      <trkpt lat="50.732294" lon="7.021956">
      </trkpt>
      <trkpt lat="50.732713" lon="7.021052">
      </trkpt>
      <trkpt lat="50.733618" lon="7.019433">
      </trkpt>
      <trkpt lat="50.734" lon="7.018786">
      </trkpt>
      <trkpt lat="50.734661" lon="7.017607">
      </trkpt>
      <trkpt lat="50.73525" lon="7.016513">
      </trkpt>
      <trkpt lat="50.735746" lon="7.015673">
      </trkpt>
      <trkpt lat="50.73615" lon="7.014891">
      </trkpt>
      <trkpt lat="50.735662" lon="7.014132">
      </trkpt>
      <trkpt lat="50.735179" lon="7.013247">
      </trkpt>
      <trkpt lat="50.734751" lon="7.011969">
      </trkpt>
      <trkpt lat="50.734483" lon="7.011162">
      </trkpt>
      <trkpt lat="50.735137" lon="7.009888">
      </trkpt>
      <trkpt lat="50.735628" lon="7.009365">
      </trkpt>
      <trkpt lat="50.736227" lon="7.010535">
      </trkpt>
      <trkpt lat="50.736896" lon="7.00964">
      </trkpt>
      <trkpt lat="50.738008" lon="7.008341">
      </trkpt>
      <trkpt lat="50.737596" lon="7.007304">
      </trkpt>
      <trkpt lat="50.738038" lon="7.006347">
      </trkpt>
      <trkpt lat="50.737849" lon="7.003821">
      </trkpt>
      <trkpt lat="50.737987" lon="7.002859">
      </trkpt>
      <trkpt lat="50.73832" lon="7.001895">
      </trkpt>
      <trkpt lat="50.738733" lon="7.000344">
      </trkpt>
      <trkpt lat="50.739464" lon="7.001178">
      </trkpt>
      <trkpt lat="50.739921" lon="7.001917">
      </trkpt>
      <trkpt lat="50.740434" lon="7.002311">
      </trkpt>
      <trkpt lat="50.741098" lon="7.002172">
      </trkpt>
      <trkpt lat="50.741609" lon="7.001345">
      </trkpt>
      <trkpt lat="50.741453" lon="6.999827">
      </trkpt>
      <trkpt lat="50.741009" lon="6.998649">
      </trkpt>
      <trkpt lat="50.74091" lon="6.997721">
      </trkpt>
      <trkpt lat="50.740612" lon="6.996607">
      </trkpt>
      <trkpt lat="50.740492" lon="6.995775">
      </trkpt>
      <trkpt lat="50.740914" lon="6.994295">
      </trkpt>
      <trkpt lat="50.74115" lon="6.993396">
      </trkpt>
      <trkpt lat="50.741469" lon="6.991794">
      </trkpt>
      <trkpt lat="50.741716" lon="6.991028">
      </trkpt>
      <trkpt lat="50.742122" lon="6.990411">
      </trkpt>
      <trkpt lat="50.741468" lon="6.989162">
      </trkpt>
      <trkpt lat="50.74099" lon="6.988736">
      </trkpt>
      <trkpt lat="50.740418" lon="6.988245">
      </trkpt>
      <trkpt lat="50.740036" lon="6.987418">
      </trkpt>
      <trkpt lat="50.740036" lon="6.986446">
      </trkpt>
      <trkpt lat="50.740172" lon="6.984876">
      </trkpt>
      <trkpt lat="50.740263" lon="6.983921">
      </trkpt>
      <trkpt lat="50.739602" lon="6.9839">
      </trkpt>
      <trkpt lat="50.739188" lon="6.982881">
      </trkpt>
      <trkpt lat="50.738592" lon="6.983017">
      </trkpt>
      <trkpt lat="50.738242" lon="6.982137">
      </trkpt>
      <trkpt lat="50.738546" lon="6.981022">
      </trkpt>
      <trkpt lat="50.738256" lon="6.979956">
      </trkpt>
      <trkpt lat="50.737302" lon="6.979447">
      </trkpt>
      <trkpt lat="50.736765" lon="6.979115">
      </trkpt>
      <trkpt lat="50.736458" lon="6.978313">
      </trkpt>
      <trkpt lat="50.73547" lon="6.977083">
      </trkpt>
      <trkpt lat="50.735821" lon="6.976133">
      </trkpt>
      <trkpt lat="50.736395" lon="6.975654">
      </trkpt>
      <trkpt lat="50.73671" lon="6.974697">
      </trkpt>
      <trkpt lat="50.737196" lon="6.973907">
      </trkpt>
      <trkpt lat="50.735873" lon="6.972849">
      </trkpt>
      <trkpt lat="50.734728" lon="6.972627">
      </trkpt>
      <trkpt lat="50.733433" lon="6.971856">
      </trkpt>
      <trkpt lat="50.733134" lon="6.971081">
      </trkpt>
      <trkpt lat="50.732517" lon="6.970111">
      </trkpt>
      <trkpt lat="50.73197" lon="6.968048">
      </trkpt>
      <trkpt lat="50.731267" lon="6.967162">
      </trkpt>
      <trkpt lat="50.730973" lon="6.965909">
      </trkpt>
      <trkpt lat="50.730156" lon="6.964527">
      </trkpt>
      <trkpt lat="50.729522" lon="6.963188">
      </trkpt>
      <trkpt lat="50.728614" lon="6.962345">
      </trkpt>
      <trkpt lat="50.727943" lon="6.963183">
      </trkpt>
      <trkpt lat="50.727008" lon="6.962709">
      </trkpt>
      <trkpt lat="50.726534" lon="6.961679">
      </trkpt>
      <trkpt lat="50.725811" lon="6.961839">
      </trkpt>
      <trkpt lat="50.724856" lon="6.96083">
      </trkpt>
      <trkpt lat="50.720782" lon="6.955836">
      </trkpt>
      <trkpt lat="50.721077" lon="6.954975">
      </trkpt>
      <trkpt lat="50.722697" lon="6.950512">
      </trkpt>
      <trkpt lat="50.724369" lon="6.945992">
      </trkpt>
      <trkpt lat="50.724719" lon="6.945035">
      </trkpt>
      <trkpt lat="50.72506" lon="6.943988">
      </trkpt>
      <trkpt lat="50.726114" lon="6.941207">
      </trkpt>
      <trkpt lat="50.726458" lon="6.940363">
      </trkpt>
      <trkpt lat="50.726777" lon="6.939391">
      </trkpt>
      <trkpt lat="50.727327" lon="6.937993">
      </trkpt>
      <trkpt lat="50.727072" lon="6.937173">
      </trkpt>
      <trkpt lat="50.727194" lon="6.93527">
      </trkpt>
      <trkpt lat="50.72726" lon="6.934229">
      </trkpt>
      <trkpt lat="50.72751" lon="6.932958">
      </trkpt>
      <trkpt lat="50.727004" lon="6.932341">
      </trkpt>
      <trkpt lat="50.726474" lon="6.931865">
      </trkpt>
      <trkpt lat="50.725924" lon="6.931995">
      </trkpt>
      <trkpt lat="50.72471" lon="6.932084">
      </trkpt>
      <trkpt lat="50.724156" lon="6.93279">
      </trkpt>
      <trkpt lat="50.723081" lon="6.933739">
      </trkpt>
      <trkpt lat="50.72244" lon="6.933983">
      </trkpt>
      <trkpt lat="50.721269" lon="6.934684">
      </trkpt>
      <trkpt lat="50.719164" lon="6.935828">
      </trkpt>
      <trkpt lat="50.718169" lon="6.936189">
      </trkpt>
      <trkpt lat="50.716888" lon="6.936138">
      </trkpt>
      <trkpt lat="50.71561" lon="6.936364">
      </trkpt>
      <trkpt lat="50.714313" lon="6.937092">
      </trkpt>
      <trkpt lat="50.714376" lon="6.93284">
      </trkpt>
      <trkpt lat="50.711754" lon="6.934313">
      </trkpt>
      <trkpt lat="50.708138" lon="6.939967">
      </trkpt>
      <trkpt lat="50.709145" lon="6.941815">
      </trkpt>
      <trkpt lat="50.707898" lon="6.945172">
      </trkpt>
      <trkpt lat="50.7052" lon="6.951056">
      </trkpt>
      <trkpt lat="50.707323" lon="6.960841">
      </trkpt>
      <trkpt lat="50.705898" lon="6.962362">
      </trkpt>
      <trkpt lat="50.703013" lon="6.964908">
      </trkpt>
      <trkpt lat="50.699499" lon="6.967961">
      </trkpt>
      <trkpt lat="50.695835" lon="6.971168">
      </trkpt>
      <trkpt lat="50.69744" lon="6.97783">
      </trkpt>
      <trkpt lat="50.698978" lon="6.983341">
      </trkpt>
      <trkpt lat="50.696055" lon="6.986386">
      </trkpt>
      <trkpt lat="50.695057" lon="6.987381">
      </trkpt>
      <trkpt lat="50.694329" lon="6.988104">
      </trkpt>
      <trkpt lat="50.693841" lon="6.98859">
      </trkpt>
      <trkpt lat="50.692791" lon="6.989677">
      </trkpt>
      <trkpt lat="50.690608" lon="6.991939">
      </trkpt>
      <trkpt lat="50.69001" lon="6.992526">
      </trkpt>
      <trkpt lat="50.689504" lon="6.993032">
      </trkpt>
      <trkpt lat="50.688993" lon="6.993532">
      </trkpt>
      <trkpt lat="50.687311" lon="6.995287">
      </trkpt>
      <trkpt lat="50.686689" lon="6.995924">
      </trkpt>
      <trkpt lat="50.685552" lon="6.997094">
      </trkpt>
      <trkpt lat="50.68468" lon="6.998004">
      </trkpt>
      <trkpt lat="50.683891" lon="6.998784">
      </trkpt>
      <trkpt lat="50.683188" lon="6.999527">
      </trkpt>
      <trkpt lat="50.681145" lon="7.00164">
      </trkpt>
      <trkpt lat="50.680377" lon="7.000917">
      </trkpt>
      <trkpt lat="50.680695" lon="6.999917">
      </trkpt>
      <trkpt lat="50.681167" lon="6.998466">
      </trkpt>
      <trkpt lat="50.681663" lon="6.997333">
      </trkpt>
      <trkpt lat="50.681853" lon="6.995799">
      </trkpt>
      <trkpt lat="50.682036" lon="6.994967">
      </trkpt>
      <trkpt lat="50.681997" lon="6.99407">
      </trkpt>
      <trkpt lat="50.682094" lon="6.99318">
      </trkpt>
      <trkpt lat="50.681809" lon="6.991973">
      </trkpt>
      <trkpt lat="50.67955" lon="6.990454">
      </trkpt>
      <trkpt lat="50.677546" lon="6.987551">
      </trkpt>
      <trkpt lat="50.67694" lon="6.989325">
      </trkpt>
      <trkpt lat="50.676297" lon="6.992016">
      </trkpt>
      <trkpt lat="50.675308" lon="6.993429">
      </trkpt>
      <trkpt lat="50.673389" lon="6.99649">
      </trkpt>
      <trkpt lat="50.673055" lon="6.99736">
      </trkpt>
      <trkpt lat="50.672151" lon="6.998651">
      </trkpt>
      <trkpt lat="50.670882" lon="7.00117">
      </trkpt>
      <trkpt lat="50.67046" lon="7.00196">
      </trkpt>
      <trkpt lat="50.668205" lon="7.005678">
      </trkpt>
      <trkpt lat="50.667609" lon="7.006739">
      </trkpt>
      <trkpt lat="50.668671" lon="7.007517">
      </trkpt>
      <trkpt lat="50.671126" lon="7.011812">
      </trkpt>
      <trkpt lat="50.668774" lon="7.014211">
      </trkpt>
      <trkpt lat="50.667577" lon="7.018175">
      </trkpt>
      <trkpt lat="50.666754" lon="7.020947">
      </trkpt>
      <trkpt lat="50.666472" lon="7.021964">
      </trkpt>
      <trkpt lat="50.665508" lon="7.022431">
      </trkpt>
      <trkpt lat="50.664788" lon="7.022644">
      </trkpt>
      <trkpt lat="50.663852" lon="7.022955">
      </trkpt>
      <trkpt lat="50.664287" lon="7.024243">
      </trkpt>
      <trkpt lat="50.66498" lon="7.026475">
      </trkpt>
      <trkpt lat="50.665288" lon="7.027527">
      </trkpt>
      <trkpt lat="50.667764" lon="7.035711">
      </trkpt>
      <trkpt lat="50.66805" lon="7.036566">
      </trkpt>
      <trkpt lat="50.668559" lon="7.038361">
      </trkpt>
      <trkpt lat="50.669666" lon="7.041974">
      </trkpt>
      <trkpt lat="50.67169" lon="7.048615">
      </trkpt>
      <trkpt lat="50.673967" lon="7.056198">
      </trkpt>
      <trkpt lat="50.673271" lon="7.057786">
      </trkpt>
      <trkpt lat="50.671461" lon="7.061849">
      </trkpt>
      <trkpt lat="50.671127" lon="7.062628">
      </trkpt>
      <trkpt lat="50.670631" lon="7.063776">
      </trkpt>
      <trkpt lat="50.669686" lon="7.066404">
      </trkpt>
      <trkpt lat="50.6694" lon="7.067182">
      </trkpt>
      <trkpt lat="50.668209" lon="7.070577">
      </trkpt>
      <trkpt lat="50.666464" lon="7.075564">
      </trkpt>
      <trkpt lat="50.666528" lon="7.07652">
      </trkpt>
      <trkpt lat="50.66784" lon="7.080565">
      </trkpt>
      <trkpt lat="50.668471" lon="7.082537">
      </trkpt>
      <trkpt lat="50.66901" lon="7.084142">
      </trkpt>
      <trkpt lat="50.67153" lon="7.082027">
      </trkpt>
      <trkpt lat="50.672089" lon="7.082508">
      </trkpt>
      <trkpt lat="50.67271" lon="7.083114">
      </trkpt>
      <trkpt lat="50.673241" lon="7.083752">
      </trkpt>
      <trkpt lat="50.673799" lon="7.084071">
      </trkpt>
      <trkpt lat="50.674367" lon="7.083937">
      </trkpt>
      <trkpt lat="50.675326" lon="7.08407">
      </trkpt>
      <trkpt lat="50.676055" lon="7.084347">
      </trkpt>
      <trkpt lat="50.676662" lon="7.08449">
      </trkpt>
      <trkpt lat="50.677485" lon="7.085343">
      </trkpt>
      <trkpt lat="50.678314" lon="7.086035">
      </trkpt>
      <trkpt lat="50.678896" lon="7.086177">
      </trkpt>
      <trkpt lat="50.680036" lon="7.086061">
      </trkpt>
      <trkpt lat="50.680644" lon="7.085788">
      </trkpt>
      <trkpt lat="50.681184" lon="7.085897">
      </trkpt>
      <trkpt lat="50.681598" lon="7.085273">
      </trkpt>
      <trkpt lat="50.681979" lon="7.084536">
      </trkpt>
      <trkpt lat="50.682625" lon="7.084286">
      </trkpt>
      <trkpt lat="50.683396" lon="7.083953">
      </trkpt>
      <trkpt lat="50.683997" lon="7.083677">
      </trkpt>
      <trkpt lat="50.684871" lon="7.084251">
      </trkpt>
      <trkpt lat="50.685855" lon="7.086231">
      </trkpt>
      <trkpt lat="50.686365" lon="7.087247">
      </trkpt>
      <trkpt lat="50.687821" lon="7.09019">
      </trkpt>
      <trkpt lat="50.688104" lon="7.09108">
      </trkpt>
      <trkpt lat="50.688517" lon="7.09172">
      </trkpt>
      <trkpt lat="50.688921" lon="7.09281">
      </trkpt>
      <trkpt lat="50.689394" lon="7.093753">
      </trkpt>
      <trkpt lat="50.689968" lon="7.094712">
      </trkpt>
      <trkpt lat="50.690373" lon="7.095501">
      </trkpt>
      <trkpt lat="50.69101" lon="7.096832">
      </trkpt>
      <trkpt lat="50.69159" lon="7.098178">
      </trkpt>
      <trkpt lat="50.692031" lon="7.099056">
      </trkpt>
      <trkpt lat="50.692558" lon="7.099433">
      </trkpt>
      <trkpt lat="50.693108" lon="7.0991">
      </trkpt>
      <trkpt lat="50.693635" lon="7.099314">
      </trkpt>
      <trkpt lat="50.69414" lon="7.098922">
      </trkpt>
      <trkpt lat="50.694578" lon="7.098245">
      </trkpt>
      <trkpt lat="50.695188" lon="7.097164">
      </trkpt>
      <trkpt lat="50.695846" lon="7.096776">
      </trkpt>
      <trkpt lat="50.696602" lon="7.096857">
      </trkpt>
      <trkpt lat="50.697508" lon="7.097086">
      </trkpt>
      <trkpt lat="50.698237" lon="7.095802">
      </trkpt>
      <trkpt lat="50.698587" lon="7.094623">
      </trkpt>
      <trkpt lat="50.698937" lon="7.093444">
      </trkpt>
      <trkpt lat="50.69965" lon="7.092881">
      </trkpt>
      <trkpt lat="50.700363" lon="7.092318">
      </trkpt>
      <trkpt lat="50.701077" lon="7.091755">
      </trkpt>
      <trkpt lat="50.701791" lon="7.091192">
      </trkpt>
      <trkpt lat="50.702504" lon="7.090629">
      </trkpt>
      <trkpt lat="50.703217" lon="7.090066">
      </trkpt>
      <trkpt lat="50.704135" lon="7.090127">
      </trkpt>
      <trkpt lat="50.704842" lon="7.090135">
      </trkpt>
      <trkpt lat="50.705606" lon="7.090396">
      </trkpt>
      <trkpt lat="50.706466" lon="7.09086">
      </trkpt>
      <trkpt lat="50.706975" lon="7.091141">
      </trkpt>
      <trkpt lat="50.707927" lon="7.091659">
      </trkpt>
      <trkpt lat="50.70858" lon="7.091095">
      </trkpt>
      <trkpt lat="50.709011" lon="7.089835">
      </trkpt>
      <trkpt lat="50.709722" lon="7.088905">
      </trkpt>
      <trkpt lat="50.71033" lon="7.089024">
      </trkpt>
      <trkpt lat="50.711087" lon="7.08903">
      </trkpt>
      <trkpt lat="50.711487" lon="7.088101">
      </trkpt>
      <trkpt lat="50.712068" lon="7.087966">
      </trkpt>
      <trkpt lat="50.712641" lon="7.088091">
      </trkpt>
      <trkpt lat="50.713392" lon="7.088064">
      </trkpt>
      <trkpt lat="50.714088" lon="7.087639">
      </trkpt>
      <trkpt lat="50.714476" lon="7.08688">
      </trkpt>
      <trkpt lat="50.715166" lon="7.08677">
      </trkpt>
      <trkpt lat="50.715856" lon="7.086643">
      </trkpt>
      <trkpt lat="50.716455" lon="7.086438">
      </trkpt>
      <trkpt lat="50.717011" lon="7.086158">
      </trkpt>
      <trkpt lat="50.717698" lon="7.085838">
      </trkpt>
      <trkpt lat="50.718294" lon="7.085822">
      </trkpt>
      <trkpt lat="50.718858" lon="7.085769">
      </trkpt>
      <trkpt lat="50.719359" lon="7.086261">
      </trkpt>
      <trkpt lat="50.719931" lon="7.087026">
      </trkpt>
      <trkpt lat="50.720547" lon="7.087337">
      </trkpt>
      <trkpt lat="50.721189" lon="7.087774">
      </trkpt>
      <trkpt lat="50.72197" lon="7.088311">
      </trkpt>
      <trkpt lat="50.722603" lon="7.08873">
      </trkpt>
      <trkpt lat="50.723345" lon="7.089266">
      </trkpt>
      <trkpt lat="50.724137" lon="7.089851">
      </trkpt>
      <trkpt lat="50.724612" lon="7.090332">
      </trkpt>
      <trkpt lat="50.725137" lon="7.090956">
      </trkpt>
      <trkpt lat="50.725619" lon="7.091559">
      </trkpt>
      <trkpt lat="50.725356" lon="7.092468">
      </trkpt>
    </trkseg>
  </trk>
</gpx>