<?xml version="1.0" encoding="UTF-8"?>
<gpx xmlns="http://www.topografix.com/GPX/1/1" xmlns:xsi="http://www.w3.org/2001/XMLSchema-instance" xsi:schemaLocation="http://www.topografix.com/GPX/1/1 http://www.topografix.com/GPX/1/1/gpx.xsd" version="1.1" creator="gpx.py -- https://github.com/tkrajina/gpxpy">
  <metadata>
    <name>026</name>
  </metadata>
  <trk>
    <name>026</name>
    <trkseg>
      <trkpt lat="50.734282" lon="7.104054">
      </trkpt>
      <trkpt lat="50.734998" lon="7.104011">
      </trkpt>
      <trkpt lat="50.73552" lon="7.104395">
      </trkpt>
      <trkpt lat="50.735778" lon="7.105198">
      </trkpt>
      <trkpt lat="50.736045" lon="7.106103">
      </trkpt>
      <trkpt lat="50.7366" lon="7.105918">
      </trkpt>
      <trkpt lat="50.737277" lon="7.105735">
      </trkpt>
      <trkpt lat="50.73765" lon="7.106707">
      </trkpt>
      <trkpt lat="50.738118" lon="7.110063">
      </trkpt>
      <trkpt lat="50.738574" lon="7.11341">
      </trkpt>
      <trkpt lat="50.738727" lon="7.114479">
      </trkpt>
      <trkpt lat="50.738828" lon="7.115368">
      </trkpt>
      <trkpt lat="50.738415" lon="7.116284">
      </trkpt>
      <trkpt lat="50.738223" lon="7.115354">
      </trkpt>
      <trkpt lat="50.737996" lon="7.114226">
      </trkpt>
      <trkpt lat="50.737831" lon="7.1134">
      </trkpt>
      <trkpt lat="50.73689" lon="7.113659">
      </trkpt>
      <trkpt lat="50.736263" lon="7.113798">
      </trkpt>
      <trkpt lat="50.735249" lon="7.114155">
      </trkpt>
      <trkpt lat="50.734708" lon="7.114426">
      </trkpt>
      <trkpt lat="50.733366" lon="7.115084">
      </trkpt>
      <trkpt lat="50.73256" lon="7.115431">
      </trkpt>
      <trkpt lat="50.731719" lon="7.115917">
      </trkpt>
      <trkpt lat="50.73106" lon="7.116373">
      </trkpt>
      <trkpt lat="50.730463" lon="7.116905">
      </trkpt>
      <trkpt lat="50.729058" lon="7.118407">
      </trkpt>
      <trkpt lat="50.72865" lon="7.11907">
      </trkpt>
      <trkpt lat="50.7281" lon="7.119906">
      </trkpt>
      <trkpt lat="50.72714" lon="7.121482">
      </trkpt>
      <trkpt lat="50.726669" lon="7.12226">
      </trkpt>
      <trkpt lat="50.72631" lon="7.122897">
      </trkpt>
      <trkpt lat="50.725924" lon="7.124011">
      </trkpt>
      <trkpt lat="50.725457" lon="7.124907">
      </trkpt>
      <trkpt lat="50.724901" lon="7.126089">
      </trkpt>
      <trkpt lat="50.724686" lon="7.127102">
      </trkpt>
      <trkpt lat="50.724311" lon="7.127783">
      </trkpt>
      <trkpt lat="50.724122" lon="7.128739">
      </trkpt>
      <trkpt lat="50.723776" lon="7.129941">
      </trkpt>
      <trkpt lat="50.723474" lon="7.130675">
      </trkpt>
      <trkpt lat="50.722961" lon="7.131113">
      </trkpt>
      <trkpt lat="50.722616" lon="7.132389">
      </trkpt>
      <trkpt lat="50.722359" lon="7.133174">
      </trkpt>
      <trkpt lat="50.721895" lon="7.135004">
      </trkpt>
      <trkpt lat="50.721606" lon="7.136002">
      </trkpt>
      <trkpt lat="50.721457" lon="7.137224">
      </trkpt>
      <trkpt lat="50.721029" lon="7.138729">
      </trkpt>
      <trkpt lat="50.720644" lon="7.140029">
      </trkpt>
      <trkpt lat="50.720431" lon="7.141409">
      </trkpt>
      <trkpt lat="50.7204" lon="7.14275">
      </trkpt>
      <trkpt lat="50.720881" lon="7.143307">
      </trkpt>
      <trkpt lat="50.721204" lon="7.144025">
      </trkpt>
      <trkpt lat="50.721703" lon="7.144411">
      </trkpt>
      <trkpt lat="50.721697" lon="7.145871">
      </trkpt>
      <trkpt lat="50.721303" lon="7.147306">
      </trkpt>
      <trkpt lat="50.720996" lon="7.148492">
      </trkpt>
      <trkpt lat="50.720679" lon="7.149229">
      </trkpt>
      <trkpt lat="50.72063" lon="7.150592">
      </trkpt>
      <trkpt lat="50.720539" lon="7.151852">
      </trkpt>
      <trkpt lat="50.720544" lon="7.152787">
      </trkpt>
      <trkpt lat="50.720669" lon="7.153804">
      </trkpt>
      <trkpt lat="50.720918" lon="7.154892">
      </trkpt>
      <trkpt lat="50.721265" lon="7.155638">
      </trkpt>
      <trkpt lat="50.721836" lon="7.156257">
      </trkpt>
      <trkpt lat="50.722225" lon="7.156879">
      </trkpt>
      <trkpt lat="50.72271" lon="7.157671">
      </trkpt>
      <trkpt lat="50.723334" lon="7.158538">
      </trkpt>
      <trkpt lat="50.722808" lon="7.159347">
      </trkpt>
      <trkpt lat="50.722892" lon="7.160423">
      </trkpt>
      <trkpt lat="50.722921" lon="7.161361">
      </trkpt>
      <trkpt lat="50.722721" lon="7.162617">
      </trkpt>
      <trkpt lat="50.722517" lon="7.163719">
      </trkpt>
      <trkpt lat="50.722088" lon="7.164419">
      </trkpt>
      <trkpt lat="50.721549" lon="7.164697">
      </trkpt>
      <trkpt lat="50.720249" lon="7.165785">
      </trkpt>
      <trkpt lat="50.719687" lon="7.166567">
      </trkpt>
      <trkpt lat="50.719484" lon="7.16747">
      </trkpt>
      <trkpt lat="50.718896" lon="7.168171">
      </trkpt>
      <trkpt lat="50.718352" lon="7.168705">
      </trkpt>
      <trkpt lat="50.718564" lon="7.169878">
      </trkpt>
      <trkpt lat="50.719311" lon="7.170255">
      </trkpt>
      <trkpt lat="50.719667" lon="7.169395">
      </trkpt>
      <trkpt lat="50.720178" lon="7.168646">
      </trkpt>
      <trkpt lat="50.720808" lon="7.168572">
      </trkpt>
      <trkpt lat="50.721393" lon="7.168481">
      </trkpt>
      <trkpt lat="50.721512" lon="7.169768">
      </trkpt>
      <trkpt lat="50.722156" lon="7.169826">
      </trkpt>
      <trkpt lat="50.722815" lon="7.169224">
      </trkpt>
      <trkpt lat="50.723386" lon="7.169189">
      </trkpt>
      <trkpt lat="50.724039" lon="7.169731">
      </trkpt>
      <trkpt lat="50.724752" lon="7.169632">
      </trkpt>
      <trkpt lat="50.725535" lon="7.169411">
      </trkpt>
      <trkpt lat="50.726284" lon="7.16901">
      </trkpt>
      <trkpt lat="50.726772" lon="7.168419">
      </trkpt>
      <trkpt lat="50.727133" lon="7.167705">
      </trkpt>
      <trkpt lat="50.727538" lon="7.166541">
      </trkpt>
      <trkpt lat="50.727875" lon="7.165517">
      </trkpt>
      <trkpt lat="50.728398" lon="7.165859">
      </trkpt>
      <trkpt lat="50.72974" lon="7.171348">
      </trkpt>
      <trkpt lat="50.730897" lon="7.173231">
      </trkpt>
      <trkpt lat="50.730453" lon="7.174871">
      </trkpt>
      <trkpt lat="50.729966" lon="7.175238">
      </trkpt>
      <trkpt lat="50.729055" lon="7.176001">
      </trkpt>
      <trkpt lat="50.728897" lon="7.176915">
      </trkpt>
      <trkpt lat="50.728394" lon="7.178521">
      </trkpt>
      <trkpt lat="50.728164" lon="7.179808">
      </trkpt>
      <trkpt lat="50.727901" lon="7.18091">
      </trkpt>
      <trkpt lat="50.727681" lon="7.181976">
      </trkpt>
      <trkpt lat="50.728105" lon="7.182711">
      </trkpt>
      <trkpt lat="50.728843" lon="7.183013">
      </trkpt>
      <trkpt lat="50.728401" lon="7.184285">
      </trkpt>
      <trkpt lat="50.727546" lon="7.186111">
      </trkpt>
      <trkpt lat="50.726759" lon="7.187148">
      </trkpt>
      <trkpt lat="50.72605" lon="7.187746">
      </trkpt>
      <trkpt lat="50.7255" lon="7.188284">
      </trkpt>
      <trkpt lat="50.726625" lon="7.189814">
      </trkpt>
      <trkpt lat="50.72718" lon="7.190564">
      </trkpt>
      <trkpt lat="50.72768" lon="7.19097">
      </trkpt>
      <trkpt lat="50.728147" lon="7.191417">
      </trkpt>
      <trkpt lat="50.72879" lon="7.192475">
      </trkpt>
      <trkpt lat="50.729324" lon="7.193488">
      </trkpt>
      <trkpt lat="50.729835" lon="7.194511">
      </trkpt>
      <trkpt lat="50.730313" lon="7.195333">
      </trkpt>
      <trkpt lat="50.730878" lon="7.196236">
      </trkpt>
      <trkpt lat="50.730064" lon="7.196965">
      </trkpt>
      <trkpt lat="50.72935" lon="7.197177">
      </trkpt>
      <trkpt lat="50.725853" lon="7.197756">
      </trkpt>
      <trkpt lat="50.724163" lon="7.19806">
      </trkpt>
      <trkpt lat="50.724029" lon="7.199108">
      </trkpt>
      <trkpt lat="50.724012" lon="7.200102">
      </trkpt>
      <trkpt lat="50.725882" lon="7.203624">
      </trkpt>
      <trkpt lat="50.725478" lon="7.204453">
      </trkpt>
      <trkpt lat="50.725439" lon="7.205364">
      </trkpt>
      <trkpt lat="50.724967" lon="7.206229">
      </trkpt>
      <trkpt lat="50.724427" lon="7.207035">
      </trkpt>
      <trkpt lat="50.72514" lon="7.20893">
      </trkpt>
      <trkpt lat="50.725773" lon="7.209804">
      </trkpt>
      <trkpt lat="50.726909" lon="7.210635">
      </trkpt>
      <trkpt lat="50.728476" lon="7.211956">
      </trkpt>
      <trkpt lat="50.728927" lon="7.208263">
      </trkpt>
      <trkpt lat="50.729745" lon="7.2085">
      </trkpt>
      <trkpt lat="50.730487" lon="7.209522">
      </trkpt>
      <trkpt lat="50.731048" lon="7.210104">
      </trkpt>
      <trkpt lat="50.731818" lon="7.210941">
      </trkpt>
      <trkpt lat="50.732405" lon="7.211557">
      </trkpt>
      <trkpt lat="50.733057" lon="7.212207">
      </trkpt>
      <trkpt lat="50.734258" lon="7.211681">
      </trkpt>
      <trkpt lat="50.735585" lon="7.211767">
      </trkpt>
      <trkpt lat="50.735881" lon="7.209947">
      </trkpt>
      <trkpt lat="50.73683" lon="7.209066">
      </trkpt>
      <trkpt lat="50.738135" lon="7.207931">
      </trkpt>
      <trkpt lat="50.738805" lon="7.207267">
      </trkpt>
      <trkpt lat="50.739325" lon="7.206771">
      </trkpt>
      <trkpt lat="50.739984" lon="7.208427">
      </trkpt>
      <trkpt lat="50.740434" lon="7.209229">
      </trkpt>
      <trkpt lat="50.740587" lon="7.21047">
      </trkpt>
      <trkpt lat="50.741064" lon="7.21097">
      </trkpt>
      <trkpt lat="50.741597" lon="7.211348">
      </trkpt>
      <trkpt lat="50.741908" lon="7.212108">
      </trkpt>
      <trkpt lat="50.742752" lon="7.2128">
      </trkpt>
      <trkpt lat="50.742974" lon="7.213587">
      </trkpt>
      <trkpt lat="50.742789" lon="7.2147">
      </trkpt>
      <trkpt lat="50.742722" lon="7.216796">
      </trkpt>
      <trkpt lat="50.745213" lon="7.217402">
      </trkpt>
      <trkpt lat="50.745855" lon="7.217648">
      </trkpt>
      <trkpt lat="50.746395" lon="7.217771">
      </trkpt>
      <trkpt lat="50.746842" lon="7.21869">
      </trkpt>
      <trkpt lat="50.747416" lon="7.218542">
      </trkpt>
      <trkpt lat="50.747358" lon="7.217318">
      </trkpt>
      <trkpt lat="50.747387" lon="7.21446">
      </trkpt>
      <trkpt lat="50.74745" lon="7.213211">
      </trkpt>
      <trkpt lat="50.747468" lon="7.212311">
      </trkpt>
      <trkpt lat="50.74933" lon="7.212125">
      </trkpt>
      <trkpt lat="50.749916" lon="7.211936">
      </trkpt>
      <trkpt lat="50.751301" lon="7.210688">
      </trkpt>
      <trkpt lat="50.751891" lon="7.210159">
      </trkpt>
      <trkpt lat="50.752349" lon="7.209704">
      </trkpt>
      <trkpt lat="50.753098" lon="7.207421">
      </trkpt>
      <trkpt lat="50.753606" lon="7.205941">
      </trkpt>
      <trkpt lat="50.753821" lon="7.204881">
      </trkpt>
      <trkpt lat="50.755049" lon="7.204793">
      </trkpt>
      <trkpt lat="50.75632" lon="7.204396">
      </trkpt>
      <trkpt lat="50.756918" lon="7.204243">
      </trkpt>
      <trkpt lat="50.75756" lon="7.204394">
      </trkpt>
      <trkpt lat="50.758414" lon="7.20528">
      </trkpt>
      <trkpt lat="50.759443" lon="7.207433">
      </trkpt>
      <trkpt lat="50.760271" lon="7.207354">
      </trkpt>
      <trkpt lat="50.760407" lon="7.206501">
      </trkpt>
      <trkpt lat="50.760222" lon="7.20545">
      </trkpt>
      <trkpt lat="50.759876" lon="7.204066">
      </trkpt>
      <trkpt lat="50.759437" lon="7.202393">
      </trkpt>
      <trkpt lat="50.759035" lon="7.201638">
      </trkpt>
      <trkpt lat="50.758769" lon="7.200299">
      </trkpt>
      <trkpt lat="50.758243" lon="7.199226">
      </trkpt>
      <trkpt lat="50.757482" lon="7.197329">
      </trkpt>
      <trkpt lat="50.757318" lon="7.196256">
      </trkpt>
      <trkpt lat="50.756996" lon="7.195562">
      </trkpt>
      <trkpt lat="50.756602" lon="7.194746">
      </trkpt>
      <trkpt lat="50.757202" lon="7.194718">
      </trkpt>
      <trkpt lat="50.75777" lon="7.195042">
      </trkpt>
      <trkpt lat="50.758251" lon="7.194556">
      </trkpt>
      <trkpt lat="50.760192" lon="7.194777">
      </trkpt>
      <trkpt lat="50.760472" lon="7.193322">
      </trkpt>
      <trkpt lat="50.760888" lon="7.192639">
      </trkpt>
      <trkpt lat="50.761423" lon="7.19198">
      </trkpt>
      <trkpt lat="50.761342" lon="7.190988">
      </trkpt>
      <trkpt lat="50.761241" lon="7.189626">
      </trkpt>
      <trkpt lat="50.761218" lon="7.18845">
      </trkpt>
      <trkpt lat="50.761476" lon="7.187201">
      </trkpt>
      <trkpt lat="50.76176" lon="7.18599">
      </trkpt>
      <trkpt lat="50.762293" lon="7.18547">
      </trkpt>
      <trkpt lat="50.763064" lon="7.184873">
      </trkpt>
      <trkpt lat="50.763568" lon="7.184533">
      </trkpt>
      <trkpt lat="50.763648" lon="7.18363">
      </trkpt>
      <trkpt lat="50.764043" lon="7.182824">
      </trkpt>
      <trkpt lat="50.765129" lon="7.181259">
      </trkpt>
      <trkpt lat="50.765912" lon="7.180298">
      </trkpt>
      <trkpt lat="50.766818" lon="7.180014">
      </trkpt>
      <trkpt lat="50.767374" lon="7.179422">
      </trkpt>
      <trkpt lat="50.767767" lon="7.17874">
      </trkpt>
      <trkpt lat="50.769955" lon="7.180683">
      </trkpt>
      <trkpt lat="50.770883" lon="7.17947">
      </trkpt>
      <trkpt lat="50.771952" lon="7.177359">
      </trkpt>
      <trkpt lat="50.773259" lon="7.175461">
      </trkpt>
      <trkpt lat="50.773758" lon="7.174731">
      </trkpt>
      <trkpt lat="50.774124" lon="7.174086">
      </trkpt>
      <trkpt lat="50.774868" lon="7.17288">
      </trkpt>
      <trkpt lat="50.775713" lon="7.172554">
      </trkpt>
      <trkpt lat="50.776981" lon="7.172471">
      </trkpt>
      <trkpt lat="50.777391" lon="7.173273">
      </trkpt>
      <trkpt lat="50.777377" lon="7.174214">
      </trkpt>
      <trkpt lat="50.778378" lon="7.173592">
      </trkpt>
      <trkpt lat="50.778945" lon="7.173021">
      </trkpt>
      <trkpt lat="50.780855" lon="7.170015">
      </trkpt>
      <trkpt lat="50.78136" lon="7.169464">
      </trkpt>
      <trkpt lat="50.782001" lon="7.169049">
      </trkpt>
      <trkpt lat="50.782389" lon="7.170106">
      </trkpt>
      <trkpt lat="50.78262" lon="7.172457">
      </trkpt>
      <trkpt lat="50.782564" lon="7.174314">
      </trkpt>
      <trkpt lat="50.782918" lon="7.175069">
      </trkpt>
      <trkpt lat="50.784308" lon="7.175411">
      </trkpt>
      <trkpt lat="50.785843" lon="7.175269">
      </trkpt>
      <trkpt lat="50.786921" lon="7.175635">
      </trkpt>
      <trkpt lat="50.786663" lon="7.17809">
      </trkpt>
      <trkpt lat="50.786114" lon="7.181855">
      </trkpt>
      <trkpt lat="50.786159" lon="7.182814">
      </trkpt>
      <trkpt lat="50.786759" lon="7.182839">
      </trkpt>
      <trkpt lat="50.786935" lon="7.183723">
      </trkpt>
      <trkpt lat="50.786779" lon="7.184575">
      </trkpt>
      <trkpt lat="50.788539" lon="7.185228">
      </trkpt>
      <trkpt lat="50.789114" lon="7.185499">
      </trkpt>
      <trkpt lat="50.789966" lon="7.185967">
      </trkpt>
      <trkpt lat="50.790335" lon="7.186837">
      </trkpt>
      <trkpt lat="50.789996" lon="7.188284">
      </trkpt>
      <trkpt lat="50.789669" lon="7.189205">
      </trkpt>
      <trkpt lat="50.790152" lon="7.189695">
      </trkpt>
      <trkpt lat="50.790943" lon="7.189168">
      </trkpt>
      <trkpt lat="50.791926" lon="7.187618">
      </trkpt>
      <trkpt lat="50.792323" lon="7.18704">
      </trkpt>
      <trkpt lat="50.792877" lon="7.186395">
      </trkpt>
      <trkpt lat="50.793668" lon="7.185232">
      </trkpt>
      <trkpt lat="50.79415" lon="7.184407">
      </trkpt>
      <trkpt lat="50.794584" lon="7.183478">
      </trkpt>
      <trkpt lat="50.795409" lon="7.181019">
      </trkpt>
      <trkpt lat="50.796041" lon="7.179911">
      </trkpt>
      <trkpt lat="50.796561" lon="7.17936">
      </trkpt>
      <trkpt lat="50.797131" lon="7.178006">
      </trkpt>
      <trkpt lat="50.7976" lon="7.177152">
      </trkpt>
      <trkpt lat="50.79805" lon="7.176662">
      </trkpt>
      <trkpt lat="50.798699" lon="7.176133">
      </trkpt>
      <trkpt lat="50.798386" lon="7.17511">
      </trkpt>
      <trkpt lat="50.797879" lon="7.17441">
      </trkpt>
      <trkpt lat="50.797904" lon="7.172865">
      </trkpt>
      <trkpt lat="50.797811" lon="7.170554">
      </trkpt>
      <trkpt lat="50.79772" lon="7.168276">
      </trkpt>
      <trkpt lat="50.797483" lon="7.167433">
      </trkpt>
      <trkpt lat="50.797371" lon="7.166596">
      </trkpt>
      <trkpt lat="50.796773" lon="7.166529">
      </trkpt>
      <trkpt lat="50.796232" lon="7.166412">
      </trkpt>
      <trkpt lat="50.798915" lon="7.166596">
      </trkpt>
      <trkpt lat="50.798989" lon="7.165666">
      </trkpt>
      <trkpt lat="50.798467" lon="7.164689">
      </trkpt>
      <trkpt lat="50.7984" lon="7.163339">
      </trkpt>
      <trkpt lat="50.798214" lon="7.16235">
      </trkpt>
      <trkpt lat="50.798114" lon="7.160919">
      </trkpt>
      <trkpt lat="50.798024" lon="7.159725">
      </trkpt>
      <trkpt lat="50.798005" lon="7.158592">
      </trkpt>
      <trkpt lat="50.79808" lon="7.157536">
      </trkpt>
      <trkpt lat="50.798202" lon="7.156673">
      </trkpt>
      <trkpt lat="50.798269" lon="7.154455">
      </trkpt>
      <trkpt lat="50.797947" lon="7.15266">
      </trkpt>
      <trkpt lat="50.797321" lon="7.150225">
      </trkpt>
      <trkpt lat="50.797145" lon="7.149269">
      </trkpt>
      <trkpt lat="50.796854" lon="7.147361">
      </trkpt>
      <trkpt lat="50.796183" lon="7.145385">
      </trkpt>
      <trkpt lat="50.79517" lon="7.143268">
      </trkpt>
      <trkpt lat="50.794214" lon="7.141905">
      </trkpt>
      <trkpt lat="50.793495" lon="7.141547">
      </trkpt>
      <trkpt lat="50.793114" lon="7.140465">
      </trkpt>
      <trkpt lat="50.792757" lon="7.139677">
      </trkpt>
      <trkpt lat="50.792201" lon="7.139149">
      </trkpt>
      <trkpt lat="50.791669" lon="7.138745">
      </trkpt>
      <trkpt lat="50.790727" lon="7.139039">
      </trkpt>
      <trkpt lat="50.790178" lon="7.138854">
      </trkpt>
      <trkpt lat="50.789476" lon="7.137752">
      </trkpt>
      <trkpt lat="50.789197" lon="7.136534">
      </trkpt>
      <trkpt lat="50.788793" lon="7.135808">
      </trkpt>
      <trkpt lat="50.78831" lon="7.135376">
      </trkpt>
      <trkpt lat="50.787323" lon="7.135785">
      </trkpt>
      <trkpt lat="50.787124" lon="7.134788">
      </trkpt>
      <trkpt lat="50.786119" lon="7.131548">
      </trkpt>
      <trkpt lat="50.784365" lon="7.132019">
      </trkpt>
      <trkpt lat="50.783524" lon="7.130623">
      </trkpt>
      <trkpt lat="50.783008" lon="7.129819">
      </trkpt>
      <trkpt lat="50.781567" lon="7.128564">
      </trkpt>
      <trkpt lat="50.780199" lon="7.127715">
      </trkpt>
      <trkpt lat="50.778408" lon="7.126942">
      </trkpt>
      <trkpt lat="50.776916" lon="7.126453">
      </trkpt>
      <trkpt lat="50.776356" lon="7.126159">
      </trkpt>
      <trkpt lat="50.775193" lon="7.125271">
      </trkpt>
      <trkpt lat="50.774675" lon="7.124856">
      </trkpt>
      <trkpt lat="50.773411" lon="7.122914">
      </trkpt>
      <trkpt lat="50.773003" lon="7.122097">
      </trkpt>
      <trkpt lat="50.772709" lon="7.121144">
      </trkpt>
      <trkpt lat="50.772455" lon="7.119511">
      </trkpt>
      <trkpt lat="50.772405" lon="7.118024">
      </trkpt>
      <trkpt lat="50.772951" lon="7.117429">
      </trkpt>
      <trkpt lat="50.773376" lon="7.116465">
      </trkpt>
      <trkpt lat="50.774353" lon="7.114401">
      </trkpt>
      <trkpt lat="50.775717" lon="7.112756">
      </trkpt>
      <trkpt lat="50.776197" lon="7.112096">
      </trkpt>
      <trkpt lat="50.775091" lon="7.110776">
      </trkpt>
      <trkpt lat="50.774523" lon="7.109791">
      </trkpt>
      <trkpt lat="50.773491" lon="7.106926">
      </trkpt>
      <trkpt lat="50.773178" lon="7.105587">
      </trkpt>
      <trkpt lat="50.773324" lon="7.104497">
      </trkpt>
      <trkpt lat="50.773334" lon="7.103415">
      </trkpt>
      <trkpt lat="50.772762" lon="7.103552">
      </trkpt>
      <trkpt lat="50.77165" lon="7.103252">
      </trkpt>
      <trkpt lat="50.770931" lon="7.103098">
      </trkpt>
      <trkpt lat="50.770336" lon="7.103024">
      </trkpt>
      <trkpt lat="50.769778" lon="7.103175">
      </trkpt>
      <trkpt lat="50.767586" lon="7.104484">
      </trkpt>
      <trkpt lat="50.766711" lon="7.10571">
      </trkpt>
      <trkpt lat="50.765901" lon="7.107332">
      </trkpt>
      <trkpt lat="50.765044" lon="7.108875">
      </trkpt>
      <trkpt lat="50.764237" lon="7.110204">
      </trkpt>
      <trkpt lat="50.763459" lon="7.11137">
      </trkpt>
      <trkpt lat="50.762968" lon="7.111867">
      </trkpt>
      <trkpt lat="50.762476" lon="7.112482">
      </trkpt>
      <trkpt lat="50.761591" lon="7.113502">
      </trkpt>
      <trkpt lat="50.760774" lon="7.114504">
      </trkpt>
      <trkpt lat="50.760201" lon="7.114562">
      </trkpt>
      <trkpt lat="50.759759" lon="7.112447">
      </trkpt>
      <trkpt lat="50.759741" lon="7.111463">
      </trkpt>
      <trkpt lat="50.760084" lon="7.110162">
      </trkpt>
      <trkpt lat="50.759284" lon="7.10964">
      </trkpt>
      <trkpt lat="50.757569" lon="7.108756">
      </trkpt>
      <trkpt lat="50.757006" lon="7.107971">
      </trkpt>
      <trkpt lat="50.756289" lon="7.106742">
      </trkpt>
      <trkpt lat="50.755604" lon="7.107117">
      </trkpt>
      <trkpt lat="50.754006" lon="7.110195">
      </trkpt>
      <trkpt lat="50.753592" lon="7.110784">
      </trkpt>
      <trkpt lat="50.752676" lon="7.110186">
      </trkpt>
      <trkpt lat="50.752075" lon="7.110113">
      </trkpt>
      <trkpt lat="50.751163" lon="7.110648">
      </trkpt>
      <trkpt lat="50.749635" lon="7.111867">
      </trkpt>
      <trkpt lat="50.748463" lon="7.112744">
      </trkpt>
      <trkpt lat="50.747951" lon="7.113169">
      </trkpt>
      <trkpt lat="50.747324" lon="7.113644">
      </trkpt>
      <trkpt lat="50.746705" lon="7.114088">
      </trkpt>
      <trkpt lat="50.745998" lon="7.114403">
      </trkpt>
      <trkpt lat="50.745193" lon="7.114292">
      </trkpt>
      <trkpt lat="50.745108" lon="7.11303">
      </trkpt>
      <trkpt lat="50.745091" lon="7.111989">
      </trkpt>
      <trkpt lat="50.743406" lon="7.112363">
      </trkpt>
      <trkpt lat="50.742329" lon="7.11263">
      </trkpt>
      <trkpt lat="50.741752" lon="7.112603">
      </trkpt>
      <trkpt lat="50.741032" lon="7.112915">
      </trkpt>
      <trkpt lat="50.740466" lon="7.113008">
      </trkpt>
      <trkpt lat="50.739778" lon="7.112939">
      </trkpt>
      <trkpt lat="50.738815" lon="7.113125">
      </trkpt>
      <trkpt lat="50.739012" lon="7.114687">
      </trkpt>
      <trkpt lat="50.739133" lon="7.115623">
      </trkpt>
      <trkpt lat="50.738756" lon="7.114711">
      </trkpt>
      <trkpt lat="50.738574" lon="7.11341">
      </trkpt>
      <trkpt lat="50.738118" lon="7.110063">
      </trkpt>
      <trkpt lat="50.73765" lon="7.106707">
      </trkpt>
      <trkpt lat="50.737447" lon="7.105809">
      </trkpt>
      <trkpt lat="50.736871" lon="7.10584">
      </trkpt>
      <trkpt lat="50.736138" lon="7.106072">
      </trkpt>
      <trkpt lat="50.735778" lon="7.105198">
      </trkpt>
      <trkpt lat="50.734693" lon="7.105412">
      </trkpt>
      <trkpt lat="50.73444" lon="7.104193">
      </trkpt>
    </trkseg>
  </trk>
</gpx>