<?xml version="1.0" encoding="UTF-8"?>
<gpx xmlns="http://www.topografix.com/GPX/1/1" xmlns:xsi="http://www.w3.org/2001/XMLSchema-instance" xsi:schemaLocation="http://www.topografix.com/GPX/1/1 http://www.topografix.com/GPX/1/1/gpx.xsd" version="1.1" creator="gpx.py -- https://github.com/tkrajina/gpxpy">
  <metadata>
    <name>027</name>
  </metadata>
  <trk>
    <name>027</name>
    <trkseg>
      <trkpt lat="50.734282" lon="7.104054">
      </trkpt>
      <trkpt lat="50.733422" lon="7.104426">
      </trkpt>
      <trkpt lat="50.732878" lon="7.105476">
      </trkpt>
      <trkpt lat="50.732366" lon="7.105861">
      </trkpt>
      <trkpt lat="50.731509" lon="7.105369">
      </trkpt>
      <trkpt lat="50.730528" lon="7.106191">
      </trkpt>
      <trkpt lat="50.730083" lon="7.105663">
      </trkpt>
      <trkpt lat="50.729425" lon="7.106153">
      </trkpt>
      <trkpt lat="50.728432" lon="7.10671">
      </trkpt>
      <trkpt lat="50.727846" lon="7.107035">
      </trkpt>
      <trkpt lat="50.726822" lon="7.107796">
      </trkpt>
      <trkpt lat="50.726291" lon="7.108415">
      </trkpt>
      <trkpt lat="50.725442" lon="7.108591">
      </trkpt>
      <trkpt lat="50.724752" lon="7.108214">
      </trkpt>
      <trkpt lat="50.723757" lon="7.108572">
      </trkpt>
      <trkpt lat="50.723214" lon="7.109121">
      </trkpt>
      <trkpt lat="50.722383" lon="7.109946">
      </trkpt>
      <trkpt lat="50.721913" lon="7.110416">
      </trkpt>
      <trkpt lat="50.721267" lon="7.11105">
      </trkpt>
      <trkpt lat="50.720368" lon="7.111941">
      </trkpt>
      <trkpt lat="50.719768" lon="7.11251">
      </trkpt>
      <trkpt lat="50.719761" lon="7.11161">
      </trkpt>
      <trkpt lat="50.719245" lon="7.111327">
      </trkpt>
      <trkpt lat="50.719023" lon="7.110138">
      </trkpt>
      <trkpt lat="50.718883" lon="7.108615">
      </trkpt>
      <trkpt lat="50.718821" lon="7.107683">
      </trkpt>
      <trkpt lat="50.718701" lon="7.106726">
      </trkpt>
      <trkpt lat="50.71852" lon="7.105708">
      </trkpt>
      <trkpt lat="50.718371" lon="7.104828">
      </trkpt>
      <trkpt lat="50.717441" lon="7.104936">
      </trkpt>
      <trkpt lat="50.716943" lon="7.104565">
      </trkpt>
      <trkpt lat="50.716536" lon="7.103945">
      </trkpt>
      <trkpt lat="50.716447" lon="7.103026">
      </trkpt>
      <trkpt lat="50.716473" lon="7.102126">
      </trkpt>
      <trkpt lat="50.716694" lon="7.100387">
      </trkpt>
      <trkpt lat="50.716972" lon="7.099318">
      </trkpt>
      <trkpt lat="50.71726" lon="7.098373">
      </trkpt>
      <trkpt lat="50.717396" lon="7.097341">
      </trkpt>
      <trkpt lat="50.717631" lon="7.096557">
      </trkpt>
      <trkpt lat="50.718184" lon="7.095824">
      </trkpt>
      <trkpt lat="50.718344" lon="7.094976">
      </trkpt>
      <trkpt lat="50.718294" lon="7.093987">
      </trkpt>
      <trkpt lat="50.718089" lon="7.092876">
      </trkpt>
      <trkpt lat="50.717817" lon="7.09201">
      </trkpt>
      <trkpt lat="50.717521" lon="7.091119">
      </trkpt>
      <trkpt lat="50.717085" lon="7.090374">
      </trkpt>
      <trkpt lat="50.716492" lon="7.090045">
      </trkpt>
      <trkpt lat="50.715896" lon="7.090351">
      </trkpt>
      <trkpt lat="50.71561" lon="7.091116">
      </trkpt>
      <trkpt lat="50.715358" lon="7.092172">
      </trkpt>
      <trkpt lat="50.714859" lon="7.093015">
      </trkpt>
      <trkpt lat="50.713949" lon="7.092989">
      </trkpt>
      <trkpt lat="50.712781" lon="7.092498">
      </trkpt>
      <trkpt lat="50.711656" lon="7.092362">
      </trkpt>
      <trkpt lat="50.711045" lon="7.092084">
      </trkpt>
      <trkpt lat="50.710505" lon="7.091717">
      </trkpt>
      <trkpt lat="50.709744" lon="7.091501">
      </trkpt>
      <trkpt lat="50.70842" lon="7.091661">
      </trkpt>
      <trkpt lat="50.707606" lon="7.091484">
      </trkpt>
      <trkpt lat="50.706975" lon="7.091141">
      </trkpt>
      <trkpt lat="50.706466" lon="7.09086">
      </trkpt>
      <trkpt lat="50.705813" lon="7.090543">
      </trkpt>
      <trkpt lat="50.704842" lon="7.090135">
      </trkpt>
      <trkpt lat="50.704135" lon="7.090127">
      </trkpt>
      <trkpt lat="50.703522" lon="7.090015">
      </trkpt>
      <trkpt lat="50.70286" lon="7.090207">
      </trkpt>
      <trkpt lat="50.702101" lon="7.090611">
      </trkpt>
      <trkpt lat="50.701423" lon="7.09103">
      </trkpt>
      <trkpt lat="50.700743" lon="7.091198">
      </trkpt>
      <trkpt lat="50.700145" lon="7.091702">
      </trkpt>
      <trkpt lat="50.699691" lon="7.092342">
      </trkpt>
      <trkpt lat="50.699209" lon="7.093279">
      </trkpt>
      <trkpt lat="50.698747" lon="7.094204">
      </trkpt>
      <trkpt lat="50.698286" lon="7.095129">
      </trkpt>
      <trkpt lat="50.697943" lon="7.096439">
      </trkpt>
      <trkpt lat="50.697582" lon="7.097113">
      </trkpt>
      <trkpt lat="50.696998" lon="7.096817">
      </trkpt>
      <trkpt lat="50.696252" lon="7.096643">
      </trkpt>
      <trkpt lat="50.695695" lon="7.09689">
      </trkpt>
      <trkpt lat="50.694915" lon="7.097783">
      </trkpt>
      <trkpt lat="50.694577" lon="7.098545">
      </trkpt>
      <trkpt lat="50.694007" lon="7.099103">
      </trkpt>
      <trkpt lat="50.693468" lon="7.099312">
      </trkpt>
      <trkpt lat="50.692703" lon="7.099231">
      </trkpt>
      <trkpt lat="50.692031" lon="7.099056">
      </trkpt>
      <trkpt lat="50.69159" lon="7.098178">
      </trkpt>
      <trkpt lat="50.691216" lon="7.097268">
      </trkpt>
      <trkpt lat="50.690619" lon="7.095979">
      </trkpt>
      <trkpt lat="50.689968" lon="7.094712">
      </trkpt>
      <trkpt lat="50.689394" lon="7.093753">
      </trkpt>
      <trkpt lat="50.688921" lon="7.09281">
      </trkpt>
      <trkpt lat="50.688638" lon="7.091996">
      </trkpt>
      <trkpt lat="50.688104" lon="7.09108">
      </trkpt>
      <trkpt lat="50.687821" lon="7.09019">
      </trkpt>
      <trkpt lat="50.686429" lon="7.087388">
      </trkpt>
      <trkpt lat="50.685855" lon="7.086231">
      </trkpt>
      <trkpt lat="50.684871" lon="7.084251">
      </trkpt>
      <trkpt lat="50.684364" lon="7.083714">
      </trkpt>
      <trkpt lat="50.683692" lon="7.083871">
      </trkpt>
      <trkpt lat="50.683114" lon="7.083996">
      </trkpt>
      <trkpt lat="50.682435" lon="7.084343">
      </trkpt>
      <trkpt lat="50.68181" lon="7.084778">
      </trkpt>
      <trkpt lat="50.681443" lon="7.085561">
      </trkpt>
      <trkpt lat="50.680644" lon="7.085788">
      </trkpt>
      <trkpt lat="50.680036" lon="7.086061">
      </trkpt>
      <trkpt lat="50.679242" lon="7.086279">
      </trkpt>
      <trkpt lat="50.678525" lon="7.086157">
      </trkpt>
      <trkpt lat="50.677929" lon="7.085713">
      </trkpt>
      <trkpt lat="50.677045" lon="7.084835">
      </trkpt>
      <trkpt lat="50.67644" lon="7.084399">
      </trkpt>
      <trkpt lat="50.675827" lon="7.084133">
      </trkpt>
      <trkpt lat="50.674776" lon="7.083894">
      </trkpt>
      <trkpt lat="50.674091" lon="7.084173">
      </trkpt>
      <trkpt lat="50.673241" lon="7.083752">
      </trkpt>
      <trkpt lat="50.67271" lon="7.083114">
      </trkpt>
      <trkpt lat="50.672089" lon="7.082508">
      </trkpt>
      <trkpt lat="50.671639" lon="7.082021">
      </trkpt>
      <trkpt lat="50.66901" lon="7.084142">
      </trkpt>
      <trkpt lat="50.666467" lon="7.086267">
      </trkpt>
      <trkpt lat="50.665763" lon="7.086597">
      </trkpt>
      <trkpt lat="50.663511" lon="7.087623">
      </trkpt>
      <trkpt lat="50.661778" lon="7.088097">
      </trkpt>
      <trkpt lat="50.66123" lon="7.088163">
      </trkpt>
      <trkpt lat="50.659639" lon="7.088268">
      </trkpt>
      <trkpt lat="50.658756" lon="7.088266">
      </trkpt>
      <trkpt lat="50.657861" lon="7.088189">
      </trkpt>
      <trkpt lat="50.656494" lon="7.088037">
      </trkpt>
      <trkpt lat="50.654958" lon="7.087818">
      </trkpt>
      <trkpt lat="50.653582" lon="7.087419">
      </trkpt>
      <trkpt lat="50.653047" lon="7.087257">
      </trkpt>
      <trkpt lat="50.652244" lon="7.087058">
      </trkpt>
      <trkpt lat="50.650187" lon="7.086989">
      </trkpt>
      <trkpt lat="50.648825" lon="7.087077">
      </trkpt>
      <trkpt lat="50.648241" lon="7.087094">
      </trkpt>
      <trkpt lat="50.64751" lon="7.08553">
      </trkpt>
      <trkpt lat="50.646983" lon="7.084391">
      </trkpt>
      <trkpt lat="50.646606" lon="7.083628">
      </trkpt>
      <trkpt lat="50.645953" lon="7.082851">
      </trkpt>
      <trkpt lat="50.645449" lon="7.081983">
      </trkpt>
      <trkpt lat="50.644912" lon="7.081721">
      </trkpt>
      <trkpt lat="50.64507" lon="7.080077">
      </trkpt>
      <trkpt lat="50.644222" lon="7.079515">
      </trkpt>
      <trkpt lat="50.643707" lon="7.079136">
      </trkpt>
      <trkpt lat="50.643399" lon="7.078372">
      </trkpt>
      <trkpt lat="50.642812" lon="7.076918">
      </trkpt>
      <trkpt lat="50.642155" lon="7.075998">
      </trkpt>
      <trkpt lat="50.64168" lon="7.075521">
      </trkpt>
      <trkpt lat="50.641088" lon="7.075124">
      </trkpt>
      <trkpt lat="50.640553" lon="7.074881">
      </trkpt>
      <trkpt lat="50.639663" lon="7.074579">
      </trkpt>
      <trkpt lat="50.638537" lon="7.07505">
      </trkpt>
      <trkpt lat="50.637618" lon="7.074712">
      </trkpt>
      <trkpt lat="50.637073" lon="7.074211">
      </trkpt>
      <trkpt lat="50.63691" lon="7.073309">
      </trkpt>
      <trkpt lat="50.637051" lon="7.072283">
      </trkpt>
      <trkpt lat="50.637036" lon="7.070303">
      </trkpt>
      <trkpt lat="50.637178" lon="7.068948">
      </trkpt>
      <trkpt lat="50.634815" lon="7.068464">
      </trkpt>
      <trkpt lat="50.632326" lon="7.068555">
      </trkpt>
      <trkpt lat="50.631531" lon="7.068563">
      </trkpt>
      <trkpt lat="50.62805" lon="7.066767">
      </trkpt>
      <trkpt lat="50.627117" lon="7.069002">
      </trkpt>
      <trkpt lat="50.626955" lon="7.070033">
      </trkpt>
      <trkpt lat="50.626964" lon="7.071297">
      </trkpt>
      <trkpt lat="50.626838" lon="7.072225">
      </trkpt>
      <trkpt lat="50.626482" lon="7.07291">
      </trkpt>
      <trkpt lat="50.626128" lon="7.073632">
      </trkpt>
      <trkpt lat="50.625645" lon="7.074309">
      </trkpt>
      <trkpt lat="50.625088" lon="7.075465">
      </trkpt>
      <trkpt lat="50.624692" lon="7.07622">
      </trkpt>
      <trkpt lat="50.624944" lon="7.077063">
      </trkpt>
      <trkpt lat="50.624721" lon="7.078006">
      </trkpt>
      <trkpt lat="50.6241" lon="7.078828">
      </trkpt>
      <trkpt lat="50.62336" lon="7.080895">
      </trkpt>
      <trkpt lat="50.623127" lon="7.082014">
      </trkpt>
      <trkpt lat="50.623018" lon="7.083596">
      </trkpt>
      <trkpt lat="50.622208" lon="7.08424">
      </trkpt>
      <trkpt lat="50.621347" lon="7.084267">
      </trkpt>
      <trkpt lat="50.620578" lon="7.084929">
      </trkpt>
      <trkpt lat="50.620017" lon="7.085362">
      </trkpt>
      <trkpt lat="50.620161" lon="7.087109">
      </trkpt>
      <trkpt lat="50.620717" lon="7.088441">
      </trkpt>
      <trkpt lat="50.620596" lon="7.09196">
      </trkpt>
      <trkpt lat="50.619889" lon="7.09206">
      </trkpt>
      <trkpt lat="50.619014" lon="7.092128">
      </trkpt>
      <trkpt lat="50.619106" lon="7.094827">
      </trkpt>
      <trkpt lat="50.617739" lon="7.095549">
      </trkpt>
      <trkpt lat="50.615977" lon="7.095717">
      </trkpt>
      <trkpt lat="50.615044" lon="7.095808">
      </trkpt>
      <trkpt lat="50.615539" lon="7.098229">
      </trkpt>
      <trkpt lat="50.612898" lon="7.099543">
      </trkpt>
      <trkpt lat="50.611876" lon="7.100182">
      </trkpt>
      <trkpt lat="50.610456" lon="7.101069">
      </trkpt>
      <trkpt lat="50.610868" lon="7.103228">
      </trkpt>
      <trkpt lat="50.611344" lon="7.105685">
      </trkpt>
      <trkpt lat="50.612213" lon="7.107565">
      </trkpt>
      <trkpt lat="50.612896" lon="7.109041">
      </trkpt>
      <trkpt lat="50.612264" lon="7.109352">
      </trkpt>
      <trkpt lat="50.611685" lon="7.109324">
      </trkpt>
      <trkpt lat="50.610783" lon="7.109729">
      </trkpt>
      <trkpt lat="50.609723" lon="7.110038">
      </trkpt>
      <trkpt lat="50.609144" lon="7.109806">
      </trkpt>
      <trkpt lat="50.608362" lon="7.110203">
      </trkpt>
      <trkpt lat="50.607156" lon="7.109252">
      </trkpt>
      <trkpt lat="50.606711" lon="7.11002">
      </trkpt>
      <trkpt lat="50.606766" lon="7.11168">
      </trkpt>
      <trkpt lat="50.606602" lon="7.112514">
      </trkpt>
      <trkpt lat="50.606628" lon="7.113552">
      </trkpt>
      <trkpt lat="50.606823" lon="7.114627">
      </trkpt>
      <trkpt lat="50.605813" lon="7.114819">
      </trkpt>
      <trkpt lat="50.604378" lon="7.115239">
      </trkpt>
      <trkpt lat="50.603577" lon="7.115387">
      </trkpt>
      <trkpt lat="50.603147" lon="7.115971">
      </trkpt>
      <trkpt lat="50.602607" lon="7.116507">
      </trkpt>
      <trkpt lat="50.601922" lon="7.116089">
      </trkpt>
      <trkpt lat="50.601813" lon="7.119802">
      </trkpt>
      <trkpt lat="50.60175" lon="7.122442">
      </trkpt>
      <trkpt lat="50.601723" lon="7.123568">
      </trkpt>
      <trkpt lat="50.601641" lon="7.12591">
      </trkpt>
      <trkpt lat="50.60161" lon="7.12793">
      </trkpt>
      <trkpt lat="50.604053" lon="7.128754">
      </trkpt>
      <trkpt lat="50.60469" lon="7.129011">
      </trkpt>
      <trkpt lat="50.605762" lon="7.129882">
      </trkpt>
      <trkpt lat="50.606272" lon="7.130568">
      </trkpt>
      <trkpt lat="50.607258" lon="7.129569">
      </trkpt>
      <trkpt lat="50.608727" lon="7.128544">
      </trkpt>
      <trkpt lat="50.609914" lon="7.128179">
      </trkpt>
      <trkpt lat="50.610687" lon="7.127647">
      </trkpt>
      <trkpt lat="50.611475" lon="7.128826">
      </trkpt>
      <trkpt lat="50.611923" lon="7.129491">
      </trkpt>
      <trkpt lat="50.612903" lon="7.126613">
      </trkpt>
      <trkpt lat="50.613998" lon="7.123379">
      </trkpt>
      <trkpt lat="50.614351" lon="7.122333">
      </trkpt>
      <trkpt lat="50.614674" lon="7.121333">
      </trkpt>
      <trkpt lat="50.615146" lon="7.121872">
      </trkpt>
      <trkpt lat="50.618041" lon="7.124994">
      </trkpt>
      <trkpt lat="50.618736" lon="7.125897">
      </trkpt>
      <trkpt lat="50.619429" lon="7.126801">
      </trkpt>
      <trkpt lat="50.620187" lon="7.127783">
      </trkpt>
      <trkpt lat="50.62065" lon="7.126901">
      </trkpt>
      <trkpt lat="50.621034" lon="7.126237">
      </trkpt>
      <trkpt lat="50.621575" lon="7.125419">
      </trkpt>
      <trkpt lat="50.622253" lon="7.124635">
      </trkpt>
      <trkpt lat="50.622914" lon="7.123945">
      </trkpt>
      <trkpt lat="50.623946" lon="7.12272">
      </trkpt>
      <trkpt lat="50.625143" lon="7.122058">
      </trkpt>
      <trkpt lat="50.626024" lon="7.121813">
      </trkpt>
      <trkpt lat="50.626989" lon="7.1212">
      </trkpt>
      <trkpt lat="50.627428" lon="7.122227">
      </trkpt>
      <trkpt lat="50.627604" lon="7.123103">
      </trkpt>
      <trkpt lat="50.628215" lon="7.123333">
      </trkpt>
      <trkpt lat="50.628816" lon="7.123942">
      </trkpt>
      <trkpt lat="50.629292" lon="7.124377">
      </trkpt>
      <trkpt lat="50.629923" lon="7.125226">
      </trkpt>
      <trkpt lat="50.6307" lon="7.126895">
      </trkpt>
      <trkpt lat="50.631616" lon="7.127325">
      </trkpt>
      <trkpt lat="50.633047" lon="7.127989">
      </trkpt>
      <trkpt lat="50.634722" lon="7.129425">
      </trkpt>
      <trkpt lat="50.636285" lon="7.131138">
      </trkpt>
      <trkpt lat="50.636869" lon="7.131819">
      </trkpt>
      <trkpt lat="50.637922" lon="7.132699">
      </trkpt>
      <trkpt lat="50.638862" lon="7.133293">
      </trkpt>
      <trkpt lat="50.639625" lon="7.133968">
      </trkpt>
      <trkpt lat="50.640105" lon="7.134672">
      </trkpt>
      <trkpt lat="50.641103" lon="7.136038">
      </trkpt>
      <trkpt lat="50.641953" lon="7.135598">
      </trkpt>
      <trkpt lat="50.643808" lon="7.134308">
      </trkpt>
      <trkpt lat="50.644932" lon="7.140024">
      </trkpt>
      <trkpt lat="50.645411" lon="7.14247">
      </trkpt>
      <trkpt lat="50.64702" lon="7.141941">
      </trkpt>
      <trkpt lat="50.648312" lon="7.141504">
      </trkpt>
      <trkpt lat="50.649824" lon="7.141009">
      </trkpt>
      <trkpt lat="50.650631" lon="7.140891">
      </trkpt>
      <trkpt lat="50.651254" lon="7.141002">
      </trkpt>
      <trkpt lat="50.652216" lon="7.140747">
      </trkpt>
      <trkpt lat="50.653458" lon="7.140915">
      </trkpt>
      <trkpt lat="50.654188" lon="7.141296">
      </trkpt>
      <trkpt lat="50.655014" lon="7.141527">
      </trkpt>
      <trkpt lat="50.656098" lon="7.141723">
      </trkpt>
      <trkpt lat="50.657264" lon="7.142023">
      </trkpt>
      <trkpt lat="50.657992" lon="7.142883">
      </trkpt>
      <trkpt lat="50.659903" lon="7.143662">
      </trkpt>
      <trkpt lat="50.660705" lon="7.144001">
      </trkpt>
      <trkpt lat="50.661913" lon="7.143823">
      </trkpt>
      <trkpt lat="50.662299" lon="7.144895">
      </trkpt>
      <trkpt lat="50.662687" lon="7.145531">
      </trkpt>
      <trkpt lat="50.66323" lon="7.146307">
      </trkpt>
      <trkpt lat="50.663858" lon="7.14696">
      </trkpt>
      <trkpt lat="50.664757" lon="7.147883">
      </trkpt>
      <trkpt lat="50.665213" lon="7.147221">
      </trkpt>
      <trkpt lat="50.665071" lon="7.146236">
      </trkpt>
      <trkpt lat="50.664674" lon="7.144997">
      </trkpt>
      <trkpt lat="50.664908" lon="7.143522">
      </trkpt>
      <trkpt lat="50.66542" lon="7.143058">
      </trkpt>
      <trkpt lat="50.666053" lon="7.141751">
      </trkpt>
      <trkpt lat="50.667674" lon="7.14078">
      </trkpt>
      <trkpt lat="50.668284" lon="7.140131">
      </trkpt>
      <trkpt lat="50.66988" lon="7.138359">
      </trkpt>
      <trkpt lat="50.670593" lon="7.138051">
      </trkpt>
      <trkpt lat="50.671333" lon="7.137961">
      </trkpt>
      <trkpt lat="50.671918" lon="7.137645">
      </trkpt>
      <trkpt lat="50.672706" lon="7.138232">
      </trkpt>
      <trkpt lat="50.67293" lon="7.1394">
      </trkpt>
      <trkpt lat="50.673361" lon="7.139939">
      </trkpt>
      <trkpt lat="50.673918" lon="7.140962">
      </trkpt>
      <trkpt lat="50.674508" lon="7.142179">
      </trkpt>
      <trkpt lat="50.675049" lon="7.143529">
      </trkpt>
      <trkpt lat="50.675493" lon="7.14411">
      </trkpt>
      <trkpt lat="50.676038" lon="7.144746">
      </trkpt>
      <trkpt lat="50.677106" lon="7.144647">
      </trkpt>
      <trkpt lat="50.677724" lon="7.145031">
      </trkpt>
      <trkpt lat="50.678361" lon="7.145559">
      </trkpt>
      <trkpt lat="50.678864" lon="7.146638">
      </trkpt>
      <trkpt lat="50.679372" lon="7.1475">
      </trkpt>
      <trkpt lat="50.679867" lon="7.147954">
      </trkpt>
      <trkpt lat="50.680076" lon="7.149048">
      </trkpt>
      <trkpt lat="50.680951" lon="7.150103">
      </trkpt>
      <trkpt lat="50.681713" lon="7.150986">
      </trkpt>
      <trkpt lat="50.68252" lon="7.15088">
      </trkpt>
      <trkpt lat="50.683012" lon="7.150184">
      </trkpt>
      <trkpt lat="50.683554" lon="7.150222">
      </trkpt>
      <trkpt lat="50.684353" lon="7.151608">
      </trkpt>
      <trkpt lat="50.684825" lon="7.152347">
      </trkpt>
      <trkpt lat="50.685329" lon="7.152745">
      </trkpt>
      <trkpt lat="50.685867" lon="7.15256">
      </trkpt>
      <trkpt lat="50.686528" lon="7.151548">
      </trkpt>
      <trkpt lat="50.686942" lon="7.150807">
      </trkpt>
      <trkpt lat="50.687469" lon="7.149696">
      </trkpt>
      <trkpt lat="50.687856" lon="7.148614">
      </trkpt>
      <trkpt lat="50.688116" lon="7.147828">
      </trkpt>
      <trkpt lat="50.689043" lon="7.145952">
      </trkpt>
      <trkpt lat="50.689506" lon="7.144901">
      </trkpt>
      <trkpt lat="50.689799" lon="7.14382">
      </trkpt>
      <trkpt lat="50.690068" lon="7.142794">
      </trkpt>
      <trkpt lat="50.690381" lon="7.141992">
      </trkpt>
      <trkpt lat="50.690872" lon="7.140694">
      </trkpt>
      <trkpt lat="50.691157" lon="7.139836">
      </trkpt>
      <trkpt lat="50.691755" lon="7.137991">
      </trkpt>
      <trkpt lat="50.692137" lon="7.136853">
      </trkpt>
      <trkpt lat="50.69241" lon="7.136032">
      </trkpt>
      <trkpt lat="50.692693" lon="7.135211">
      </trkpt>
      <trkpt lat="50.693079" lon="7.134053">
      </trkpt>
      <trkpt lat="50.693438" lon="7.133045">
      </trkpt>
      <trkpt lat="50.693976" lon="7.132217">
      </trkpt>
      <trkpt lat="50.69454" lon="7.13123">
      </trkpt>
      <trkpt lat="50.694929" lon="7.130586">
      </trkpt>
      <trkpt lat="50.695582" lon="7.129862">
      </trkpt>
      <trkpt lat="50.696128" lon="7.129003">
      </trkpt>
      <trkpt lat="50.6965" lon="7.128218">
      </trkpt>
      <trkpt lat="50.696935" lon="7.12763">
      </trkpt>
      <trkpt lat="50.697555" lon="7.126959">
      </trkpt>
      <trkpt lat="50.698161" lon="7.126807">
      </trkpt>
      <trkpt lat="50.69881" lon="7.126136">
      </trkpt>
      <trkpt lat="50.699196" lon="7.12541">
      </trkpt>
      <trkpt lat="50.699848" lon="7.124413">
      </trkpt>
      <trkpt lat="50.700362" lon="7.123629">
      </trkpt>
      <trkpt lat="50.700786" lon="7.122981">
      </trkpt>
      <trkpt lat="50.701771" lon="7.121925">
      </trkpt>
      <trkpt lat="50.702562" lon="7.120837">
      </trkpt>
      <trkpt lat="50.703134" lon="7.119731">
      </trkpt>
      <trkpt lat="50.703668" lon="7.119008">
      </trkpt>
      <trkpt lat="50.704295" lon="7.118446">
      </trkpt>
      <trkpt lat="50.703967" lon="7.117471">
      </trkpt>
      <trkpt lat="50.703855" lon="7.116633">
      </trkpt>
      <trkpt lat="50.704373" lon="7.115904">
      </trkpt>
      <trkpt lat="50.704992" lon="7.115441">
      </trkpt>
      <trkpt lat="50.705527" lon="7.115004">
      </trkpt>
      <trkpt lat="50.705969" lon="7.114516">
      </trkpt>
      <trkpt lat="50.70646" lon="7.115373">
      </trkpt>
      <trkpt lat="50.706996" lon="7.115943">
      </trkpt>
      <trkpt lat="50.707679" lon="7.117134">
      </trkpt>
      <trkpt lat="50.708212" lon="7.116559">
      </trkpt>
      <trkpt lat="50.708677" lon="7.115991">
      </trkpt>
      <trkpt lat="50.709176" lon="7.115638">
      </trkpt>
      <trkpt lat="50.709843" lon="7.115236">
      </trkpt>
      <trkpt lat="50.710646" lon="7.114315">
      </trkpt>
      <trkpt lat="50.711132" lon="7.113797">
      </trkpt>
      <trkpt lat="50.711796" lon="7.113338">
      </trkpt>
      <trkpt lat="50.712554" lon="7.113058">
      </trkpt>
      <trkpt lat="50.713095" lon="7.112931">
      </trkpt>
      <trkpt lat="50.713922" lon="7.112713">
      </trkpt>
      <trkpt lat="50.714613" lon="7.113196">
      </trkpt>
      <trkpt lat="50.715018" lon="7.113848">
      </trkpt>
      <trkpt lat="50.71544" lon="7.114673">
      </trkpt>
      <trkpt lat="50.716757" lon="7.113358">
      </trkpt>
      <trkpt lat="50.716742" lon="7.112147">
      </trkpt>
      <trkpt lat="50.717219" lon="7.111701">
      </trkpt>
      <trkpt lat="50.717807" lon="7.111426">
      </trkpt>
    </trkseg>
  </trk>
</gpx>