<?xml version="1.0" encoding="UTF-8"?>
<gpx xmlns="http://www.topografix.com/GPX/1/1" xmlns:xsi="http://www.w3.org/2001/XMLSchema-instance" xsi:schemaLocation="http://www.topografix.com/GPX/1/1 http://www.topografix.com/GPX/1/1/gpx.xsd" version="1.1" creator="gpx.py -- https://github.com/tkrajina/gpxpy">
  <metadata>
    <name>029</name>
  </metadata>
  <trk>
    <name>029</name>
    <trkseg>
      <trkpt lat="50.734101" lon="7.104048">
      </trkpt>
      <trkpt lat="50.733422" lon="7.104426">
      </trkpt>
      <trkpt lat="50.732878" lon="7.105476">
      </trkpt>
      <trkpt lat="50.732366" lon="7.105861">
      </trkpt>
      <trkpt lat="50.731821" lon="7.105078">
      </trkpt>
      <trkpt lat="50.731246" lon="7.104698">
      </trkpt>
      <trkpt lat="50.730676" lon="7.103937">
      </trkpt>
      <trkpt lat="50.730351" lon="7.103064">
      </trkpt>
      <trkpt lat="50.729252" lon="7.103854">
      </trkpt>
      <trkpt lat="50.728812" lon="7.103128">
      </trkpt>
      <trkpt lat="50.728434" lon="7.102197">
      </trkpt>
      <trkpt lat="50.728104" lon="7.101371">
      </trkpt>
      <trkpt lat="50.72775" lon="7.100243">
      </trkpt>
      <trkpt lat="50.727157" lon="7.099007">
      </trkpt>
      <trkpt lat="50.726642" lon="7.097886">
      </trkpt>
      <trkpt lat="50.725805" lon="7.098637">
      </trkpt>
      <trkpt lat="50.725272" lon="7.097795">
      </trkpt>
      <trkpt lat="50.724381" lon="7.096387">
      </trkpt>
      <trkpt lat="50.723674" lon="7.095591">
      </trkpt>
      <trkpt lat="50.722998" lon="7.094847">
      </trkpt>
      <trkpt lat="50.722521" lon="7.094336">
      </trkpt>
      <trkpt lat="50.721755" lon="7.093539">
      </trkpt>
      <trkpt lat="50.721002" lon="7.092764">
      </trkpt>
      <trkpt lat="50.720515" lon="7.092259">
      </trkpt>
      <trkpt lat="50.719774" lon="7.091731">
      </trkpt>
      <trkpt lat="50.719448" lon="7.092525">
      </trkpt>
      <trkpt lat="50.71908" lon="7.094313">
      </trkpt>
      <trkpt lat="50.718615" lon="7.095685">
      </trkpt>
      <trkpt lat="50.718184" lon="7.096325">
      </trkpt>
      <trkpt lat="50.717631" lon="7.096557">
      </trkpt>
      <trkpt lat="50.718184" lon="7.095824">
      </trkpt>
      <trkpt lat="50.718344" lon="7.094976">
      </trkpt>
      <trkpt lat="50.718294" lon="7.093987">
      </trkpt>
      <trkpt lat="50.718089" lon="7.092876">
      </trkpt>
      <trkpt lat="50.717394" lon="7.092401">
      </trkpt>
      <trkpt lat="50.716667" lon="7.092486">
      </trkpt>
      <trkpt lat="50.715987" lon="7.092817">
      </trkpt>
      <trkpt lat="50.715357" lon="7.092818">
      </trkpt>
      <trkpt lat="50.714739" lon="7.093365">
      </trkpt>
      <trkpt lat="50.714195" lon="7.093617">
      </trkpt>
      <trkpt lat="50.713441" lon="7.093269">
      </trkpt>
      <trkpt lat="50.712599" lon="7.092992">
      </trkpt>
      <trkpt lat="50.712742" lon="7.094029">
      </trkpt>
      <trkpt lat="50.713207" lon="7.094499">
      </trkpt>
      <trkpt lat="50.713779" lon="7.095082">
      </trkpt>
      <trkpt lat="50.713895" lon="7.096087">
      </trkpt>
      <trkpt lat="50.71291" lon="7.09711">
      </trkpt>
      <trkpt lat="50.712288" lon="7.09764">
      </trkpt>
      <trkpt lat="50.711523" lon="7.097498">
      </trkpt>
      <trkpt lat="50.712081" lon="7.098266">
      </trkpt>
      <trkpt lat="50.711383" lon="7.098901">
      </trkpt>
      <trkpt lat="50.710869" lon="7.099897">
      </trkpt>
      <trkpt lat="50.710385" lon="7.100475">
      </trkpt>
      <trkpt lat="50.710109" lon="7.101621">
      </trkpt>
      <trkpt lat="50.709524" lon="7.101695">
      </trkpt>
      <trkpt lat="50.708922" lon="7.101898">
      </trkpt>
      <trkpt lat="50.708298" lon="7.102149">
      </trkpt>
      <trkpt lat="50.707776" lon="7.102533">
      </trkpt>
      <trkpt lat="50.707248" lon="7.102328">
      </trkpt>
      <trkpt lat="50.706557" lon="7.103434">
      </trkpt>
      <trkpt lat="50.70636" lon="7.104432">
      </trkpt>
      <trkpt lat="50.705856" lon="7.105256">
      </trkpt>
      <trkpt lat="50.705125" lon="7.105444">
      </trkpt>
      <trkpt lat="50.70451" lon="7.105384">
      </trkpt>
      <trkpt lat="50.703971" lon="7.105908">
      </trkpt>
      <trkpt lat="50.703466" lon="7.10638">
      </trkpt>
      <trkpt lat="50.702922" lon="7.107082">
      </trkpt>
      <trkpt lat="50.702662" lon="7.107849">
      </trkpt>
      <trkpt lat="50.701896" lon="7.108425">
      </trkpt>
      <trkpt lat="50.701099" lon="7.1082">
      </trkpt>
      <trkpt lat="50.700594" lon="7.108964">
      </trkpt>
      <trkpt lat="50.699948" lon="7.108825">
      </trkpt>
      <trkpt lat="50.699416" lon="7.108235">
      </trkpt>
      <trkpt lat="50.698811" lon="7.108343">
      </trkpt>
      <trkpt lat="50.698201" lon="7.108874">
      </trkpt>
      <trkpt lat="50.697046" lon="7.109237">
      </trkpt>
      <trkpt lat="50.69651" lon="7.10913">
      </trkpt>
      <trkpt lat="50.695831" lon="7.108615">
      </trkpt>
      <trkpt lat="50.694492" lon="7.107933">
      </trkpt>
      <trkpt lat="50.693813" lon="7.10733">
      </trkpt>
      <trkpt lat="50.693307" lon="7.106932">
      </trkpt>
      <trkpt lat="50.693075" lon="7.106056">
      </trkpt>
      <trkpt lat="50.693208" lon="7.105031">
      </trkpt>
      <trkpt lat="50.693836" lon="7.103618">
      </trkpt>
      <trkpt lat="50.694648" lon="7.102579">
      </trkpt>
      <trkpt lat="50.695272" lon="7.101046">
      </trkpt>
      <trkpt lat="50.695641" lon="7.100412">
      </trkpt>
      <trkpt lat="50.696037" lon="7.099778">
      </trkpt>
      <trkpt lat="50.695524" lon="7.099256">
      </trkpt>
      <trkpt lat="50.694915" lon="7.097783">
      </trkpt>
      <trkpt lat="50.694443" lon="7.097145">
      </trkpt>
      <trkpt lat="50.694783" lon="7.094656">
      </trkpt>
      <trkpt lat="50.694867" lon="7.09376">
      </trkpt>
      <trkpt lat="50.693971" lon="7.093752">
      </trkpt>
      <trkpt lat="50.693341" lon="7.092874">
      </trkpt>
      <trkpt lat="50.692896" lon="7.092158">
      </trkpt>
      <trkpt lat="50.692388" lon="7.09253">
      </trkpt>
      <trkpt lat="50.691918" lon="7.093148">
      </trkpt>
      <trkpt lat="50.69142" lon="7.092714">
      </trkpt>
      <trkpt lat="50.690941" lon="7.092291">
      </trkpt>
      <trkpt lat="50.690345" lon="7.091691">
      </trkpt>
      <trkpt lat="50.689731" lon="7.091726">
      </trkpt>
      <trkpt lat="50.688916" lon="7.091544">
      </trkpt>
      <trkpt lat="50.688104" lon="7.09108">
      </trkpt>
      <trkpt lat="50.687821" lon="7.09019">
      </trkpt>
      <trkpt lat="50.686429" lon="7.087388">
      </trkpt>
      <trkpt lat="50.685855" lon="7.086231">
      </trkpt>
      <trkpt lat="50.684871" lon="7.084251">
      </trkpt>
      <trkpt lat="50.684364" lon="7.083714">
      </trkpt>
      <trkpt lat="50.683692" lon="7.083871">
      </trkpt>
      <trkpt lat="50.683114" lon="7.083996">
      </trkpt>
      <trkpt lat="50.682435" lon="7.084343">
      </trkpt>
      <trkpt lat="50.68181" lon="7.084778">
      </trkpt>
      <trkpt lat="50.681443" lon="7.085561">
      </trkpt>
      <trkpt lat="50.680644" lon="7.085788">
      </trkpt>
      <trkpt lat="50.680036" lon="7.086061">
      </trkpt>
      <trkpt lat="50.679242" lon="7.086279">
      </trkpt>
      <trkpt lat="50.678525" lon="7.086157">
      </trkpt>
      <trkpt lat="50.677929" lon="7.085713">
      </trkpt>
      <trkpt lat="50.677045" lon="7.084835">
      </trkpt>
      <trkpt lat="50.67644" lon="7.084399">
      </trkpt>
      <trkpt lat="50.675827" lon="7.084133">
      </trkpt>
      <trkpt lat="50.674776" lon="7.083894">
      </trkpt>
      <trkpt lat="50.674091" lon="7.084173">
      </trkpt>
      <trkpt lat="50.673241" lon="7.083752">
      </trkpt>
      <trkpt lat="50.67271" lon="7.083114">
      </trkpt>
      <trkpt lat="50.672089" lon="7.082508">
      </trkpt>
      <trkpt lat="50.671639" lon="7.082021">
      </trkpt>
      <trkpt lat="50.66901" lon="7.084142">
      </trkpt>
      <trkpt lat="50.668555" lon="7.082766">
      </trkpt>
      <trkpt lat="50.66903" lon="7.081741">
      </trkpt>
      <trkpt lat="50.669943" lon="7.080758">
      </trkpt>
      <trkpt lat="50.669961" lon="7.079612">
      </trkpt>
      <trkpt lat="50.67045" lon="7.079185">
      </trkpt>
      <trkpt lat="50.670052" lon="7.07791">
      </trkpt>
      <trkpt lat="50.669668" lon="7.076509">
      </trkpt>
      <trkpt lat="50.669395" lon="7.075481">
      </trkpt>
      <trkpt lat="50.66912" lon="7.074748">
      </trkpt>
      <trkpt lat="50.668812" lon="7.073729">
      </trkpt>
      <trkpt lat="50.668311" lon="7.072927">
      </trkpt>
      <trkpt lat="50.667936" lon="7.072097">
      </trkpt>
      <trkpt lat="50.668253" lon="7.070899">
      </trkpt>
      <trkpt lat="50.6694" lon="7.067182">
      </trkpt>
      <trkpt lat="50.668279" lon="7.066871">
      </trkpt>
      <trkpt lat="50.664523" lon="7.065829">
      </trkpt>
      <trkpt lat="50.662837" lon="7.065362">
      </trkpt>
      <trkpt lat="50.664633" lon="7.0708">
      </trkpt>
      <trkpt lat="50.666287" lon="7.075825">
      </trkpt>
      <trkpt lat="50.663029" lon="7.077289">
      </trkpt>
      <trkpt lat="50.663011" lon="7.078244">
      </trkpt>
      <trkpt lat="50.663282" lon="7.078985">
      </trkpt>
      <trkpt lat="50.663521" lon="7.07986">
      </trkpt>
      <trkpt lat="50.66384" lon="7.080826">
      </trkpt>
      <trkpt lat="50.664117" lon="7.081621">
      </trkpt>
      <trkpt lat="50.664409" lon="7.082385">
      </trkpt>
      <trkpt lat="50.664679" lon="7.083208">
      </trkpt>
      <trkpt lat="50.664912" lon="7.084048">
      </trkpt>
      <trkpt lat="50.665763" lon="7.086597">
      </trkpt>
      <trkpt lat="50.663511" lon="7.087623">
      </trkpt>
      <trkpt lat="50.661778" lon="7.088097">
      </trkpt>
      <trkpt lat="50.66323" lon="7.09219">
      </trkpt>
      <trkpt lat="50.664473" lon="7.095695">
      </trkpt>
      <trkpt lat="50.663019" lon="7.097377">
      </trkpt>
      <trkpt lat="50.661218" lon="7.098729">
      </trkpt>
      <trkpt lat="50.665613" lon="7.105319">
      </trkpt>
      <trkpt lat="50.669251" lon="7.108654">
      </trkpt>
      <trkpt lat="50.671578" lon="7.110761">
      </trkpt>
      <trkpt lat="50.672278" lon="7.111218">
      </trkpt>
      <trkpt lat="50.672725" lon="7.111768">
      </trkpt>
      <trkpt lat="50.672888" lon="7.112693">
      </trkpt>
      <trkpt lat="50.673583" lon="7.114196">
      </trkpt>
      <trkpt lat="50.670997" lon="7.116083">
      </trkpt>
      <trkpt lat="50.671344" lon="7.11792">
      </trkpt>
      <trkpt lat="50.671383" lon="7.118835">
      </trkpt>
      <trkpt lat="50.671395" lon="7.120858">
      </trkpt>
      <trkpt lat="50.671195" lon="7.122509">
      </trkpt>
      <trkpt lat="50.671059" lon="7.124133">
      </trkpt>
      <trkpt lat="50.67098" lon="7.125086">
      </trkpt>
      <trkpt lat="50.671142" lon="7.126696">
      </trkpt>
      <trkpt lat="50.671174" lon="7.127631">
      </trkpt>
      <trkpt lat="50.670997" lon="7.1293">
      </trkpt>
      <trkpt lat="50.671392" lon="7.130448">
      </trkpt>
      <trkpt lat="50.672067" lon="7.128424">
      </trkpt>
      <trkpt lat="50.672719" lon="7.129733">
      </trkpt>
      <trkpt lat="50.673132" lon="7.129166">
      </trkpt>
      <trkpt lat="50.674122" lon="7.129825">
      </trkpt>
      <trkpt lat="50.674961" lon="7.131152">
      </trkpt>
      <trkpt lat="50.675744" lon="7.132091">
      </trkpt>
      <trkpt lat="50.676066" lon="7.132986">
      </trkpt>
      <trkpt lat="50.676365" lon="7.133787">
      </trkpt>
      <trkpt lat="50.677076" lon="7.133096">
      </trkpt>
      <trkpt lat="50.677577" lon="7.132432">
      </trkpt>
      <trkpt lat="50.678104" lon="7.132096">
      </trkpt>
      <trkpt lat="50.678765" lon="7.131044">
      </trkpt>
      <trkpt lat="50.679352" lon="7.129984">
      </trkpt>
      <trkpt lat="50.679864" lon="7.129664">
      </trkpt>
      <trkpt lat="50.680682" lon="7.127789">
      </trkpt>
      <trkpt lat="50.680772" lon="7.126093">
      </trkpt>
      <trkpt lat="50.68152" lon="7.122325">
      </trkpt>
      <trkpt lat="50.682021" lon="7.119824">
      </trkpt>
      <trkpt lat="50.681978" lon="7.118711">
      </trkpt>
      <trkpt lat="50.682065" lon="7.117767">
      </trkpt>
      <trkpt lat="50.682644" lon="7.116548">
      </trkpt>
      <trkpt lat="50.683151" lon="7.115345">
      </trkpt>
      <trkpt lat="50.683526" lon="7.114443">
      </trkpt>
      <trkpt lat="50.68611" lon="7.110248">
      </trkpt>
      <trkpt lat="50.6874" lon="7.108148">
      </trkpt>
      <trkpt lat="50.687621" lon="7.107243">
      </trkpt>
      <trkpt lat="50.688501" lon="7.107274">
      </trkpt>
      <trkpt lat="50.688939" lon="7.106064">
      </trkpt>
      <trkpt lat="50.689339" lon="7.105018">
      </trkpt>
      <trkpt lat="50.68966" lon="7.104331">
      </trkpt>
      <trkpt lat="50.68999" lon="7.10316">
      </trkpt>
      <trkpt lat="50.690369" lon="7.102012">
      </trkpt>
      <trkpt lat="50.690737" lon="7.10119">
      </trkpt>
      <trkpt lat="50.691165" lon="7.09994">
      </trkpt>
      <trkpt lat="50.691606" lon="7.098843">
      </trkpt>
      <trkpt lat="50.69131" lon="7.097476">
      </trkpt>
      <trkpt lat="50.690619" lon="7.095979">
      </trkpt>
      <trkpt lat="50.690793" lon="7.094977">
      </trkpt>
      <trkpt lat="50.691274" lon="7.094127">
      </trkpt>
      <trkpt lat="50.691918" lon="7.093148">
      </trkpt>
      <trkpt lat="50.692388" lon="7.09253">
      </trkpt>
      <trkpt lat="50.692863" lon="7.092093">
      </trkpt>
      <trkpt lat="50.693341" lon="7.092874">
      </trkpt>
      <trkpt lat="50.693739" lon="7.093675">
      </trkpt>
      <trkpt lat="50.69464" lon="7.093591">
      </trkpt>
      <trkpt lat="50.695249" lon="7.092619">
      </trkpt>
      <trkpt lat="50.696129" lon="7.091928">
      </trkpt>
      <trkpt lat="50.696885" lon="7.091632">
      </trkpt>
      <trkpt lat="50.698347" lon="7.092604">
      </trkpt>
      <trkpt lat="50.698931" lon="7.093024">
      </trkpt>
      <trkpt lat="50.699691" lon="7.092342">
      </trkpt>
      <trkpt lat="50.700145" lon="7.091702">
      </trkpt>
      <trkpt lat="50.700743" lon="7.091198">
      </trkpt>
      <trkpt lat="50.701423" lon="7.09103">
      </trkpt>
      <trkpt lat="50.702101" lon="7.090611">
      </trkpt>
      <trkpt lat="50.702734" lon="7.090242">
      </trkpt>
      <trkpt lat="50.703361" lon="7.09002">
      </trkpt>
      <trkpt lat="50.704135" lon="7.090127">
      </trkpt>
      <trkpt lat="50.704842" lon="7.090135">
      </trkpt>
      <trkpt lat="50.705606" lon="7.090396">
      </trkpt>
      <trkpt lat="50.706147" lon="7.090569">
      </trkpt>
      <trkpt lat="50.706188" lon="7.089492">
      </trkpt>
      <trkpt lat="50.706556" lon="7.08879">
      </trkpt>
      <trkpt lat="50.705602" lon="7.087491">
      </trkpt>
      <trkpt lat="50.705447" lon="7.086514">
      </trkpt>
      <trkpt lat="50.705853" lon="7.085484">
      </trkpt>
      <trkpt lat="50.706216" lon="7.084819">
      </trkpt>
      <trkpt lat="50.706768" lon="7.085417">
      </trkpt>
      <trkpt lat="50.707497" lon="7.085431">
      </trkpt>
      <trkpt lat="50.708149" lon="7.086005">
      </trkpt>
      <trkpt lat="50.708741" lon="7.086568">
      </trkpt>
      <trkpt lat="50.709275" lon="7.086994">
      </trkpt>
      <trkpt lat="50.710039" lon="7.087139">
      </trkpt>
      <trkpt lat="50.710911" lon="7.087818">
      </trkpt>
      <trkpt lat="50.711483" lon="7.088014">
      </trkpt>
      <trkpt lat="50.711331" lon="7.088892">
      </trkpt>
      <trkpt lat="50.712272" lon="7.089594">
      </trkpt>
      <trkpt lat="50.713085" lon="7.089682">
      </trkpt>
      <trkpt lat="50.713654" lon="7.08982">
      </trkpt>
      <trkpt lat="50.714297" lon="7.090446">
      </trkpt>
      <trkpt lat="50.714551" lon="7.089693">
      </trkpt>
      <trkpt lat="50.715302" lon="7.08916">
      </trkpt>
      <trkpt lat="50.716289" lon="7.088519">
      </trkpt>
      <trkpt lat="50.716233" lon="7.08757">
      </trkpt>
      <trkpt lat="50.716032" lon="7.086681">
      </trkpt>
      <trkpt lat="50.716865" lon="7.086248">
      </trkpt>
      <trkpt lat="50.717698" lon="7.085838">
      </trkpt>
      <trkpt lat="50.718294" lon="7.085822">
      </trkpt>
      <trkpt lat="50.718858" lon="7.085769">
      </trkpt>
      <trkpt lat="50.719359" lon="7.086261">
      </trkpt>
      <trkpt lat="50.719931" lon="7.087026">
      </trkpt>
      <trkpt lat="50.720547" lon="7.087337">
      </trkpt>
      <trkpt lat="50.721189" lon="7.087774">
      </trkpt>
      <trkpt lat="50.72197" lon="7.088311">
      </trkpt>
      <trkpt lat="50.722603" lon="7.08873">
      </trkpt>
      <trkpt lat="50.723345" lon="7.089266">
      </trkpt>
      <trkpt lat="50.724137" lon="7.089851">
      </trkpt>
      <trkpt lat="50.724612" lon="7.090332">
      </trkpt>
      <trkpt lat="50.725137" lon="7.090956">
      </trkpt>
      <trkpt lat="50.725619" lon="7.091559">
      </trkpt>
      <trkpt lat="50.726209" lon="7.092264">
      </trkpt>
      <trkpt lat="50.726468" lon="7.093178">
      </trkpt>
      <trkpt lat="50.726814" lon="7.09404">
      </trkpt>
      <trkpt lat="50.727562" lon="7.095">
      </trkpt>
      <trkpt lat="50.7282" lon="7.095811">
      </trkpt>
      <trkpt lat="50.729509" lon="7.097466">
      </trkpt>
      <trkpt lat="50.730696" lon="7.098974">
      </trkpt>
      <trkpt lat="50.731163" lon="7.099612">
      </trkpt>
      <trkpt lat="50.731914" lon="7.098615">
      </trkpt>
      <trkpt lat="50.732039" lon="7.099623">
      </trkpt>
      <trkpt lat="50.731839" lon="7.100481">
      </trkpt>
      <trkpt lat="50.732138" lon="7.101498">
      </trkpt>
      <trkpt lat="50.732602" lon="7.102189">
      </trkpt>
      <trkpt lat="50.733318" lon="7.103238">
      </trkpt>
      <trkpt lat="50.733818" lon="7.103684">
      </trkpt>
    </trkseg>
  </trk>
</gpx>