<?xml version="1.0" encoding="UTF-8"?>
<gpx xmlns="http://www.topografix.com/GPX/1/1" xmlns:xsi="http://www.w3.org/2001/XMLSchema-instance" xsi:schemaLocation="http://www.topografix.com/GPX/1/1 http://www.topografix.com/GPX/1/1/gpx.xsd" version="1.1" creator="gpx.py -- https://github.com/tkrajina/gpxpy">
  <metadata>
    <name>030</name>
  </metadata>
  <trk>
    <name>030</name>
    <trkseg>
      <trkpt lat="50.734134" lon="7.104269">
      </trkpt>
      <trkpt lat="50.734714" lon="7.104128">
      </trkpt>
      <trkpt lat="50.735244" lon="7.10382">
      </trkpt>
      <trkpt lat="50.735681" lon="7.104889">
      </trkpt>
      <trkpt lat="50.736251" lon="7.104704">
      </trkpt>
      <trkpt lat="50.736801" lon="7.10427">
      </trkpt>
      <trkpt lat="50.737374" lon="7.103767">
      </trkpt>
      <trkpt lat="50.737562" lon="7.102467">
      </trkpt>
      <trkpt lat="50.737538" lon="7.101492">
      </trkpt>
      <trkpt lat="50.738028" lon="7.101114">
      </trkpt>
      <trkpt lat="50.738752" lon="7.100698">
      </trkpt>
      <trkpt lat="50.73951" lon="7.099893">
      </trkpt>
      <trkpt lat="50.740113" lon="7.099292">
      </trkpt>
      <trkpt lat="50.740665" lon="7.098753">
      </trkpt>
      <trkpt lat="50.740742" lon="7.097756">
      </trkpt>
      <trkpt lat="50.740183" lon="7.09686">
      </trkpt>
      <trkpt lat="50.740512" lon="7.095589">
      </trkpt>
      <trkpt lat="50.740913" lon="7.094555">
      </trkpt>
      <trkpt lat="50.741392" lon="7.09347">
      </trkpt>
      <trkpt lat="50.741856" lon="7.092342">
      </trkpt>
      <trkpt lat="50.74225" lon="7.091381">
      </trkpt>
      <trkpt lat="50.742967" lon="7.089629">
      </trkpt>
      <trkpt lat="50.743518" lon="7.08993">
      </trkpt>
      <trkpt lat="50.743973" lon="7.089194">
      </trkpt>
      <trkpt lat="50.744331" lon="7.088129">
      </trkpt>
      <trkpt lat="50.744736" lon="7.087267">
      </trkpt>
      <trkpt lat="50.745227" lon="7.086384">
      </trkpt>
      <trkpt lat="50.745618" lon="7.086985">
      </trkpt>
      <trkpt lat="50.746499" lon="7.08735">
      </trkpt>
      <trkpt lat="50.74713" lon="7.087501">
      </trkpt>
      <trkpt lat="50.748923" lon="7.086926">
      </trkpt>
      <trkpt lat="50.750003" lon="7.086631">
      </trkpt>
      <trkpt lat="50.751459" lon="7.086219">
      </trkpt>
      <trkpt lat="50.752641" lon="7.08577">
      </trkpt>
      <trkpt lat="50.753042" lon="7.085161">
      </trkpt>
      <trkpt lat="50.754043" lon="7.084684">
      </trkpt>
      <trkpt lat="50.754528" lon="7.084312">
      </trkpt>
      <trkpt lat="50.755391" lon="7.084222">
      </trkpt>
      <trkpt lat="50.756453" lon="7.082766">
      </trkpt>
      <trkpt lat="50.757031" lon="7.082095">
      </trkpt>
      <trkpt lat="50.757524" lon="7.081734">
      </trkpt>
      <trkpt lat="50.758042" lon="7.081246">
      </trkpt>
      <trkpt lat="50.758655" lon="7.080946">
      </trkpt>
      <trkpt lat="50.759401" lon="7.080019">
      </trkpt>
      <trkpt lat="50.759975" lon="7.079462">
      </trkpt>
      <trkpt lat="50.760828" lon="7.07812">
      </trkpt>
      <trkpt lat="50.761218" lon="7.078755">
      </trkpt>
      <trkpt lat="50.761247" lon="7.079852">
      </trkpt>
      <trkpt lat="50.76133" lon="7.081013">
      </trkpt>
      <trkpt lat="50.761867" lon="7.080804">
      </trkpt>
      <trkpt lat="50.761559" lon="7.079846">
      </trkpt>
      <trkpt lat="50.761408" lon="7.078268">
      </trkpt>
      <trkpt lat="50.761333" lon="7.0772">
      </trkpt>
      <trkpt lat="50.761317" lon="7.075343">
      </trkpt>
      <trkpt lat="50.76145" lon="7.07436">
      </trkpt>
      <trkpt lat="50.76158" lon="7.07316">
      </trkpt>
      <trkpt lat="50.761973" lon="7.072025">
      </trkpt>
      <trkpt lat="50.762349" lon="7.070943">
      </trkpt>
      <trkpt lat="50.762531" lon="7.07004">
      </trkpt>
      <trkpt lat="50.762595" lon="7.069022">
      </trkpt>
      <trkpt lat="50.762331" lon="7.067448">
      </trkpt>
      <trkpt lat="50.762104" lon="7.065785">
      </trkpt>
      <trkpt lat="50.761825" lon="7.063347">
      </trkpt>
      <trkpt lat="50.761731" lon="7.058516">
      </trkpt>
      <trkpt lat="50.761424" lon="7.057702">
      </trkpt>
      <trkpt lat="50.760811" lon="7.056738">
      </trkpt>
      <trkpt lat="50.760287" lon="7.055994">
      </trkpt>
      <trkpt lat="50.759794" lon="7.055093">
      </trkpt>
      <trkpt lat="50.760285" lon="7.053764">
      </trkpt>
      <trkpt lat="50.760742" lon="7.053052">
      </trkpt>
      <trkpt lat="50.761413" lon="7.052007">
      </trkpt>
      <trkpt lat="50.762006" lon="7.05088">
      </trkpt>
      <trkpt lat="50.76258" lon="7.050735">
      </trkpt>
      <trkpt lat="50.762307" lon="7.04993">
      </trkpt>
      <trkpt lat="50.761928" lon="7.049157">
      </trkpt>
      <trkpt lat="50.761309" lon="7.048794">
      </trkpt>
      <trkpt lat="50.760824" lon="7.048372">
      </trkpt>
      <trkpt lat="50.760994" lon="7.047556">
      </trkpt>
      <trkpt lat="50.761358" lon="7.046159">
      </trkpt>
      <trkpt lat="50.761738" lon="7.044684">
      </trkpt>
      <trkpt lat="50.759992" lon="7.042426">
      </trkpt>
      <trkpt lat="50.759304" lon="7.041537">
      </trkpt>
      <trkpt lat="50.760318" lon="7.039818">
      </trkpt>
      <trkpt lat="50.761555" lon="7.0373">
      </trkpt>
      <trkpt lat="50.761921" lon="7.037944">
      </trkpt>
      <trkpt lat="50.764087" lon="7.035149">
      </trkpt>
      <trkpt lat="50.765381" lon="7.033497">
      </trkpt>
      <trkpt lat="50.767252" lon="7.03627">
      </trkpt>
      <trkpt lat="50.767897" lon="7.035854">
      </trkpt>
      <trkpt lat="50.768981" lon="7.034458">
      </trkpt>
      <trkpt lat="50.769761" lon="7.033643">
      </trkpt>
      <trkpt lat="50.770635" lon="7.032743">
      </trkpt>
      <trkpt lat="50.77113" lon="7.032234">
      </trkpt>
      <trkpt lat="50.773358" lon="7.029934">
      </trkpt>
      <trkpt lat="50.77411" lon="7.029158">
      </trkpt>
      <trkpt lat="50.775503" lon="7.027735">
      </trkpt>
      <trkpt lat="50.776856" lon="7.026405">
      </trkpt>
      <trkpt lat="50.778364" lon="7.024885">
      </trkpt>
      <trkpt lat="50.779968" lon="7.023325">
      </trkpt>
      <trkpt lat="50.777905" lon="7.018391">
      </trkpt>
      <trkpt lat="50.779023" lon="7.017373">
      </trkpt>
      <trkpt lat="50.779262" lon="7.016534">
      </trkpt>
      <trkpt lat="50.779818" lon="7.015908">
      </trkpt>
      <trkpt lat="50.78033" lon="7.015488">
      </trkpt>
      <trkpt lat="50.780218" lon="7.014084">
      </trkpt>
      <trkpt lat="50.779459" lon="7.011907">
      </trkpt>
      <trkpt lat="50.781579" lon="7.009956">
      </trkpt>
      <trkpt lat="50.783136" lon="7.009321">
      </trkpt>
      <trkpt lat="50.784273" lon="7.008982">
      </trkpt>
      <trkpt lat="50.785589" lon="7.008307">
      </trkpt>
      <trkpt lat="50.785042" lon="7.00702">
      </trkpt>
      <trkpt lat="50.784713" lon="7.006247">
      </trkpt>
      <trkpt lat="50.783981" lon="7.005708">
      </trkpt>
      <trkpt lat="50.781632" lon="7.005652">
      </trkpt>
      <trkpt lat="50.780662" lon="7.005579">
      </trkpt>
      <trkpt lat="50.780091" lon="7.003458">
      </trkpt>
      <trkpt lat="50.779859" lon="7.001553">
      </trkpt>
      <trkpt lat="50.779212" lon="7.001752">
      </trkpt>
      <trkpt lat="50.777727" lon="7.001302">
      </trkpt>
      <trkpt lat="50.777015" lon="7.001603">
      </trkpt>
      <trkpt lat="50.776597" lon="6.999517">
      </trkpt>
      <trkpt lat="50.777015" lon="7.001603">
      </trkpt>
      <trkpt lat="50.775295" lon="7.002327">
      </trkpt>
      <trkpt lat="50.773417" lon="7.003234">
      </trkpt>
      <trkpt lat="50.772351" lon="7.001628">
      </trkpt>
      <trkpt lat="50.771615" lon="7.002447">
      </trkpt>
      <trkpt lat="50.770216" lon="7.00417">
      </trkpt>
      <trkpt lat="50.768993" lon="7.00574">
      </trkpt>
      <trkpt lat="50.768696" lon="7.004854">
      </trkpt>
      <trkpt lat="50.768267" lon="7.004173">
      </trkpt>
      <trkpt lat="50.767794" lon="7.003238">
      </trkpt>
      <trkpt lat="50.767002" lon="7.001782">
      </trkpt>
      <trkpt lat="50.766408" lon="7.000649">
      </trkpt>
      <trkpt lat="50.766047" lon="6.999831">
      </trkpt>
      <trkpt lat="50.765574" lon="6.999332">
      </trkpt>
      <trkpt lat="50.765419" lon="6.998259">
      </trkpt>
      <trkpt lat="50.764999" lon="6.996711">
      </trkpt>
      <trkpt lat="50.763818" lon="6.996904">
      </trkpt>
      <trkpt lat="50.763198" lon="6.996279">
      </trkpt>
      <trkpt lat="50.762118" lon="6.996159">
      </trkpt>
      <trkpt lat="50.761471" lon="6.995924">
      </trkpt>
      <trkpt lat="50.760665" lon="6.995572">
      </trkpt>
      <trkpt lat="50.760531" lon="6.994693">
      </trkpt>
      <trkpt lat="50.759935" lon="6.994794">
      </trkpt>
      <trkpt lat="50.758944" lon="6.993919">
      </trkpt>
      <trkpt lat="50.75839" lon="6.993435">
      </trkpt>
      <trkpt lat="50.757509" lon="6.993448">
      </trkpt>
      <trkpt lat="50.756892" lon="6.992801">
      </trkpt>
      <trkpt lat="50.755572" lon="6.991662">
      </trkpt>
      <trkpt lat="50.754889" lon="6.991064">
      </trkpt>
      <trkpt lat="50.754301" lon="6.990711">
      </trkpt>
      <trkpt lat="50.753524" lon="6.990151">
      </trkpt>
      <trkpt lat="50.752948" lon="6.989957">
      </trkpt>
      <trkpt lat="50.752192" lon="6.989723">
      </trkpt>
      <trkpt lat="50.752948" lon="6.989957">
      </trkpt>
      <trkpt lat="50.753359" lon="6.988448">
      </trkpt>
      <trkpt lat="50.753665" lon="6.987528">
      </trkpt>
      <trkpt lat="50.7543" lon="6.987064">
      </trkpt>
      <trkpt lat="50.755143" lon="6.985197">
      </trkpt>
      <trkpt lat="50.755693" lon="6.984992">
      </trkpt>
      <trkpt lat="50.755923" lon="6.98418">
      </trkpt>
      <trkpt lat="50.756847" lon="6.985252">
      </trkpt>
      <trkpt lat="50.75737" lon="6.985801">
      </trkpt>
      <trkpt lat="50.758136" lon="6.986276">
      </trkpt>
      <trkpt lat="50.758428" lon="6.984859">
      </trkpt>
      <trkpt lat="50.759134" lon="6.983327">
      </trkpt>
      <trkpt lat="50.75958" lon="6.982251">
      </trkpt>
      <trkpt lat="50.76037" lon="6.982444">
      </trkpt>
      <trkpt lat="50.761706" lon="6.980308">
      </trkpt>
      <trkpt lat="50.762149" lon="6.980855">
      </trkpt>
      <trkpt lat="50.762818" lon="6.981138">
      </trkpt>
      <trkpt lat="50.763142" lon="6.980217">
      </trkpt>
      <trkpt lat="50.763539" lon="6.980802">
      </trkpt>
      <trkpt lat="50.764341" lon="6.980687">
      </trkpt>
      <trkpt lat="50.765502" lon="6.97912">
      </trkpt>
      <trkpt lat="50.766691" lon="6.977824">
      </trkpt>
      <trkpt lat="50.767517" lon="6.977929">
      </trkpt>
      <trkpt lat="50.768084" lon="6.978801">
      </trkpt>
      <trkpt lat="50.768809" lon="6.978134">
      </trkpt>
      <trkpt lat="50.769907" lon="6.976908">
      </trkpt>
      <trkpt lat="50.771224" lon="6.979452">
      </trkpt>
      <trkpt lat="50.771886" lon="6.978732">
      </trkpt>
      <trkpt lat="50.773277" lon="6.980642">
      </trkpt>
      <trkpt lat="50.771886" lon="6.978732">
      </trkpt>
      <trkpt lat="50.771167" lon="6.975902">
      </trkpt>
      <trkpt lat="50.770725" lon="6.974797">
      </trkpt>
      <trkpt lat="50.770945" lon="6.972836">
      </trkpt>
      <trkpt lat="50.768554" lon="6.972043">
      </trkpt>
      <trkpt lat="50.766262" lon="6.971255">
      </trkpt>
      <trkpt lat="50.764756" lon="6.970736">
      </trkpt>
      <trkpt lat="50.764958" lon="6.969051">
      </trkpt>
      <trkpt lat="50.76445" lon="6.970588">
      </trkpt>
      <trkpt lat="50.76431" lon="6.971855">
      </trkpt>
      <trkpt lat="50.762648" lon="6.970591">
      </trkpt>
      <trkpt lat="50.762784" lon="6.967591">
      </trkpt>
      <trkpt lat="50.762929" lon="6.966039">
      </trkpt>
      <trkpt lat="50.763097" lon="6.964293">
      </trkpt>
      <trkpt lat="50.76313" lon="6.962828">
      </trkpt>
      <trkpt lat="50.76328" lon="6.961826">
      </trkpt>
      <trkpt lat="50.763544" lon="6.960481">
      </trkpt>
      <trkpt lat="50.762495" lon="6.959695">
      </trkpt>
      <trkpt lat="50.761516" lon="6.959363">
      </trkpt>
      <trkpt lat="50.760418" lon="6.959237">
      </trkpt>
      <trkpt lat="50.759799" lon="6.959156">
      </trkpt>
      <trkpt lat="50.759229" lon="6.958916">
      </trkpt>
      <trkpt lat="50.758577" lon="6.958558">
      </trkpt>
      <trkpt lat="50.757828" lon="6.95806">
      </trkpt>
      <trkpt lat="50.757313" lon="6.957611">
      </trkpt>
      <trkpt lat="50.756824" lon="6.957003">
      </trkpt>
      <trkpt lat="50.756252" lon="6.956549">
      </trkpt>
      <trkpt lat="50.755246" lon="6.955429">
      </trkpt>
      <trkpt lat="50.754793" lon="6.954771">
      </trkpt>
      <trkpt lat="50.754286" lon="6.954231">
      </trkpt>
      <trkpt lat="50.753833" lon="6.953686">
      </trkpt>
      <trkpt lat="50.752829" lon="6.953073">
      </trkpt>
      <trkpt lat="50.751699" lon="6.95236">
      </trkpt>
      <trkpt lat="50.749428" lon="6.95031">
      </trkpt>
      <trkpt lat="50.74709" lon="6.948194">
      </trkpt>
      <trkpt lat="50.746648" lon="6.949802">
      </trkpt>
      <trkpt lat="50.746309" lon="6.951033">
      </trkpt>
      <trkpt lat="50.743236" lon="6.948667">
      </trkpt>
      <trkpt lat="50.741813" lon="6.94805">
      </trkpt>
      <trkpt lat="50.739414" lon="6.94708">
      </trkpt>
      <trkpt lat="50.739074" lon="6.950339">
      </trkpt>
      <trkpt lat="50.738768" lon="6.953358">
      </trkpt>
      <trkpt lat="50.737765" lon="6.952606">
      </trkpt>
      <trkpt lat="50.736664" lon="6.953962">
      </trkpt>
      <trkpt lat="50.735888" lon="6.957347">
      </trkpt>
      <trkpt lat="50.735745" lon="6.960262">
      </trkpt>
      <trkpt lat="50.735382" lon="6.961829">
      </trkpt>
      <trkpt lat="50.738526" lon="6.966105">
      </trkpt>
      <trkpt lat="50.738753" lon="6.965116">
      </trkpt>
      <trkpt lat="50.738526" lon="6.966105">
      </trkpt>
      <trkpt lat="50.736965" lon="6.963982">
      </trkpt>
      <trkpt lat="50.735382" lon="6.961829">
      </trkpt>
      <trkpt lat="50.735745" lon="6.960262">
      </trkpt>
      <trkpt lat="50.735888" lon="6.957347">
      </trkpt>
      <trkpt lat="50.736664" lon="6.953962">
      </trkpt>
      <trkpt lat="50.733866" lon="6.952596">
      </trkpt>
      <trkpt lat="50.730658" lon="6.956905">
      </trkpt>
      <trkpt lat="50.730288" lon="6.957679">
      </trkpt>
      <trkpt lat="50.728445" lon="6.96153">
      </trkpt>
      <trkpt lat="50.728137" lon="6.96229">
      </trkpt>
      <trkpt lat="50.727943" lon="6.963183">
      </trkpt>
      <trkpt lat="50.727431" lon="6.964581">
      </trkpt>
      <trkpt lat="50.727266" lon="6.965428">
      </trkpt>
      <trkpt lat="50.727854" lon="6.966268">
      </trkpt>
      <trkpt lat="50.728632" lon="6.96696">
      </trkpt>
      <trkpt lat="50.729062" lon="6.96752">
      </trkpt>
      <trkpt lat="50.729647" lon="6.968313">
      </trkpt>
      <trkpt lat="50.730053" lon="6.968973">
      </trkpt>
      <trkpt lat="50.730528" lon="6.969673">
      </trkpt>
      <trkpt lat="50.730068" lon="6.970828">
      </trkpt>
      <trkpt lat="50.729902" lon="6.971684">
      </trkpt>
      <trkpt lat="50.729313" lon="6.971361">
      </trkpt>
      <trkpt lat="50.728583" lon="6.971338">
      </trkpt>
      <trkpt lat="50.727748" lon="6.971553">
      </trkpt>
      <trkpt lat="50.727094" lon="6.971813">
      </trkpt>
      <trkpt lat="50.725994" lon="6.972299">
      </trkpt>
      <trkpt lat="50.725977" lon="6.973495">
      </trkpt>
      <trkpt lat="50.726374" lon="6.974342">
      </trkpt>
      <trkpt lat="50.727669" lon="6.976405">
      </trkpt>
      <trkpt lat="50.728333" lon="6.977754">
      </trkpt>
      <trkpt lat="50.728921" lon="6.97862">
      </trkpt>
      <trkpt lat="50.729788" lon="6.979598">
      </trkpt>
      <trkpt lat="50.730643" lon="6.980432">
      </trkpt>
      <trkpt lat="50.731487" lon="6.981018">
      </trkpt>
      <trkpt lat="50.73124" lon="6.981872">
      </trkpt>
      <trkpt lat="50.73053" lon="6.983263">
      </trkpt>
      <trkpt lat="50.730129" lon="6.983959">
      </trkpt>
      <trkpt lat="50.729849" lon="6.984987">
      </trkpt>
      <trkpt lat="50.729982" lon="6.985875">
      </trkpt>
      <trkpt lat="50.730126" lon="6.986701">
      </trkpt>
      <trkpt lat="50.729342" lon="6.986851">
      </trkpt>
      <trkpt lat="50.728781" lon="6.986581">
      </trkpt>
      <trkpt lat="50.728177" lon="6.986606">
      </trkpt>
      <trkpt lat="50.727501" lon="6.986703">
      </trkpt>
      <trkpt lat="50.726941" lon="6.987076">
      </trkpt>
      <trkpt lat="50.726413" lon="6.987427">
      </trkpt>
      <trkpt lat="50.725998" lon="6.98801">
      </trkpt>
      <trkpt lat="50.725853" lon="6.98902">
      </trkpt>
      <trkpt lat="50.72623" lon="6.990122">
      </trkpt>
      <trkpt lat="50.726663" lon="6.991577">
      </trkpt>
      <trkpt lat="50.727148" lon="6.992543">
      </trkpt>
      <trkpt lat="50.727509" lon="6.993435">
      </trkpt>
      <trkpt lat="50.728245" lon="6.993901">
      </trkpt>
      <trkpt lat="50.728663" lon="6.994556">
      </trkpt>
      <trkpt lat="50.72915" lon="6.994988">
      </trkpt>
      <trkpt lat="50.72955" lon="6.995579">
      </trkpt>
      <trkpt lat="50.728948" lon="6.996043">
      </trkpt>
      <trkpt lat="50.729047" lon="6.99807">
      </trkpt>
      <trkpt lat="50.729457" lon="6.998925">
      </trkpt>
      <trkpt lat="50.729756" lon="6.999719">
      </trkpt>
      <trkpt lat="50.730309" lon="7.000497">
      </trkpt>
      <trkpt lat="50.730495" lon="7.001526">
      </trkpt>
      <trkpt lat="50.729791" lon="7.002139">
      </trkpt>
      <trkpt lat="50.729197" lon="7.002453">
      </trkpt>
      <trkpt lat="50.729855" lon="7.00355">
      </trkpt>
      <trkpt lat="50.730412" lon="7.004791">
      </trkpt>
      <trkpt lat="50.73088" lon="7.005658">
      </trkpt>
      <trkpt lat="50.731786" lon="7.007">
      </trkpt>
      <trkpt lat="50.732321" lon="7.007664">
      </trkpt>
      <trkpt lat="50.732709" lon="7.008279">
      </trkpt>
      <trkpt lat="50.732521" lon="7.00965">
      </trkpt>
      <trkpt lat="50.731989" lon="7.01025">
      </trkpt>
      <trkpt lat="50.730954" lon="7.010882">
      </trkpt>
      <trkpt lat="50.730011" lon="7.010951">
      </trkpt>
      <trkpt lat="50.728948" lon="7.010598">
      </trkpt>
      <trkpt lat="50.728289" lon="7.01111">
      </trkpt>
      <trkpt lat="50.727652" lon="7.011651">
      </trkpt>
      <trkpt lat="50.727052" lon="7.011942">
      </trkpt>
      <trkpt lat="50.725935" lon="7.013255">
      </trkpt>
      <trkpt lat="50.725374" lon="7.015478">
      </trkpt>
      <trkpt lat="50.726329" lon="7.015665">
      </trkpt>
      <trkpt lat="50.726235" lon="7.017303">
      </trkpt>
      <trkpt lat="50.725945" lon="7.018183">
      </trkpt>
      <trkpt lat="50.725398" lon="7.018495">
      </trkpt>
      <trkpt lat="50.725561" lon="7.019318">
      </trkpt>
      <trkpt lat="50.72489" lon="7.019161">
      </trkpt>
      <trkpt lat="50.724719" lon="7.020008">
      </trkpt>
      <trkpt lat="50.724152" lon="7.020623">
      </trkpt>
      <trkpt lat="50.72368" lon="7.021222">
      </trkpt>
      <trkpt lat="50.723431" lon="7.021987">
      </trkpt>
      <trkpt lat="50.723565" lon="7.022954">
      </trkpt>
      <trkpt lat="50.724028" lon="7.024787">
      </trkpt>
      <trkpt lat="50.723531" lon="7.025418">
      </trkpt>
      <trkpt lat="50.723519" lon="7.02636">
      </trkpt>
      <trkpt lat="50.723692" lon="7.027537">
      </trkpt>
      <trkpt lat="50.723775" lon="7.02852">
      </trkpt>
      <trkpt lat="50.723877" lon="7.029978">
      </trkpt>
      <trkpt lat="50.724046" lon="7.032408">
      </trkpt>
      <trkpt lat="50.724807" lon="7.033201">
      </trkpt>
      <trkpt lat="50.725487" lon="7.03352">
      </trkpt>
      <trkpt lat="50.725848" lon="7.034459">
      </trkpt>
      <trkpt lat="50.726352" lon="7.035724">
      </trkpt>
      <trkpt lat="50.726608" lon="7.03668">
      </trkpt>
      <trkpt lat="50.726774" lon="7.037907">
      </trkpt>
      <trkpt lat="50.727111" lon="7.039116">
      </trkpt>
      <trkpt lat="50.727471" lon="7.040162">
      </trkpt>
      <trkpt lat="50.727768" lon="7.04144">
      </trkpt>
      <trkpt lat="50.728247" lon="7.042292">
      </trkpt>
      <trkpt lat="50.728337" lon="7.044474">
      </trkpt>
      <trkpt lat="50.728331" lon="7.045943">
      </trkpt>
      <trkpt lat="50.728929" lon="7.047182">
      </trkpt>
      <trkpt lat="50.728955" lon="7.04807">
      </trkpt>
      <trkpt lat="50.728997" lon="7.049054">
      </trkpt>
      <trkpt lat="50.728923" lon="7.051328">
      </trkpt>
      <trkpt lat="50.728956" lon="7.054797">
      </trkpt>
      <trkpt lat="50.729028" lon="7.056954">
      </trkpt>
      <trkpt lat="50.729159" lon="7.05943">
      </trkpt>
      <trkpt lat="50.729379" lon="7.060553">
      </trkpt>
      <trkpt lat="50.729542" lon="7.061641">
      </trkpt>
      <trkpt lat="50.729669" lon="7.062495">
      </trkpt>
      <trkpt lat="50.729915" lon="7.065043">
      </trkpt>
      <trkpt lat="50.730066" lon="7.066368">
      </trkpt>
      <trkpt lat="50.730217" lon="7.06764">
      </trkpt>
      <trkpt lat="50.73036" lon="7.06864">
      </trkpt>
      <trkpt lat="50.730731" lon="7.06926">
      </trkpt>
      <trkpt lat="50.731189" lon="7.070033">
      </trkpt>
      <trkpt lat="50.730797" lon="7.070643">
      </trkpt>
      <trkpt lat="50.73037" lon="7.071307">
      </trkpt>
      <trkpt lat="50.729833" lon="7.072026">
      </trkpt>
      <trkpt lat="50.729375" lon="7.072491">
      </trkpt>
      <trkpt lat="50.728899" lon="7.072972">
      </trkpt>
      <trkpt lat="50.728398" lon="7.073394">
      </trkpt>
      <trkpt lat="50.727839" lon="7.073882">
      </trkpt>
      <trkpt lat="50.727436" lon="7.074568">
      </trkpt>
      <trkpt lat="50.726949" lon="7.075002">
      </trkpt>
      <trkpt lat="50.726827" lon="7.075894">
      </trkpt>
      <trkpt lat="50.726919" lon="7.076842">
      </trkpt>
      <trkpt lat="50.727065" lon="7.077831">
      </trkpt>
      <trkpt lat="50.727187" lon="7.078748">
      </trkpt>
      <trkpt lat="50.727293" lon="7.079789">
      </trkpt>
      <trkpt lat="50.727427" lon="7.080799">
      </trkpt>
      <trkpt lat="50.727563" lon="7.081689">
      </trkpt>
      <trkpt lat="50.727602" lon="7.082938">
      </trkpt>
      <trkpt lat="50.727902" lon="7.083734">
      </trkpt>
      <trkpt lat="50.728257" lon="7.084544">
      </trkpt>
      <trkpt lat="50.728599" lon="7.085269">
      </trkpt>
      <trkpt lat="50.728929" lon="7.086038">
      </trkpt>
      <trkpt lat="50.729266" lon="7.086775">
      </trkpt>
      <trkpt lat="50.729719" lon="7.087774">
      </trkpt>
      <trkpt lat="50.730068" lon="7.088552">
      </trkpt>
      <trkpt lat="50.730423" lon="7.089284">
      </trkpt>
      <trkpt lat="50.730953" lon="7.089815">
      </trkpt>
      <trkpt lat="50.731162" lon="7.090682">
      </trkpt>
      <trkpt lat="50.731311" lon="7.09155">
      </trkpt>
      <trkpt lat="50.731549" lon="7.092499">
      </trkpt>
      <trkpt lat="50.731797" lon="7.093472">
      </trkpt>
      <trkpt lat="50.731956" lon="7.094388">
      </trkpt>
    </trkseg>
  </trk>
</gpx>