<?xml version="1.0" encoding="UTF-8"?>
<gpx xmlns="http://www.topografix.com/GPX/1/1" xmlns:xsi="http://www.w3.org/2001/XMLSchema-instance" xsi:schemaLocation="http://www.topografix.com/GPX/1/1 http://www.topografix.com/GPX/1/1/gpx.xsd" version="1.1" creator="gpx.py -- https://github.com/tkrajina/gpxpy">
  <metadata>
    <name>031</name>
  </metadata>
  <trk>
    <name>031</name>
    <trkseg>
      <trkpt lat="50.734117" lon="7.104293">
      </trkpt>
      <trkpt lat="50.733665" lon="7.103773">
      </trkpt>
      <trkpt lat="50.733188" lon="7.103172">
      </trkpt>
      <trkpt lat="50.732619" lon="7.102447">
      </trkpt>
      <trkpt lat="50.732138" lon="7.101498">
      </trkpt>
      <trkpt lat="50.731709" lon="7.100973">
      </trkpt>
      <trkpt lat="50.731935" lon="7.10005">
      </trkpt>
      <trkpt lat="50.732145" lon="7.099024">
      </trkpt>
      <trkpt lat="50.73216" lon="7.097979">
      </trkpt>
      <trkpt lat="50.732445" lon="7.09708">
      </trkpt>
      <trkpt lat="50.732601" lon="7.096185">
      </trkpt>
      <trkpt lat="50.732809" lon="7.095334">
      </trkpt>
      <trkpt lat="50.732647" lon="7.094429">
      </trkpt>
      <trkpt lat="50.733027" lon="7.093275">
      </trkpt>
      <trkpt lat="50.732791" lon="7.092437">
      </trkpt>
      <trkpt lat="50.732414" lon="7.091073">
      </trkpt>
      <trkpt lat="50.731805" lon="7.090399">
      </trkpt>
      <trkpt lat="50.731257" lon="7.089924">
      </trkpt>
      <trkpt lat="50.730657" lon="7.089715">
      </trkpt>
      <trkpt lat="50.730141" lon="7.088714">
      </trkpt>
      <trkpt lat="50.729719" lon="7.087774">
      </trkpt>
      <trkpt lat="50.729403" lon="7.087079">
      </trkpt>
      <trkpt lat="50.729077" lon="7.086359">
      </trkpt>
      <trkpt lat="50.728634" lon="7.085387">
      </trkpt>
      <trkpt lat="50.728362" lon="7.084538">
      </trkpt>
      <trkpt lat="50.728039" lon="7.083813">
      </trkpt>
      <trkpt lat="50.727733" lon="7.082919">
      </trkpt>
      <trkpt lat="50.727485" lon="7.081997">
      </trkpt>
      <trkpt lat="50.72712" lon="7.081293">
      </trkpt>
      <trkpt lat="50.726118" lon="7.079367">
      </trkpt>
      <trkpt lat="50.725777" lon="7.078685">
      </trkpt>
      <trkpt lat="50.725304" lon="7.077805">
      </trkpt>
      <trkpt lat="50.726087" lon="7.076776">
      </trkpt>
      <trkpt lat="50.726569" lon="7.076192">
      </trkpt>
      <trkpt lat="50.727056" lon="7.07554">
      </trkpt>
      <trkpt lat="50.726707" lon="7.074874">
      </trkpt>
      <trkpt lat="50.72624" lon="7.074364">
      </trkpt>
      <trkpt lat="50.725837" lon="7.073639">
      </trkpt>
      <trkpt lat="50.725756" lon="7.072692">
      </trkpt>
      <trkpt lat="50.725953" lon="7.07156">
      </trkpt>
      <trkpt lat="50.726747" lon="7.071123">
      </trkpt>
      <trkpt lat="50.72703" lon="7.070106">
      </trkpt>
      <trkpt lat="50.72759" lon="7.069249">
      </trkpt>
      <trkpt lat="50.72808" lon="7.068479">
      </trkpt>
      <trkpt lat="50.729965" lon="7.065503">
      </trkpt>
      <trkpt lat="50.729669" lon="7.062495">
      </trkpt>
      <trkpt lat="50.729379" lon="7.060553">
      </trkpt>
      <trkpt lat="50.729159" lon="7.05943">
      </trkpt>
      <trkpt lat="50.729037" lon="7.057268">
      </trkpt>
      <trkpt lat="50.728956" lon="7.054797">
      </trkpt>
      <trkpt lat="50.728923" lon="7.051328">
      </trkpt>
      <trkpt lat="50.728977" lon="7.049666">
      </trkpt>
      <trkpt lat="50.728936" lon="7.048384">
      </trkpt>
      <trkpt lat="50.728937" lon="7.047526">
      </trkpt>
      <trkpt lat="50.728417" lon="7.046615">
      </trkpt>
      <trkpt lat="50.728336" lon="7.044582">
      </trkpt>
      <trkpt lat="50.728566" lon="7.042969">
      </trkpt>
      <trkpt lat="50.727935" lon="7.041853">
      </trkpt>
      <trkpt lat="50.727471" lon="7.040162">
      </trkpt>
      <trkpt lat="50.727111" lon="7.039116">
      </trkpt>
      <trkpt lat="50.726774" lon="7.037907">
      </trkpt>
      <trkpt lat="50.726608" lon="7.03668">
      </trkpt>
      <trkpt lat="50.726352" lon="7.035724">
      </trkpt>
      <trkpt lat="50.725848" lon="7.034459">
      </trkpt>
      <trkpt lat="50.725487" lon="7.03352">
      </trkpt>
      <trkpt lat="50.724807" lon="7.033201">
      </trkpt>
      <trkpt lat="50.724205" lon="7.032773">
      </trkpt>
      <trkpt lat="50.723775" lon="7.02852">
      </trkpt>
      <trkpt lat="50.723692" lon="7.027537">
      </trkpt>
      <trkpt lat="50.723563" lon="7.026479">
      </trkpt>
      <trkpt lat="50.723254" lon="7.025673">
      </trkpt>
      <trkpt lat="50.724028" lon="7.024787">
      </trkpt>
      <trkpt lat="50.723596" lon="7.023643">
      </trkpt>
      <trkpt lat="50.723658" lon="7.022554">
      </trkpt>
      <trkpt lat="50.723409" lon="7.021514">
      </trkpt>
      <trkpt lat="50.724152" lon="7.020623">
      </trkpt>
      <trkpt lat="50.724719" lon="7.020008">
      </trkpt>
      <trkpt lat="50.72489" lon="7.019161">
      </trkpt>
      <trkpt lat="50.725561" lon="7.019318">
      </trkpt>
      <trkpt lat="50.725398" lon="7.018495">
      </trkpt>
      <trkpt lat="50.725562" lon="7.017679">
      </trkpt>
      <trkpt lat="50.725101" lon="7.01685">
      </trkpt>
      <trkpt lat="50.725119" lon="7.015888">
      </trkpt>
      <trkpt lat="50.725874" lon="7.013973">
      </trkpt>
      <trkpt lat="50.725766" lon="7.013056">
      </trkpt>
      <trkpt lat="50.725146" lon="7.012158">
      </trkpt>
      <trkpt lat="50.724649" lon="7.01164">
      </trkpt>
      <trkpt lat="50.724071" lon="7.010837">
      </trkpt>
      <trkpt lat="50.723779" lon="7.010075">
      </trkpt>
      <trkpt lat="50.723367" lon="7.008822">
      </trkpt>
      <trkpt lat="50.72291" lon="7.008285">
      </trkpt>
      <trkpt lat="50.722262" lon="7.008007">
      </trkpt>
      <trkpt lat="50.721588" lon="7.007887">
      </trkpt>
      <trkpt lat="50.721404" lon="7.00708">
      </trkpt>
      <trkpt lat="50.72161" lon="7.006016">
      </trkpt>
      <trkpt lat="50.721544" lon="7.005105">
      </trkpt>
      <trkpt lat="50.721278" lon="7.004187">
      </trkpt>
      <trkpt lat="50.720811" lon="7.003516">
      </trkpt>
      <trkpt lat="50.720187" lon="7.003239">
      </trkpt>
      <trkpt lat="50.720892" lon="7.001555">
      </trkpt>
      <trkpt lat="50.72109" lon="7.000743">
      </trkpt>
      <trkpt lat="50.720701" lon="7.00013">
      </trkpt>
      <trkpt lat="50.720086" lon="6.999396">
      </trkpt>
      <trkpt lat="50.719535" lon="6.998562">
      </trkpt>
      <trkpt lat="50.718973" lon="6.997644">
      </trkpt>
      <trkpt lat="50.718211" lon="6.99575">
      </trkpt>
      <trkpt lat="50.718796" lon="6.994974">
      </trkpt>
      <trkpt lat="50.719367" lon="6.994651">
      </trkpt>
      <trkpt lat="50.719697" lon="6.993906">
      </trkpt>
      <trkpt lat="50.720088" lon="6.993057">
      </trkpt>
      <trkpt lat="50.720897" lon="6.99255">
      </trkpt>
      <trkpt lat="50.721443" lon="6.991921">
      </trkpt>
      <trkpt lat="50.72179" lon="6.991109">
      </trkpt>
      <trkpt lat="50.723288" lon="6.989986">
      </trkpt>
      <trkpt lat="50.723494" lon="6.989183">
      </trkpt>
      <trkpt lat="50.72385" lon="6.98798">
      </trkpt>
      <trkpt lat="50.724092" lon="6.987109">
      </trkpt>
      <trkpt lat="50.72467" lon="6.987876">
      </trkpt>
      <trkpt lat="50.725094" lon="6.988474">
      </trkpt>
      <trkpt lat="50.725819" lon="6.989264">
      </trkpt>
      <trkpt lat="50.725998" lon="6.98801">
      </trkpt>
      <trkpt lat="50.726413" lon="6.987427">
      </trkpt>
      <trkpt lat="50.726941" lon="6.987076">
      </trkpt>
      <trkpt lat="50.727501" lon="6.986703">
      </trkpt>
      <trkpt lat="50.728177" lon="6.986606">
      </trkpt>
      <trkpt lat="50.728781" lon="6.986581">
      </trkpt>
      <trkpt lat="50.729342" lon="6.986851">
      </trkpt>
      <trkpt lat="50.729998" lon="6.986785">
      </trkpt>
      <trkpt lat="50.729982" lon="6.985875">
      </trkpt>
      <trkpt lat="50.729849" lon="6.984987">
      </trkpt>
      <trkpt lat="50.730129" lon="6.983959">
      </trkpt>
      <trkpt lat="50.73053" lon="6.983263">
      </trkpt>
      <trkpt lat="50.730932" lon="6.982405">
      </trkpt>
      <trkpt lat="50.731473" lon="6.981045">
      </trkpt>
      <trkpt lat="50.733715" lon="6.977493">
      </trkpt>
      <trkpt lat="50.734376" lon="6.97753">
      </trkpt>
      <trkpt lat="50.735442" lon="6.977077">
      </trkpt>
      <trkpt lat="50.735821" lon="6.976133">
      </trkpt>
      <trkpt lat="50.736395" lon="6.975654">
      </trkpt>
      <trkpt lat="50.73671" lon="6.974697">
      </trkpt>
      <trkpt lat="50.737196" lon="6.973907">
      </trkpt>
      <trkpt lat="50.737723" lon="6.972457">
      </trkpt>
      <trkpt lat="50.738172" lon="6.971227">
      </trkpt>
      <trkpt lat="50.738508" lon="6.970295">
      </trkpt>
      <trkpt lat="50.739205" lon="6.967564">
      </trkpt>
      <trkpt lat="50.738781" lon="6.966461">
      </trkpt>
      <trkpt lat="50.739939" lon="6.965557">
      </trkpt>
      <trkpt lat="50.74013" lon="6.96348">
      </trkpt>
      <trkpt lat="50.740217" lon="6.961454">
      </trkpt>
      <trkpt lat="50.740343" lon="6.958607">
      </trkpt>
      <trkpt lat="50.740993" lon="6.95649">
      </trkpt>
      <trkpt lat="50.741418" lon="6.955881">
      </trkpt>
      <trkpt lat="50.741802" lon="6.954538">
      </trkpt>
      <trkpt lat="50.742706" lon="6.951112">
      </trkpt>
      <trkpt lat="50.742925" lon="6.950087">
      </trkpt>
      <trkpt lat="50.743236" lon="6.948667">
      </trkpt>
      <trkpt lat="50.743681" lon="6.947014">
      </trkpt>
      <trkpt lat="50.744132" lon="6.945331">
      </trkpt>
      <trkpt lat="50.744637" lon="6.943462">
      </trkpt>
      <trkpt lat="50.745558" lon="6.941131">
      </trkpt>
      <trkpt lat="50.746091" lon="6.938949">
      </trkpt>
      <trkpt lat="50.746335" lon="6.936964">
      </trkpt>
      <trkpt lat="50.745193" lon="6.936197">
      </trkpt>
      <trkpt lat="50.744423" lon="6.935679">
      </trkpt>
      <trkpt lat="50.741756" lon="6.933906">
      </trkpt>
      <trkpt lat="50.741113" lon="6.933075">
      </trkpt>
      <trkpt lat="50.740451" lon="6.932241">
      </trkpt>
      <trkpt lat="50.737562" lon="6.928529">
      </trkpt>
      <trkpt lat="50.738222" lon="6.925643">
      </trkpt>
      <trkpt lat="50.738871" lon="6.923078">
      </trkpt>
      <trkpt lat="50.740678" lon="6.920778">
      </trkpt>
      <trkpt lat="50.739418" lon="6.919816">
      </trkpt>
      <trkpt lat="50.738199" lon="6.918905">
      </trkpt>
      <trkpt lat="50.737867" lon="6.918234">
      </trkpt>
      <trkpt lat="50.737477" lon="6.91477">
      </trkpt>
      <trkpt lat="50.738371" lon="6.912396">
      </trkpt>
      <trkpt lat="50.73921" lon="6.91121">
      </trkpt>
      <trkpt lat="50.74046" lon="6.909443">
      </trkpt>
      <trkpt lat="50.743195" lon="6.912235">
      </trkpt>
      <trkpt lat="50.744306" lon="6.913006">
      </trkpt>
      <trkpt lat="50.746008" lon="6.915055">
      </trkpt>
      <trkpt lat="50.74735" lon="6.916696">
      </trkpt>
      <trkpt lat="50.748719" lon="6.918353">
      </trkpt>
      <trkpt lat="50.750009" lon="6.919903">
      </trkpt>
      <trkpt lat="50.749128" lon="6.922443">
      </trkpt>
      <trkpt lat="50.748702" lon="6.923624">
      </trkpt>
      <trkpt lat="50.749145" lon="6.924771">
      </trkpt>
      <trkpt lat="50.749544" lon="6.92583">
      </trkpt>
      <trkpt lat="50.749158" lon="6.927165">
      </trkpt>
      <trkpt lat="50.748792" lon="6.928075">
      </trkpt>
      <trkpt lat="50.749176" lon="6.929585">
      </trkpt>
      <trkpt lat="50.75041" lon="6.930555">
      </trkpt>
      <trkpt lat="50.751068" lon="6.93106">
      </trkpt>
      <trkpt lat="50.752229" lon="6.931954">
      </trkpt>
      <trkpt lat="50.752092" lon="6.932903">
      </trkpt>
      <trkpt lat="50.751966" lon="6.93377">
      </trkpt>
      <trkpt lat="50.752031" lon="6.934721">
      </trkpt>
      <trkpt lat="50.751153" lon="6.936014">
      </trkpt>
      <trkpt lat="50.749847" lon="6.937964">
      </trkpt>
      <trkpt lat="50.749651" lon="6.939759">
      </trkpt>
      <trkpt lat="50.749273" lon="6.941203">
      </trkpt>
      <trkpt lat="50.748969" lon="6.942494">
      </trkpt>
      <trkpt lat="50.747894" lon="6.945195">
      </trkpt>
      <trkpt lat="50.747419" lon="6.946968">
      </trkpt>
      <trkpt lat="50.74709" lon="6.948194">
      </trkpt>
      <trkpt lat="50.746309" lon="6.951033">
      </trkpt>
      <trkpt lat="50.743236" lon="6.948667">
      </trkpt>
      <trkpt lat="50.741813" lon="6.94805">
      </trkpt>
      <trkpt lat="50.739729" lon="6.947207">
      </trkpt>
      <trkpt lat="50.739074" lon="6.950339">
      </trkpt>
      <trkpt lat="50.738768" lon="6.953358">
      </trkpt>
      <trkpt lat="50.737765" lon="6.952606">
      </trkpt>
      <trkpt lat="50.736664" lon="6.953962">
      </trkpt>
      <trkpt lat="50.733866" lon="6.952596">
      </trkpt>
      <trkpt lat="50.730658" lon="6.956905">
      </trkpt>
      <trkpt lat="50.728357" lon="6.955071">
      </trkpt>
      <trkpt lat="50.727078" lon="6.95427">
      </trkpt>
      <trkpt lat="50.725153" lon="6.952113">
      </trkpt>
      <trkpt lat="50.723161" lon="6.950875">
      </trkpt>
      <trkpt lat="50.722579" lon="6.950838">
      </trkpt>
      <trkpt lat="50.721077" lon="6.954975">
      </trkpt>
      <trkpt lat="50.72073" lon="6.955833">
      </trkpt>
      <trkpt lat="50.72014" lon="6.957405">
      </trkpt>
      <trkpt lat="50.719821" lon="6.958384">
      </trkpt>
      <trkpt lat="50.719435" lon="6.959358">
      </trkpt>
      <trkpt lat="50.719052" lon="6.960532">
      </trkpt>
      <trkpt lat="50.718079" lon="6.963173">
      </trkpt>
      <trkpt lat="50.717519" lon="6.964698">
      </trkpt>
      <trkpt lat="50.715904" lon="6.969089">
      </trkpt>
      <trkpt lat="50.714849" lon="6.97193">
      </trkpt>
      <trkpt lat="50.711904" lon="6.979961">
      </trkpt>
      <trkpt lat="50.712325" lon="6.98105">
      </trkpt>
      <trkpt lat="50.712886" lon="6.982926">
      </trkpt>
      <trkpt lat="50.713205" lon="6.983719">
      </trkpt>
      <trkpt lat="50.713055" lon="6.984597">
      </trkpt>
      <trkpt lat="50.712628" lon="6.985155">
      </trkpt>
      <trkpt lat="50.712813" lon="6.987893">
      </trkpt>
      <trkpt lat="50.712797" lon="6.989153">
      </trkpt>
      <trkpt lat="50.712925" lon="6.989998">
      </trkpt>
      <trkpt lat="50.712837" lon="6.990861">
      </trkpt>
      <trkpt lat="50.711918" lon="6.99066">
      </trkpt>
      <trkpt lat="50.711521" lon="6.99178">
      </trkpt>
      <trkpt lat="50.711782" lon="6.992987">
      </trkpt>
      <trkpt lat="50.711644" lon="6.994018">
      </trkpt>
      <trkpt lat="50.711866" lon="6.994889">
      </trkpt>
      <trkpt lat="50.712626" lon="6.996869">
      </trkpt>
      <trkpt lat="50.713032" lon="6.998139">
      </trkpt>
      <trkpt lat="50.713225" lon="6.999084">
      </trkpt>
      <trkpt lat="50.713887" lon="7.001088">
      </trkpt>
      <trkpt lat="50.713861" lon="7.002194">
      </trkpt>
      <trkpt lat="50.714123" lon="7.002975">
      </trkpt>
      <trkpt lat="50.71442" lon="7.003832">
      </trkpt>
      <trkpt lat="50.714833" lon="7.005056">
      </trkpt>
      <trkpt lat="50.715266" lon="7.006093">
      </trkpt>
      <trkpt lat="50.714958" lon="7.006833">
      </trkpt>
      <trkpt lat="50.715486" lon="7.007626">
      </trkpt>
      <trkpt lat="50.716271" lon="7.008824">
      </trkpt>
      <trkpt lat="50.718261" lon="7.012896">
      </trkpt>
      <trkpt lat="50.718048" lon="7.013741">
      </trkpt>
      <trkpt lat="50.718263" lon="7.01483">
      </trkpt>
      <trkpt lat="50.718849" lon="7.016426">
      </trkpt>
      <trkpt lat="50.719175" lon="7.017323">
      </trkpt>
      <trkpt lat="50.719471" lon="7.018036">
      </trkpt>
      <trkpt lat="50.719597" lon="7.018901">
      </trkpt>
      <trkpt lat="50.720148" lon="7.020203">
      </trkpt>
      <trkpt lat="50.720686" lon="7.020471">
      </trkpt>
      <trkpt lat="50.72121" lon="7.021365">
      </trkpt>
      <trkpt lat="50.721868" lon="7.022581">
      </trkpt>
      <trkpt lat="50.722323" lon="7.023383">
      </trkpt>
      <trkpt lat="50.722656" lon="7.024166">
      </trkpt>
      <trkpt lat="50.723026" lon="7.025109">
      </trkpt>
      <trkpt lat="50.723519" lon="7.02636">
      </trkpt>
      <trkpt lat="50.723692" lon="7.027537">
      </trkpt>
      <trkpt lat="50.723775" lon="7.02852">
      </trkpt>
      <trkpt lat="50.724046" lon="7.032408">
      </trkpt>
      <trkpt lat="50.724807" lon="7.033201">
      </trkpt>
      <trkpt lat="50.725487" lon="7.03352">
      </trkpt>
      <trkpt lat="50.725848" lon="7.034459">
      </trkpt>
      <trkpt lat="50.726352" lon="7.035724">
      </trkpt>
      <trkpt lat="50.726608" lon="7.03668">
      </trkpt>
      <trkpt lat="50.726774" lon="7.037907">
      </trkpt>
      <trkpt lat="50.727111" lon="7.039116">
      </trkpt>
      <trkpt lat="50.727471" lon="7.040162">
      </trkpt>
      <trkpt lat="50.727768" lon="7.04144">
      </trkpt>
      <trkpt lat="50.728247" lon="7.042292">
      </trkpt>
      <trkpt lat="50.728337" lon="7.044474">
      </trkpt>
      <trkpt lat="50.728331" lon="7.045943">
      </trkpt>
      <trkpt lat="50.728929" lon="7.047182">
      </trkpt>
      <trkpt lat="50.728955" lon="7.04807">
      </trkpt>
      <trkpt lat="50.728997" lon="7.049054">
      </trkpt>
      <trkpt lat="50.728923" lon="7.051328">
      </trkpt>
      <trkpt lat="50.728956" lon="7.054797">
      </trkpt>
      <trkpt lat="50.729028" lon="7.056954">
      </trkpt>
      <trkpt lat="50.728458" lon="7.057971">
      </trkpt>
      <trkpt lat="50.727191" lon="7.061436">
      </trkpt>
      <trkpt lat="50.727133" lon="7.062319">
      </trkpt>
      <trkpt lat="50.727414" lon="7.063978">
      </trkpt>
      <trkpt lat="50.727648" lon="7.065997">
      </trkpt>
      <trkpt lat="50.727645" lon="7.066863">
      </trkpt>
      <trkpt lat="50.726698" lon="7.06772">
      </trkpt>
      <trkpt lat="50.726229" lon="7.068219">
      </trkpt>
      <trkpt lat="50.725524" lon="7.068931">
      </trkpt>
      <trkpt lat="50.725054" lon="7.06945">
      </trkpt>
      <trkpt lat="50.725566" lon="7.0705">
      </trkpt>
      <trkpt lat="50.725951" lon="7.071112">
      </trkpt>
      <trkpt lat="50.725251" lon="7.072396">
      </trkpt>
      <trkpt lat="50.72463" lon="7.072889">
      </trkpt>
      <trkpt lat="50.724117" lon="7.074054">
      </trkpt>
      <trkpt lat="50.723607" lon="7.075309">
      </trkpt>
      <trkpt lat="50.724049" lon="7.075947">
      </trkpt>
      <trkpt lat="50.724717" lon="7.076776">
      </trkpt>
      <trkpt lat="50.725258" lon="7.077684">
      </trkpt>
      <trkpt lat="50.725606" lon="7.078369">
      </trkpt>
      <trkpt lat="50.726118" lon="7.079367">
      </trkpt>
      <trkpt lat="50.72701" lon="7.081094">
      </trkpt>
      <trkpt lat="50.727429" lon="7.08185">
      </trkpt>
      <trkpt lat="50.727006" lon="7.082668">
      </trkpt>
      <trkpt lat="50.72649" lon="7.083075">
      </trkpt>
      <trkpt lat="50.726089" lon="7.083806">
      </trkpt>
      <trkpt lat="50.725538" lon="7.084277">
      </trkpt>
      <trkpt lat="50.725083" lon="7.084892">
      </trkpt>
      <trkpt lat="50.724558" lon="7.086167">
      </trkpt>
      <trkpt lat="50.724712" lon="7.08749">
      </trkpt>
      <trkpt lat="50.725145" lon="7.088197">
      </trkpt>
      <trkpt lat="50.724642" lon="7.089212">
      </trkpt>
      <trkpt lat="50.724268" lon="7.089966">
      </trkpt>
      <trkpt lat="50.724873" lon="7.090617">
      </trkpt>
      <trkpt lat="50.72546" lon="7.091361">
      </trkpt>
      <trkpt lat="50.726153" lon="7.092198">
      </trkpt>
      <trkpt lat="50.726468" lon="7.093178">
      </trkpt>
      <trkpt lat="50.726814" lon="7.09404">
      </trkpt>
      <trkpt lat="50.727562" lon="7.095">
      </trkpt>
      <trkpt lat="50.7282" lon="7.095811">
      </trkpt>
      <trkpt lat="50.729509" lon="7.097466">
      </trkpt>
      <trkpt lat="50.730696" lon="7.098974">
      </trkpt>
      <trkpt lat="50.731163" lon="7.099612">
      </trkpt>
      <trkpt lat="50.731914" lon="7.098615">
      </trkpt>
      <trkpt lat="50.732039" lon="7.099623">
      </trkpt>
      <trkpt lat="50.731839" lon="7.100481">
      </trkpt>
      <trkpt lat="50.732138" lon="7.101498">
      </trkpt>
      <trkpt lat="50.732602" lon="7.102189">
      </trkpt>
      <trkpt lat="50.733318" lon="7.103238">
      </trkpt>
      <trkpt lat="50.733818" lon="7.103684">
      </trkpt>
    </trkseg>
  </trk>
</gpx>