<?xml version="1.0" encoding="UTF-8"?>
<gpx xmlns="http://www.topografix.com/GPX/1/1" xmlns:xsi="http://www.w3.org/2001/XMLSchema-instance" xsi:schemaLocation="http://www.topografix.com/GPX/1/1 http://www.topografix.com/GPX/1/1/gpx.xsd" version="1.1" creator="gpx.py -- https://github.com/tkrajina/gpxpy">
  <metadata>
    <name>032</name>
  </metadata>
  <trk>
    <name>032</name>
    <trkseg>
      <trkpt lat="50.734282" lon="7.104054">
      </trkpt>
      <trkpt lat="50.734998" lon="7.104011">
      </trkpt>
      <trkpt lat="50.73552" lon="7.104395">
      </trkpt>
      <trkpt lat="50.735778" lon="7.105198">
      </trkpt>
      <trkpt lat="50.736045" lon="7.106103">
      </trkpt>
      <trkpt lat="50.7366" lon="7.105918">
      </trkpt>
      <trkpt lat="50.737277" lon="7.105735">
      </trkpt>
      <trkpt lat="50.73765" lon="7.106707">
      </trkpt>
      <trkpt lat="50.738118" lon="7.110063">
      </trkpt>
      <trkpt lat="50.738574" lon="7.11341">
      </trkpt>
      <trkpt lat="50.738727" lon="7.114479">
      </trkpt>
      <trkpt lat="50.738828" lon="7.115368">
      </trkpt>
      <trkpt lat="50.738415" lon="7.116284">
      </trkpt>
      <trkpt lat="50.738653" lon="7.117344">
      </trkpt>
      <trkpt lat="50.738183" lon="7.117998">
      </trkpt>
      <trkpt lat="50.738164" lon="7.118934">
      </trkpt>
      <trkpt lat="50.737584" lon="7.119483">
      </trkpt>
      <trkpt lat="50.737194" lon="7.120152">
      </trkpt>
      <trkpt lat="50.737061" lon="7.121211">
      </trkpt>
      <trkpt lat="50.736535" lon="7.122273">
      </trkpt>
      <trkpt lat="50.736141" lon="7.122886">
      </trkpt>
      <trkpt lat="50.735661" lon="7.123398">
      </trkpt>
      <trkpt lat="50.734983" lon="7.124149">
      </trkpt>
      <trkpt lat="50.734353" lon="7.125184">
      </trkpt>
      <trkpt lat="50.733765" lon="7.126012">
      </trkpt>
      <trkpt lat="50.733289" lon="7.126661">
      </trkpt>
      <trkpt lat="50.7326" lon="7.127582">
      </trkpt>
      <trkpt lat="50.731836" lon="7.128619">
      </trkpt>
      <trkpt lat="50.731413" lon="7.129291">
      </trkpt>
      <trkpt lat="50.732048" lon="7.13029">
      </trkpt>
      <trkpt lat="50.732394" lon="7.13105">
      </trkpt>
      <trkpt lat="50.732731" lon="7.131948">
      </trkpt>
      <trkpt lat="50.733091" lon="7.132968">
      </trkpt>
      <trkpt lat="50.734091" lon="7.132241">
      </trkpt>
      <trkpt lat="50.734656" lon="7.132332">
      </trkpt>
      <trkpt lat="50.73513" lon="7.13418">
      </trkpt>
      <trkpt lat="50.734503" lon="7.134774">
      </trkpt>
      <trkpt lat="50.735172" lon="7.136867">
      </trkpt>
      <trkpt lat="50.735218" lon="7.137985">
      </trkpt>
      <trkpt lat="50.735125" lon="7.138913">
      </trkpt>
      <trkpt lat="50.734634" lon="7.139559">
      </trkpt>
      <trkpt lat="50.734195" lon="7.140089">
      </trkpt>
      <trkpt lat="50.733578" lon="7.139999">
      </trkpt>
      <trkpt lat="50.732951" lon="7.139754">
      </trkpt>
      <trkpt lat="50.732383" lon="7.139292">
      </trkpt>
      <trkpt lat="50.731808" lon="7.139805">
      </trkpt>
      <trkpt lat="50.731688" lon="7.140652">
      </trkpt>
      <trkpt lat="50.731782" lon="7.141637">
      </trkpt>
      <trkpt lat="50.732265" lon="7.143004">
      </trkpt>
      <trkpt lat="50.732693" lon="7.143865">
      </trkpt>
      <trkpt lat="50.733185" lon="7.144587">
      </trkpt>
      <trkpt lat="50.733586" lon="7.145183">
      </trkpt>
      <trkpt lat="50.73308" lon="7.14596">
      </trkpt>
      <trkpt lat="50.732551" lon="7.146667">
      </trkpt>
      <trkpt lat="50.731921" lon="7.147266">
      </trkpt>
      <trkpt lat="50.731144" lon="7.147796">
      </trkpt>
      <trkpt lat="50.73013" lon="7.14902">
      </trkpt>
      <trkpt lat="50.730736" lon="7.14963">
      </trkpt>
      <trkpt lat="50.730547" lon="7.150668">
      </trkpt>
      <trkpt lat="50.730207" lon="7.151492">
      </trkpt>
      <trkpt lat="50.729993" lon="7.152424">
      </trkpt>
      <trkpt lat="50.72949" lon="7.153196">
      </trkpt>
      <trkpt lat="50.729128" lon="7.153924">
      </trkpt>
      <trkpt lat="50.728627" lon="7.154398">
      </trkpt>
      <trkpt lat="50.728218" lon="7.156009">
      </trkpt>
      <trkpt lat="50.728063" lon="7.15696">
      </trkpt>
      <trkpt lat="50.727205" lon="7.158575">
      </trkpt>
      <trkpt lat="50.727576" lon="7.159479">
      </trkpt>
      <trkpt lat="50.728141" lon="7.159517">
      </trkpt>
      <trkpt lat="50.728137" lon="7.16054">
      </trkpt>
      <trkpt lat="50.72837" lon="7.161592">
      </trkpt>
      <trkpt lat="50.728636" lon="7.162815">
      </trkpt>
      <trkpt lat="50.728715" lon="7.163749">
      </trkpt>
      <trkpt lat="50.729052" lon="7.165168">
      </trkpt>
      <trkpt lat="50.728899" lon="7.166226">
      </trkpt>
      <trkpt lat="50.728398" lon="7.165859">
      </trkpt>
      <trkpt lat="50.727875" lon="7.165517">
      </trkpt>
      <trkpt lat="50.727538" lon="7.166541">
      </trkpt>
      <trkpt lat="50.727133" lon="7.167705">
      </trkpt>
      <trkpt lat="50.726772" lon="7.168419">
      </trkpt>
      <trkpt lat="50.726284" lon="7.16901">
      </trkpt>
      <trkpt lat="50.725535" lon="7.169411">
      </trkpt>
      <trkpt lat="50.724752" lon="7.169632">
      </trkpt>
      <trkpt lat="50.724039" lon="7.169731">
      </trkpt>
      <trkpt lat="50.723386" lon="7.169189">
      </trkpt>
      <trkpt lat="50.722815" lon="7.169224">
      </trkpt>
      <trkpt lat="50.72232" lon="7.169702">
      </trkpt>
      <trkpt lat="50.721512" lon="7.169768">
      </trkpt>
      <trkpt lat="50.721104" lon="7.171435">
      </trkpt>
      <trkpt lat="50.721019" lon="7.172414">
      </trkpt>
      <trkpt lat="50.720533" lon="7.174133">
      </trkpt>
      <trkpt lat="50.720058" lon="7.17521">
      </trkpt>
      <trkpt lat="50.719448" lon="7.176506">
      </trkpt>
      <trkpt lat="50.719151" lon="7.177228">
      </trkpt>
      <trkpt lat="50.718725" lon="7.178191">
      </trkpt>
      <trkpt lat="50.718393" lon="7.179263">
      </trkpt>
      <trkpt lat="50.717889" lon="7.181516">
      </trkpt>
      <trkpt lat="50.717564" lon="7.183326">
      </trkpt>
      <trkpt lat="50.717589" lon="7.184317">
      </trkpt>
      <trkpt lat="50.717434" lon="7.185815">
      </trkpt>
      <trkpt lat="50.717175" lon="7.187167">
      </trkpt>
      <trkpt lat="50.716739" lon="7.188314">
      </trkpt>
      <trkpt lat="50.716218" lon="7.188981">
      </trkpt>
      <trkpt lat="50.71571" lon="7.189627">
      </trkpt>
      <trkpt lat="50.715116" lon="7.191039">
      </trkpt>
      <trkpt lat="50.714738" lon="7.191856">
      </trkpt>
      <trkpt lat="50.71428" lon="7.193234">
      </trkpt>
      <trkpt lat="50.713515" lon="7.194997">
      </trkpt>
      <trkpt lat="50.713181" lon="7.195751">
      </trkpt>
      <trkpt lat="50.71312" lon="7.196643">
      </trkpt>
      <trkpt lat="50.712797" lon="7.197467">
      </trkpt>
      <trkpt lat="50.712306" lon="7.198467">
      </trkpt>
      <trkpt lat="50.711988" lon="7.199241">
      </trkpt>
      <trkpt lat="50.711487" lon="7.199562">
      </trkpt>
      <trkpt lat="50.711609" lon="7.200398">
      </trkpt>
      <trkpt lat="50.711264" lon="7.20134">
      </trkpt>
      <trkpt lat="50.710741" lon="7.201895">
      </trkpt>
      <trkpt lat="50.709723" lon="7.203013">
      </trkpt>
      <trkpt lat="50.708749" lon="7.202139">
      </trkpt>
      <trkpt lat="50.707982" lon="7.202695">
      </trkpt>
      <trkpt lat="50.707362" lon="7.203794">
      </trkpt>
      <trkpt lat="50.706755" lon="7.204196">
      </trkpt>
      <trkpt lat="50.706037" lon="7.204585">
      </trkpt>
      <trkpt lat="50.705241" lon="7.205345">
      </trkpt>
      <trkpt lat="50.704577" lon="7.206258">
      </trkpt>
      <trkpt lat="50.704391" lon="7.2073">
      </trkpt>
      <trkpt lat="50.704333" lon="7.208423">
      </trkpt>
      <trkpt lat="50.704281" lon="7.210002">
      </trkpt>
      <trkpt lat="50.703668" lon="7.210801">
      </trkpt>
      <trkpt lat="50.703212" lon="7.21134">
      </trkpt>
      <trkpt lat="50.702472" lon="7.211454">
      </trkpt>
      <trkpt lat="50.701872" lon="7.211525">
      </trkpt>
      <trkpt lat="50.701667" lon="7.212653">
      </trkpt>
      <trkpt lat="50.701968" lon="7.213775">
      </trkpt>
      <trkpt lat="50.702326" lon="7.214552">
      </trkpt>
      <trkpt lat="50.70281" lon="7.215356">
      </trkpt>
      <trkpt lat="50.703148" lon="7.216738">
      </trkpt>
      <trkpt lat="50.703113" lon="7.217592">
      </trkpt>
      <trkpt lat="50.703148" lon="7.218713">
      </trkpt>
      <trkpt lat="50.703596" lon="7.219843">
      </trkpt>
      <trkpt lat="50.703964" lon="7.220615">
      </trkpt>
      <trkpt lat="50.70475" lon="7.221563">
      </trkpt>
      <trkpt lat="50.705249" lon="7.222368">
      </trkpt>
      <trkpt lat="50.705942" lon="7.223275">
      </trkpt>
      <trkpt lat="50.706339" lon="7.223991">
      </trkpt>
      <trkpt lat="50.70696" lon="7.225455">
      </trkpt>
      <trkpt lat="50.70743" lon="7.226801">
      </trkpt>
      <trkpt lat="50.708076" lon="7.227487">
      </trkpt>
      <trkpt lat="50.70813" lon="7.228566">
      </trkpt>
      <trkpt lat="50.70841" lon="7.229754">
      </trkpt>
      <trkpt lat="50.708967" lon="7.229955">
      </trkpt>
      <trkpt lat="50.709207" lon="7.229111">
      </trkpt>
      <trkpt lat="50.71043" lon="7.229809">
      </trkpt>
      <trkpt lat="50.710813" lon="7.230585">
      </trkpt>
      <trkpt lat="50.711477" lon="7.230096">
      </trkpt>
      <trkpt lat="50.711976" lon="7.229158">
      </trkpt>
      <trkpt lat="50.712682" lon="7.228847">
      </trkpt>
      <trkpt lat="50.71331" lon="7.228244">
      </trkpt>
      <trkpt lat="50.71453" lon="7.227186">
      </trkpt>
      <trkpt lat="50.715703" lon="7.22684">
      </trkpt>
      <trkpt lat="50.716694" lon="7.225973">
      </trkpt>
      <trkpt lat="50.717625" lon="7.225301">
      </trkpt>
      <trkpt lat="50.718108" lon="7.224805">
      </trkpt>
      <trkpt lat="50.721277" lon="7.224183">
      </trkpt>
      <trkpt lat="50.721859" lon="7.223987">
      </trkpt>
      <trkpt lat="50.723075" lon="7.224521">
      </trkpt>
      <trkpt lat="50.723945" lon="7.224744">
      </trkpt>
      <trkpt lat="50.724572" lon="7.224855">
      </trkpt>
      <trkpt lat="50.725108" lon="7.224242">
      </trkpt>
      <trkpt lat="50.725652" lon="7.223648">
      </trkpt>
      <trkpt lat="50.726081" lon="7.224309">
      </trkpt>
      <trkpt lat="50.726594" lon="7.22492">
      </trkpt>
      <trkpt lat="50.727419" lon="7.224598">
      </trkpt>
      <trkpt lat="50.728268" lon="7.224491">
      </trkpt>
      <trkpt lat="50.728913" lon="7.224634">
      </trkpt>
      <trkpt lat="50.72918" lon="7.22712">
      </trkpt>
      <trkpt lat="50.730215" lon="7.227303">
      </trkpt>
      <trkpt lat="50.731352" lon="7.228148">
      </trkpt>
      <trkpt lat="50.733161" lon="7.227287">
      </trkpt>
      <trkpt lat="50.734246" lon="7.226631">
      </trkpt>
      <trkpt lat="50.736249" lon="7.225791">
      </trkpt>
      <trkpt lat="50.736406" lon="7.224673">
      </trkpt>
      <trkpt lat="50.736219" lon="7.223538">
      </trkpt>
      <trkpt lat="50.736668" lon="7.222069">
      </trkpt>
      <trkpt lat="50.736805" lon="7.221214">
      </trkpt>
      <trkpt lat="50.736879" lon="7.220103">
      </trkpt>
      <trkpt lat="50.737071" lon="7.21914">
      </trkpt>
      <trkpt lat="50.737832" lon="7.218468">
      </trkpt>
      <trkpt lat="50.738813" lon="7.219694">
      </trkpt>
      <trkpt lat="50.739893" lon="7.219529">
      </trkpt>
      <trkpt lat="50.74048" lon="7.219733">
      </trkpt>
      <trkpt lat="50.740533" lon="7.220962">
      </trkpt>
      <trkpt lat="50.740782" lon="7.222514">
      </trkpt>
      <trkpt lat="50.741637" lon="7.222306">
      </trkpt>
      <trkpt lat="50.742232" lon="7.222111">
      </trkpt>
      <trkpt lat="50.743055" lon="7.222641">
      </trkpt>
      <trkpt lat="50.74388" lon="7.222832">
      </trkpt>
      <trkpt lat="50.744608" lon="7.222941">
      </trkpt>
      <trkpt lat="50.745198" lon="7.223086">
      </trkpt>
      <trkpt lat="50.745806" lon="7.223227">
      </trkpt>
      <trkpt lat="50.746505" lon="7.223074">
      </trkpt>
      <trkpt lat="50.747186" lon="7.222963">
      </trkpt>
      <trkpt lat="50.747692" lon="7.222641">
      </trkpt>
      <trkpt lat="50.748297" lon="7.223036">
      </trkpt>
      <trkpt lat="50.748658" lon="7.22371">
      </trkpt>
      <trkpt lat="50.749498" lon="7.223662">
      </trkpt>
      <trkpt lat="50.750141" lon="7.223691">
      </trkpt>
      <trkpt lat="50.750807" lon="7.223859">
      </trkpt>
      <trkpt lat="50.751566" lon="7.224096">
      </trkpt>
      <trkpt lat="50.751797" lon="7.223114">
      </trkpt>
      <trkpt lat="50.752004" lon="7.222249">
      </trkpt>
      <trkpt lat="50.752695" lon="7.221374">
      </trkpt>
      <trkpt lat="50.753808" lon="7.220205">
      </trkpt>
      <trkpt lat="50.75414" lon="7.221977">
      </trkpt>
      <trkpt lat="50.754584" lon="7.221482">
      </trkpt>
      <trkpt lat="50.75514" lon="7.221697">
      </trkpt>
      <trkpt lat="50.755763" lon="7.221904">
      </trkpt>
      <trkpt lat="50.758087" lon="7.220608">
      </trkpt>
      <trkpt lat="50.758417" lon="7.222046">
      </trkpt>
      <trkpt lat="50.759453" lon="7.221995">
      </trkpt>
      <trkpt lat="50.759812" lon="7.221335">
      </trkpt>
      <trkpt lat="50.761523" lon="7.220607">
      </trkpt>
      <trkpt lat="50.762078" lon="7.2205">
      </trkpt>
      <trkpt lat="50.763094" lon="7.220542">
      </trkpt>
      <trkpt lat="50.763804" lon="7.220874">
      </trkpt>
      <trkpt lat="50.765102" lon="7.220516">
      </trkpt>
      <trkpt lat="50.768682" lon="7.219495">
      </trkpt>
      <trkpt lat="50.769741" lon="7.21928">
      </trkpt>
      <trkpt lat="50.769827" lon="7.218311">
      </trkpt>
      <trkpt lat="50.77043" lon="7.218085">
      </trkpt>
      <trkpt lat="50.770948" lon="7.218688">
      </trkpt>
      <trkpt lat="50.771591" lon="7.219036">
      </trkpt>
      <trkpt lat="50.772434" lon="7.218858">
      </trkpt>
      <trkpt lat="50.77255" lon="7.21789">
      </trkpt>
      <trkpt lat="50.772319" lon="7.216683">
      </trkpt>
      <trkpt lat="50.772895" lon="7.216646">
      </trkpt>
      <trkpt lat="50.773739" lon="7.215657">
      </trkpt>
      <trkpt lat="50.774283" lon="7.215451">
      </trkpt>
      <trkpt lat="50.775234" lon="7.215135">
      </trkpt>
      <trkpt lat="50.776655" lon="7.214913">
      </trkpt>
      <trkpt lat="50.776755" lon="7.213934">
      </trkpt>
      <trkpt lat="50.777316" lon="7.21386">
      </trkpt>
      <trkpt lat="50.778158" lon="7.213679">
      </trkpt>
      <trkpt lat="50.778701" lon="7.213361">
      </trkpt>
      <trkpt lat="50.77956" lon="7.212841">
      </trkpt>
      <trkpt lat="50.78013" lon="7.212598">
      </trkpt>
      <trkpt lat="50.780915" lon="7.212812">
      </trkpt>
      <trkpt lat="50.782109" lon="7.213256">
      </trkpt>
      <trkpt lat="50.782563" lon="7.212795">
      </trkpt>
      <trkpt lat="50.783217" lon="7.211993">
      </trkpt>
      <trkpt lat="50.78359" lon="7.211182">
      </trkpt>
      <trkpt lat="50.784152" lon="7.210187">
      </trkpt>
      <trkpt lat="50.784461" lon="7.209204">
      </trkpt>
      <trkpt lat="50.784739" lon="7.207943">
      </trkpt>
      <trkpt lat="50.785038" lon="7.206894">
      </trkpt>
      <trkpt lat="50.78561" lon="7.204772">
      </trkpt>
      <trkpt lat="50.786394" lon="7.203259">
      </trkpt>
      <trkpt lat="50.787009" lon="7.202305">
      </trkpt>
      <trkpt lat="50.787542" lon="7.201318">
      </trkpt>
      <trkpt lat="50.787989" lon="7.200751">
      </trkpt>
      <trkpt lat="50.788748" lon="7.200112">
      </trkpt>
      <trkpt lat="50.789247" lon="7.199553">
      </trkpt>
      <trkpt lat="50.789518" lon="7.198808">
      </trkpt>
      <trkpt lat="50.789801" lon="7.197987">
      </trkpt>
      <trkpt lat="50.789755" lon="7.195463">
      </trkpt>
      <trkpt lat="50.790072" lon="7.192375">
      </trkpt>
      <trkpt lat="50.790115" lon="7.190766">
      </trkpt>
      <trkpt lat="50.790557" lon="7.189994">
      </trkpt>
      <trkpt lat="50.790943" lon="7.189168">
      </trkpt>
      <trkpt lat="50.791926" lon="7.187618">
      </trkpt>
      <trkpt lat="50.792323" lon="7.18704">
      </trkpt>
      <trkpt lat="50.792877" lon="7.186395">
      </trkpt>
      <trkpt lat="50.793668" lon="7.185232">
      </trkpt>
      <trkpt lat="50.79415" lon="7.184407">
      </trkpt>
      <trkpt lat="50.794584" lon="7.183478">
      </trkpt>
      <trkpt lat="50.795409" lon="7.181019">
      </trkpt>
      <trkpt lat="50.796041" lon="7.179911">
      </trkpt>
      <trkpt lat="50.796561" lon="7.17936">
      </trkpt>
      <trkpt lat="50.797131" lon="7.178006">
      </trkpt>
      <trkpt lat="50.7976" lon="7.177152">
      </trkpt>
      <trkpt lat="50.79805" lon="7.176662">
      </trkpt>
      <trkpt lat="50.798699" lon="7.176133">
      </trkpt>
      <trkpt lat="50.798386" lon="7.17511">
      </trkpt>
      <trkpt lat="50.797879" lon="7.17441">
      </trkpt>
      <trkpt lat="50.797904" lon="7.172865">
      </trkpt>
      <trkpt lat="50.79772" lon="7.168276">
      </trkpt>
      <trkpt lat="50.797483" lon="7.167433">
      </trkpt>
      <trkpt lat="50.797371" lon="7.166596">
      </trkpt>
      <trkpt lat="50.796773" lon="7.166529">
      </trkpt>
      <trkpt lat="50.796232" lon="7.166412">
      </trkpt>
      <trkpt lat="50.798915" lon="7.166596">
      </trkpt>
      <trkpt lat="50.798989" lon="7.165666">
      </trkpt>
      <trkpt lat="50.798467" lon="7.164689">
      </trkpt>
      <trkpt lat="50.7984" lon="7.163339">
      </trkpt>
      <trkpt lat="50.798214" lon="7.16235">
      </trkpt>
      <trkpt lat="50.798114" lon="7.160919">
      </trkpt>
      <trkpt lat="50.798024" lon="7.159725">
      </trkpt>
      <trkpt lat="50.798005" lon="7.158595">
      </trkpt>
      <trkpt lat="50.79808" lon="7.157536">
      </trkpt>
      <trkpt lat="50.798202" lon="7.156673">
      </trkpt>
      <trkpt lat="50.798269" lon="7.154455">
      </trkpt>
      <trkpt lat="50.797947" lon="7.15266">
      </trkpt>
      <trkpt lat="50.797321" lon="7.150225">
      </trkpt>
      <trkpt lat="50.797145" lon="7.149269">
      </trkpt>
      <trkpt lat="50.796854" lon="7.147361">
      </trkpt>
      <trkpt lat="50.796183" lon="7.145385">
      </trkpt>
      <trkpt lat="50.795728" lon="7.144319">
      </trkpt>
      <trkpt lat="50.79517" lon="7.143268">
      </trkpt>
      <trkpt lat="50.794214" lon="7.141905">
      </trkpt>
      <trkpt lat="50.793495" lon="7.141547">
      </trkpt>
      <trkpt lat="50.792758" lon="7.141169">
      </trkpt>
      <trkpt lat="50.793114" lon="7.140465">
      </trkpt>
      <trkpt lat="50.792757" lon="7.139677">
      </trkpt>
      <trkpt lat="50.791862" lon="7.138828">
      </trkpt>
      <trkpt lat="50.791161" lon="7.138837">
      </trkpt>
      <trkpt lat="50.790577" lon="7.139143">
      </trkpt>
      <trkpt lat="50.791161" lon="7.138837">
      </trkpt>
      <trkpt lat="50.791742" lon="7.138777">
      </trkpt>
      <trkpt lat="50.792381" lon="7.138478">
      </trkpt>
      <trkpt lat="50.791435" lon="7.138278">
      </trkpt>
      <trkpt lat="50.790913" lon="7.137772">
      </trkpt>
      <trkpt lat="50.790462" lon="7.136851">
      </trkpt>
      <trkpt lat="50.789254" lon="7.134638">
      </trkpt>
      <trkpt lat="50.788375" lon="7.133027">
      </trkpt>
      <trkpt lat="50.788231" lon="7.131776">
      </trkpt>
      <trkpt lat="50.787436" lon="7.13117">
      </trkpt>
      <trkpt lat="50.786119" lon="7.131548">
      </trkpt>
      <trkpt lat="50.784365" lon="7.132019">
      </trkpt>
      <trkpt lat="50.783524" lon="7.130623">
      </trkpt>
      <trkpt lat="50.783008" lon="7.129819">
      </trkpt>
      <trkpt lat="50.783835" lon="7.127956">
      </trkpt>
      <trkpt lat="50.784395" lon="7.124735">
      </trkpt>
      <trkpt lat="50.78488" lon="7.124047">
      </trkpt>
      <trkpt lat="50.784081" lon="7.123858">
      </trkpt>
      <trkpt lat="50.783298" lon="7.123934">
      </trkpt>
      <trkpt lat="50.782671" lon="7.123753">
      </trkpt>
      <trkpt lat="50.778519" lon="7.120353">
      </trkpt>
      <trkpt lat="50.778" lon="7.119799">
      </trkpt>
      <trkpt lat="50.777872" lon="7.118065">
      </trkpt>
      <trkpt lat="50.77734" lon="7.116036">
      </trkpt>
      <trkpt lat="50.776986" lon="7.114316">
      </trkpt>
      <trkpt lat="50.776676" lon="7.113261">
      </trkpt>
      <trkpt lat="50.776197" lon="7.112096">
      </trkpt>
      <trkpt lat="50.775091" lon="7.110776">
      </trkpt>
      <trkpt lat="50.774523" lon="7.109791">
      </trkpt>
      <trkpt lat="50.773491" lon="7.106926">
      </trkpt>
      <trkpt lat="50.773178" lon="7.105587">
      </trkpt>
      <trkpt lat="50.773324" lon="7.104497">
      </trkpt>
      <trkpt lat="50.773334" lon="7.103415">
      </trkpt>
      <trkpt lat="50.772762" lon="7.103552">
      </trkpt>
      <trkpt lat="50.77165" lon="7.103252">
      </trkpt>
      <trkpt lat="50.770931" lon="7.103098">
      </trkpt>
      <trkpt lat="50.770336" lon="7.103024">
      </trkpt>
      <trkpt lat="50.769778" lon="7.103175">
      </trkpt>
      <trkpt lat="50.767586" lon="7.104484">
      </trkpt>
      <trkpt lat="50.766711" lon="7.10571">
      </trkpt>
      <trkpt lat="50.765901" lon="7.107332">
      </trkpt>
      <trkpt lat="50.765044" lon="7.108875">
      </trkpt>
      <trkpt lat="50.764237" lon="7.110204">
      </trkpt>
      <trkpt lat="50.763459" lon="7.11137">
      </trkpt>
      <trkpt lat="50.764084" lon="7.110991">
      </trkpt>
      <trkpt lat="50.764781" lon="7.110398">
      </trkpt>
      <trkpt lat="50.765039" lon="7.109089">
      </trkpt>
      <trkpt lat="50.764593" lon="7.108009">
      </trkpt>
      <trkpt lat="50.763767" lon="7.107597">
      </trkpt>
      <trkpt lat="50.763187" lon="7.107094">
      </trkpt>
      <trkpt lat="50.762624" lon="7.106405">
      </trkpt>
      <trkpt lat="50.76162" lon="7.106631">
      </trkpt>
      <trkpt lat="50.760975" lon="7.106715">
      </trkpt>
      <trkpt lat="50.760662" lon="7.105952">
      </trkpt>
      <trkpt lat="50.759805" lon="7.105129">
      </trkpt>
      <trkpt lat="50.759388" lon="7.104131">
      </trkpt>
      <trkpt lat="50.758928" lon="7.103401">
      </trkpt>
      <trkpt lat="50.759056" lon="7.102408">
      </trkpt>
      <trkpt lat="50.759198" lon="7.10141">
      </trkpt>
      <trkpt lat="50.7596" lon="7.100538">
      </trkpt>
      <trkpt lat="50.759959" lon="7.0998">
      </trkpt>
      <trkpt lat="50.760777" lon="7.097589">
      </trkpt>
      <trkpt lat="50.762029" lon="7.093294">
      </trkpt>
    </trkseg>
  </trk>
</gpx>