<?xml version="1.0" encoding="UTF-8"?>
<gpx xmlns="http://www.topografix.com/GPX/1/1" xmlns:xsi="http://www.w3.org/2001/XMLSchema-instance" xsi:schemaLocation="http://www.topografix.com/GPX/1/1 http://www.topografix.com/GPX/1/1/gpx.xsd" version="1.1" creator="gpx.py -- https://github.com/tkrajina/gpxpy">
  <metadata>
    <name>033</name>
  </metadata>
  <trk>
    <name>033</name>
    <trkseg>
      <trkpt lat="50.734293" lon="7.104144">
      </trkpt>
      <trkpt lat="50.733521" lon="7.105465">
      </trkpt>
      <trkpt lat="50.733015" lon="7.106478">
      </trkpt>
      <trkpt lat="50.732198" lon="7.106972">
      </trkpt>
      <trkpt lat="50.732148" lon="7.108039">
      </trkpt>
      <trkpt lat="50.732382" lon="7.109343">
      </trkpt>
      <trkpt lat="50.730283" lon="7.110352">
      </trkpt>
      <trkpt lat="50.728923" lon="7.111419">
      </trkpt>
      <trkpt lat="50.727889" lon="7.112297">
      </trkpt>
      <trkpt lat="50.727075" lon="7.113114">
      </trkpt>
      <trkpt lat="50.725852" lon="7.114551">
      </trkpt>
      <trkpt lat="50.725152" lon="7.115492">
      </trkpt>
      <trkpt lat="50.724103" lon="7.117062">
      </trkpt>
      <trkpt lat="50.722446" lon="7.119719">
      </trkpt>
      <trkpt lat="50.721702" lon="7.121041">
      </trkpt>
      <trkpt lat="50.720912" lon="7.12284">
      </trkpt>
      <trkpt lat="50.720328" lon="7.124354">
      </trkpt>
      <trkpt lat="50.719859" lon="7.125743">
      </trkpt>
      <trkpt lat="50.719587" lon="7.126695">
      </trkpt>
      <trkpt lat="50.719158" lon="7.128439">
      </trkpt>
      <trkpt lat="50.718938" lon="7.129399">
      </trkpt>
      <trkpt lat="50.718676" lon="7.130738">
      </trkpt>
      <trkpt lat="50.718401" lon="7.132125">
      </trkpt>
      <trkpt lat="50.718168" lon="7.133254">
      </trkpt>
      <trkpt lat="50.717937" lon="7.134393">
      </trkpt>
      <trkpt lat="50.717621" lon="7.135722">
      </trkpt>
      <trkpt lat="50.717288" lon="7.137064">
      </trkpt>
      <trkpt lat="50.717013" lon="7.138285">
      </trkpt>
      <trkpt lat="50.716397" lon="7.139505">
      </trkpt>
      <trkpt lat="50.715784" lon="7.139533">
      </trkpt>
      <trkpt lat="50.715137" lon="7.139341">
      </trkpt>
      <trkpt lat="50.714549" lon="7.138875">
      </trkpt>
      <trkpt lat="50.714145" lon="7.138192">
      </trkpt>
      <trkpt lat="50.713506" lon="7.138626">
      </trkpt>
      <trkpt lat="50.712946" lon="7.139039">
      </trkpt>
      <trkpt lat="50.712712" lon="7.139945">
      </trkpt>
      <trkpt lat="50.712385" lon="7.140622">
      </trkpt>
      <trkpt lat="50.711725" lon="7.140416">
      </trkpt>
      <trkpt lat="50.71241" lon="7.140182">
      </trkpt>
      <trkpt lat="50.714352" lon="7.141484">
      </trkpt>
      <trkpt lat="50.71951" lon="7.144984">
      </trkpt>
      <trkpt lat="50.720126" lon="7.145778">
      </trkpt>
      <trkpt lat="50.719571" lon="7.145658">
      </trkpt>
      <trkpt lat="50.719517" lon="7.146669">
      </trkpt>
      <trkpt lat="50.718973" lon="7.14709">
      </trkpt>
      <trkpt lat="50.718315" lon="7.148945">
      </trkpt>
      <trkpt lat="50.717949" lon="7.150072">
      </trkpt>
      <trkpt lat="50.717275" lon="7.151268">
      </trkpt>
      <trkpt lat="50.716837" lon="7.15237">
      </trkpt>
      <trkpt lat="50.716469" lon="7.153393">
      </trkpt>
      <trkpt lat="50.7161" lon="7.154417">
      </trkpt>
      <trkpt lat="50.7159" lon="7.155524">
      </trkpt>
      <trkpt lat="50.715313" lon="7.156938">
      </trkpt>
      <trkpt lat="50.714795" lon="7.158024">
      </trkpt>
      <trkpt lat="50.714222" lon="7.159116">
      </trkpt>
      <trkpt lat="50.712756" lon="7.161333">
      </trkpt>
      <trkpt lat="50.712279" lon="7.162275">
      </trkpt>
      <trkpt lat="50.711591" lon="7.163231">
      </trkpt>
      <trkpt lat="50.711143" lon="7.163839">
      </trkpt>
      <trkpt lat="50.710858" lon="7.164573">
      </trkpt>
      <trkpt lat="50.711221" lon="7.165875">
      </trkpt>
      <trkpt lat="50.71148" lon="7.166628">
      </trkpt>
      <trkpt lat="50.711799" lon="7.16765">
      </trkpt>
      <trkpt lat="50.712135" lon="7.169197">
      </trkpt>
      <trkpt lat="50.712472" lon="7.169919">
      </trkpt>
      <trkpt lat="50.712838" lon="7.170591">
      </trkpt>
      <trkpt lat="50.712844" lon="7.171639">
      </trkpt>
      <trkpt lat="50.713208" lon="7.172506">
      </trkpt>
      <trkpt lat="50.713295" lon="7.173545">
      </trkpt>
      <trkpt lat="50.713012" lon="7.174473">
      </trkpt>
      <trkpt lat="50.713017" lon="7.175367">
      </trkpt>
      <trkpt lat="50.71263" lon="7.177155">
      </trkpt>
      <trkpt lat="50.712176" lon="7.179251">
      </trkpt>
      <trkpt lat="50.71211" lon="7.18026">
      </trkpt>
      <trkpt lat="50.712231" lon="7.181408">
      </trkpt>
      <trkpt lat="50.71205" lon="7.18256">
      </trkpt>
      <trkpt lat="50.712183" lon="7.183754">
      </trkpt>
      <trkpt lat="50.712238" lon="7.184613">
      </trkpt>
      <trkpt lat="50.711772" lon="7.185646">
      </trkpt>
      <trkpt lat="50.711305" lon="7.186357">
      </trkpt>
      <trkpt lat="50.710972" lon="7.187348">
      </trkpt>
      <trkpt lat="50.71062" lon="7.188454">
      </trkpt>
      <trkpt lat="50.710268" lon="7.189207">
      </trkpt>
      <trkpt lat="50.710257" lon="7.190376">
      </trkpt>
      <trkpt lat="50.710662" lon="7.191633">
      </trkpt>
      <trkpt lat="50.709214" lon="7.191837">
      </trkpt>
      <trkpt lat="50.70868" lon="7.192123">
      </trkpt>
      <trkpt lat="50.707985" lon="7.192759">
      </trkpt>
      <trkpt lat="50.707435" lon="7.193002">
      </trkpt>
      <trkpt lat="50.706885" lon="7.192813">
      </trkpt>
      <trkpt lat="50.706258" lon="7.192079">
      </trkpt>
      <trkpt lat="50.705188" lon="7.191555">
      </trkpt>
      <trkpt lat="50.704427" lon="7.191409">
      </trkpt>
      <trkpt lat="50.703767" lon="7.191089">
      </trkpt>
      <trkpt lat="50.70313" lon="7.190642">
      </trkpt>
      <trkpt lat="50.702443" lon="7.1903">
      </trkpt>
      <trkpt lat="50.702362" lon="7.191186">
      </trkpt>
      <trkpt lat="50.701968" lon="7.191873">
      </trkpt>
      <trkpt lat="50.701654" lon="7.19107">
      </trkpt>
      <trkpt lat="50.701032" lon="7.191465">
      </trkpt>
      <trkpt lat="50.70033" lon="7.191981">
      </trkpt>
      <trkpt lat="50.699785" lon="7.191876">
      </trkpt>
      <trkpt lat="50.699568" lon="7.192688">
      </trkpt>
      <trkpt lat="50.69926" lon="7.193474">
      </trkpt>
      <trkpt lat="50.698881" lon="7.194511">
      </trkpt>
      <trkpt lat="50.698172" lon="7.195068">
      </trkpt>
      <trkpt lat="50.697744" lon="7.19588">
      </trkpt>
      <trkpt lat="50.697651" lon="7.196852">
      </trkpt>
      <trkpt lat="50.698019" lon="7.197609">
      </trkpt>
      <trkpt lat="50.698394" lon="7.19848">
      </trkpt>
      <trkpt lat="50.698544" lon="7.199346">
      </trkpt>
      <trkpt lat="50.698984" lon="7.200336">
      </trkpt>
      <trkpt lat="50.699035" lon="7.201331">
      </trkpt>
      <trkpt lat="50.699221" lon="7.202946">
      </trkpt>
      <trkpt lat="50.699333" lon="7.203808">
      </trkpt>
      <trkpt lat="50.699702" lon="7.204746">
      </trkpt>
      <trkpt lat="50.699538" lon="7.205781">
      </trkpt>
      <trkpt lat="50.699047" lon="7.206696">
      </trkpt>
      <trkpt lat="50.700131" lon="7.208565">
      </trkpt>
      <trkpt lat="50.700207" lon="7.209493">
      </trkpt>
      <trkpt lat="50.70075" lon="7.210157">
      </trkpt>
      <trkpt lat="50.701537" lon="7.211439">
      </trkpt>
      <trkpt lat="50.700051" lon="7.212451">
      </trkpt>
      <trkpt lat="50.698631" lon="7.213112">
      </trkpt>
      <trkpt lat="50.697964" lon="7.213651">
      </trkpt>
      <trkpt lat="50.697762" lon="7.214637">
      </trkpt>
      <trkpt lat="50.697218" lon="7.21605">
      </trkpt>
      <trkpt lat="50.696832" lon="7.217105">
      </trkpt>
      <trkpt lat="50.696576" lon="7.218117">
      </trkpt>
      <trkpt lat="50.696489" lon="7.219108">
      </trkpt>
      <trkpt lat="50.696243" lon="7.220167">
      </trkpt>
      <trkpt lat="50.694909" lon="7.221495">
      </trkpt>
      <trkpt lat="50.694526" lon="7.222232">
      </trkpt>
      <trkpt lat="50.694007" lon="7.222876">
      </trkpt>
      <trkpt lat="50.693517" lon="7.222298">
      </trkpt>
      <trkpt lat="50.692957" lon="7.222177">
      </trkpt>
      <trkpt lat="50.692383" lon="7.222193">
      </trkpt>
      <trkpt lat="50.691153" lon="7.222395">
      </trkpt>
      <trkpt lat="50.691846" lon="7.222813">
      </trkpt>
      <trkpt lat="50.692445" lon="7.223322">
      </trkpt>
      <trkpt lat="50.69289" lon="7.224573">
      </trkpt>
      <trkpt lat="50.692958" lon="7.226571">
      </trkpt>
      <trkpt lat="50.692613" lon="7.227577">
      </trkpt>
      <trkpt lat="50.692039" lon="7.228526">
      </trkpt>
      <trkpt lat="50.691658" lon="7.229192">
      </trkpt>
      <trkpt lat="50.690145" lon="7.229623">
      </trkpt>
      <trkpt lat="50.6896" lon="7.229455">
      </trkpt>
      <trkpt lat="50.689014" lon="7.229057">
      </trkpt>
      <trkpt lat="50.688428" lon="7.22924">
      </trkpt>
      <trkpt lat="50.687868" lon="7.229178">
      </trkpt>
      <trkpt lat="50.687464" lon="7.228041">
      </trkpt>
      <trkpt lat="50.686668" lon="7.228061">
      </trkpt>
      <trkpt lat="50.686088" lon="7.228321">
      </trkpt>
      <trkpt lat="50.685731" lon="7.22908">
      </trkpt>
      <trkpt lat="50.685362" lon="7.230412">
      </trkpt>
      <trkpt lat="50.685029" lon="7.231242">
      </trkpt>
      <trkpt lat="50.683932" lon="7.23227">
      </trkpt>
      <trkpt lat="50.682993" lon="7.232568">
      </trkpt>
      <trkpt lat="50.682162" lon="7.232703">
      </trkpt>
      <trkpt lat="50.681674" lon="7.233216">
      </trkpt>
      <trkpt lat="50.680894" lon="7.234406">
      </trkpt>
      <trkpt lat="50.680282" lon="7.234765">
      </trkpt>
      <trkpt lat="50.680285" lon="7.235911">
      </trkpt>
      <trkpt lat="50.680256" lon="7.236921">
      </trkpt>
      <trkpt lat="50.679996" lon="7.2379">
      </trkpt>
      <trkpt lat="50.679967" lon="7.238818">
      </trkpt>
      <trkpt lat="50.679814" lon="7.240155">
      </trkpt>
      <trkpt lat="50.68005" lon="7.24096">
      </trkpt>
      <trkpt lat="50.680634" lon="7.24204">
      </trkpt>
      <trkpt lat="50.680914" lon="7.243501">
      </trkpt>
      <trkpt lat="50.680276" lon="7.243669">
      </trkpt>
      <trkpt lat="50.679877" lon="7.244633">
      </trkpt>
      <trkpt lat="50.679242" lon="7.245643">
      </trkpt>
      <trkpt lat="50.678633" lon="7.245777">
      </trkpt>
      <trkpt lat="50.67827" lon="7.246525">
      </trkpt>
      <trkpt lat="50.677733" lon="7.247197">
      </trkpt>
      <trkpt lat="50.677415" lon="7.248175">
      </trkpt>
      <trkpt lat="50.676788" lon="7.248811">
      </trkpt>
      <trkpt lat="50.675516" lon="7.250029">
      </trkpt>
      <trkpt lat="50.674802" lon="7.250806">
      </trkpt>
      <trkpt lat="50.674408" lon="7.249907">
      </trkpt>
      <trkpt lat="50.674269" lon="7.248431">
      </trkpt>
      <trkpt lat="50.674233" lon="7.247379">
      </trkpt>
      <trkpt lat="50.67423" lon="7.246145">
      </trkpt>
      <trkpt lat="50.67444" lon="7.244921">
      </trkpt>
      <trkpt lat="50.674535" lon="7.243526">
      </trkpt>
      <trkpt lat="50.674059" lon="7.241539">
      </trkpt>
      <trkpt lat="50.673777" lon="7.240763">
      </trkpt>
      <trkpt lat="50.67335" lon="7.241399">
      </trkpt>
      <trkpt lat="50.672736" lon="7.241266">
      </trkpt>
      <trkpt lat="50.672667" lon="7.240048">
      </trkpt>
      <trkpt lat="50.672941" lon="7.239173">
      </trkpt>
      <trkpt lat="50.672983" lon="7.237968">
      </trkpt>
      <trkpt lat="50.67276" lon="7.237037">
      </trkpt>
      <trkpt lat="50.673076" lon="7.236232">
      </trkpt>
      <trkpt lat="50.672718" lon="7.235449">
      </trkpt>
      <trkpt lat="50.67248" lon="7.234372">
      </trkpt>
      <trkpt lat="50.672382" lon="7.233361">
      </trkpt>
      <trkpt lat="50.671957" lon="7.23257">
      </trkpt>
      <trkpt lat="50.672278" lon="7.231504">
      </trkpt>
      <trkpt lat="50.67241" lon="7.23001">
      </trkpt>
      <trkpt lat="50.672093" lon="7.229189">
      </trkpt>
      <trkpt lat="50.672055" lon="7.22816">
      </trkpt>
      <trkpt lat="50.672188" lon="7.227222">
      </trkpt>
      <trkpt lat="50.672681" lon="7.226304">
      </trkpt>
      <trkpt lat="50.673301" lon="7.22525">
      </trkpt>
      <trkpt lat="50.67375" lon="7.224084">
      </trkpt>
      <trkpt lat="50.673509" lon="7.223282">
      </trkpt>
      <trkpt lat="50.672878" lon="7.222789">
      </trkpt>
      <trkpt lat="50.67226" lon="7.22266">
      </trkpt>
      <trkpt lat="50.671822" lon="7.22213">
      </trkpt>
      <trkpt lat="50.671172" lon="7.220328">
      </trkpt>
      <trkpt lat="50.670606" lon="7.219813">
      </trkpt>
      <trkpt lat="50.670158" lon="7.218685">
      </trkpt>
      <trkpt lat="50.670403" lon="7.21792">
      </trkpt>
      <trkpt lat="50.670871" lon="7.21708">
      </trkpt>
      <trkpt lat="50.671356" lon="7.214883">
      </trkpt>
      <trkpt lat="50.671279" lon="7.212698">
      </trkpt>
      <trkpt lat="50.671374" lon="7.211836">
      </trkpt>
      <trkpt lat="50.671411" lon="7.210888">
      </trkpt>
      <trkpt lat="50.671624" lon="7.210101">
      </trkpt>
      <trkpt lat="50.671622" lon="7.20872">
      </trkpt>
      <trkpt lat="50.671848" lon="7.207705">
      </trkpt>
      <trkpt lat="50.672154" lon="7.20689">
      </trkpt>
      <trkpt lat="50.672925" lon="7.205951">
      </trkpt>
      <trkpt lat="50.673526" lon="7.205651">
      </trkpt>
      <trkpt lat="50.67411" lon="7.204926">
      </trkpt>
      <trkpt lat="50.674772" lon="7.204606">
      </trkpt>
      <trkpt lat="50.675384" lon="7.204498">
      </trkpt>
      <trkpt lat="50.675935" lon="7.204507">
      </trkpt>
      <trkpt lat="50.677777" lon="7.203172">
      </trkpt>
      <trkpt lat="50.67832" lon="7.203818">
      </trkpt>
      <trkpt lat="50.679262" lon="7.202067">
      </trkpt>
      <trkpt lat="50.679506" lon="7.200835">
      </trkpt>
      <trkpt lat="50.679618" lon="7.199498">
      </trkpt>
      <trkpt lat="50.680087" lon="7.198329">
      </trkpt>
      <trkpt lat="50.680597" lon="7.197818">
      </trkpt>
      <trkpt lat="50.680962" lon="7.198601">
      </trkpt>
      <trkpt lat="50.68144" lon="7.198183">
      </trkpt>
      <trkpt lat="50.681412" lon="7.197046">
      </trkpt>
      <trkpt lat="50.681612" lon="7.195892">
      </trkpt>
      <trkpt lat="50.68239" lon="7.195337">
      </trkpt>
      <trkpt lat="50.683235" lon="7.194725">
      </trkpt>
      <trkpt lat="50.68358" lon="7.194063">
      </trkpt>
      <trkpt lat="50.683898" lon="7.193294">
      </trkpt>
      <trkpt lat="50.684568" lon="7.193604">
      </trkpt>
      <trkpt lat="50.685223" lon="7.193828">
      </trkpt>
      <trkpt lat="50.685768" lon="7.194242">
      </trkpt>
      <trkpt lat="50.686811" lon="7.195473">
      </trkpt>
      <trkpt lat="50.687431" lon="7.194944">
      </trkpt>
      <trkpt lat="50.68805" lon="7.195045">
      </trkpt>
      <trkpt lat="50.688928" lon="7.194206">
      </trkpt>
      <trkpt lat="50.689188" lon="7.193378">
      </trkpt>
      <trkpt lat="50.688631" lon="7.192253">
      </trkpt>
      <trkpt lat="50.68806" lon="7.191554">
      </trkpt>
      <trkpt lat="50.688624" lon="7.191181">
      </trkpt>
      <trkpt lat="50.689563" lon="7.190933">
      </trkpt>
      <trkpt lat="50.690137" lon="7.190858">
      </trkpt>
      <trkpt lat="50.690928" lon="7.190408">
      </trkpt>
      <trkpt lat="50.691583" lon="7.19026">
      </trkpt>
      <trkpt lat="50.692228" lon="7.190174">
      </trkpt>
      <trkpt lat="50.692728" lon="7.189591">
      </trkpt>
      <trkpt lat="50.693287" lon="7.189366">
      </trkpt>
      <trkpt lat="50.69399" lon="7.189237">
      </trkpt>
      <trkpt lat="50.69461" lon="7.189138">
      </trkpt>
      <trkpt lat="50.69516" lon="7.189143">
      </trkpt>
      <trkpt lat="50.69577" lon="7.188257">
      </trkpt>
      <trkpt lat="50.696227" lon="7.187762">
      </trkpt>
      <trkpt lat="50.696776" lon="7.187218">
      </trkpt>
      <trkpt lat="50.697304" lon="7.187486">
      </trkpt>
      <trkpt lat="50.697866" lon="7.187936">
      </trkpt>
      <trkpt lat="50.698551" lon="7.188051">
      </trkpt>
      <trkpt lat="50.699115" lon="7.187895">
      </trkpt>
      <trkpt lat="50.699679" lon="7.187173">
      </trkpt>
      <trkpt lat="50.700467" lon="7.186552">
      </trkpt>
      <trkpt lat="50.700934" lon="7.184927">
      </trkpt>
      <trkpt lat="50.701161" lon="7.183857">
      </trkpt>
      <trkpt lat="50.701369" lon="7.182926">
      </trkpt>
      <trkpt lat="50.701715" lon="7.181506">
      </trkpt>
      <trkpt lat="50.702306" lon="7.180647">
      </trkpt>
      <trkpt lat="50.701845" lon="7.18017">
      </trkpt>
      <trkpt lat="50.702204" lon="7.178927">
      </trkpt>
      <trkpt lat="50.702618" lon="7.178375">
      </trkpt>
      <trkpt lat="50.703077" lon="7.177715">
      </trkpt>
      <trkpt lat="50.703305" lon="7.176749">
      </trkpt>
      <trkpt lat="50.704063" lon="7.175685">
      </trkpt>
      <trkpt lat="50.704535" lon="7.175179">
      </trkpt>
      <trkpt lat="50.704307" lon="7.174163">
      </trkpt>
      <trkpt lat="50.703868" lon="7.172953">
      </trkpt>
      <trkpt lat="50.704507" lon="7.17161">
      </trkpt>
      <trkpt lat="50.705977" lon="7.170048">
      </trkpt>
      <trkpt lat="50.707263" lon="7.168646">
      </trkpt>
      <trkpt lat="50.708536" lon="7.167239">
      </trkpt>
      <trkpt lat="50.709003" lon="7.166521">
      </trkpt>
      <trkpt lat="50.709432" lon="7.165934">
      </trkpt>
      <trkpt lat="50.710042" lon="7.165197">
      </trkpt>
      <trkpt lat="50.710448" lon="7.164621">
      </trkpt>
      <trkpt lat="50.710981" lon="7.163973">
      </trkpt>
      <trkpt lat="50.711591" lon="7.163231">
      </trkpt>
      <trkpt lat="50.712279" lon="7.162275">
      </trkpt>
      <trkpt lat="50.712756" lon="7.161333">
      </trkpt>
      <trkpt lat="50.713872" lon="7.159659">
      </trkpt>
      <trkpt lat="50.714795" lon="7.158024">
      </trkpt>
      <trkpt lat="50.715313" lon="7.156938">
      </trkpt>
      <trkpt lat="50.715704" lon="7.156112">
      </trkpt>
      <trkpt lat="50.716052" lon="7.154962">
      </trkpt>
      <trkpt lat="50.716469" lon="7.153393">
      </trkpt>
      <trkpt lat="50.716837" lon="7.15237">
      </trkpt>
      <trkpt lat="50.717219" lon="7.151346">
      </trkpt>
      <trkpt lat="50.717815" lon="7.150457">
      </trkpt>
      <trkpt lat="50.718086" lon="7.14965">
      </trkpt>
      <trkpt lat="50.71887" lon="7.14724">
      </trkpt>
      <trkpt lat="50.719424" lon="7.146999">
      </trkpt>
      <trkpt lat="50.719545" lon="7.145798">
      </trkpt>
      <trkpt lat="50.719569" lon="7.144439">
      </trkpt>
      <trkpt lat="50.720087" lon="7.142744">
      </trkpt>
      <trkpt lat="50.720365" lon="7.141542">
      </trkpt>
      <trkpt lat="50.720644" lon="7.140029">
      </trkpt>
      <trkpt lat="50.72092" lon="7.139027">
      </trkpt>
      <trkpt lat="50.7213" lon="7.137843">
      </trkpt>
      <trkpt lat="50.721602" lon="7.13623">
      </trkpt>
      <trkpt lat="50.721818" lon="7.13526">
      </trkpt>
      <trkpt lat="50.722207" lon="7.13395">
      </trkpt>
      <trkpt lat="50.722616" lon="7.132389">
      </trkpt>
      <trkpt lat="50.722805" lon="7.131554">
      </trkpt>
      <trkpt lat="50.723474" lon="7.130675">
      </trkpt>
      <trkpt lat="50.723776" lon="7.129941">
      </trkpt>
      <trkpt lat="50.724122" lon="7.128739">
      </trkpt>
      <trkpt lat="50.724311" lon="7.127783">
      </trkpt>
      <trkpt lat="50.724686" lon="7.127102">
      </trkpt>
      <trkpt lat="50.724915" lon="7.126289">
      </trkpt>
      <trkpt lat="50.72524" lon="7.125419">
      </trkpt>
      <trkpt lat="50.725556" lon="7.124623">
      </trkpt>
      <trkpt lat="50.726112" lon="7.12367">
      </trkpt>
      <trkpt lat="50.726669" lon="7.12226">
      </trkpt>
      <trkpt lat="50.727042" lon="7.121631">
      </trkpt>
      <trkpt lat="50.727925" lon="7.120168">
      </trkpt>
      <trkpt lat="50.728578" lon="7.119298">
      </trkpt>
      <trkpt lat="50.728937" lon="7.118421">
      </trkpt>
      <trkpt lat="50.730021" lon="7.117238">
      </trkpt>
      <trkpt lat="50.730581" lon="7.116749">
      </trkpt>
      <trkpt lat="50.731727" lon="7.115921">
      </trkpt>
      <trkpt lat="50.73256" lon="7.115431">
      </trkpt>
      <trkpt lat="50.733203" lon="7.115158">
      </trkpt>
      <trkpt lat="50.734641" lon="7.114459">
      </trkpt>
      <trkpt lat="50.735214" lon="7.114172">
      </trkpt>
      <trkpt lat="50.735835" lon="7.113916">
      </trkpt>
      <trkpt lat="50.736457" lon="7.113743">
      </trkpt>
      <trkpt lat="50.737195" lon="7.113569">
      </trkpt>
    </trkseg>
  </trk>
</gpx>