<?xml version="1.0" encoding="UTF-8"?>
<gpx xmlns="http://www.topografix.com/GPX/1/1" xmlns:xsi="http://www.w3.org/2001/XMLSchema-instance" xsi:schemaLocation="http://www.topografix.com/GPX/1/1 http://www.topografix.com/GPX/1/1/gpx.xsd" version="1.1" creator="gpx.py -- https://github.com/tkrajina/gpxpy">
  <metadata>
    <name>034</name>
  </metadata>
  <trk>
    <name>034</name>
    <trkseg>
      <trkpt lat="50.734361" lon="7.103825">
      </trkpt>
      <trkpt lat="50.734998" lon="7.104011">
      </trkpt>
      <trkpt lat="50.73552" lon="7.104395">
      </trkpt>
      <trkpt lat="50.736176" lon="7.104756">
      </trkpt>
      <trkpt lat="50.736801" lon="7.10427">
      </trkpt>
      <trkpt lat="50.737358" lon="7.104709">
      </trkpt>
      <trkpt lat="50.737469" lon="7.105598">
      </trkpt>
      <trkpt lat="50.73765" lon="7.106707">
      </trkpt>
      <trkpt lat="50.738118" lon="7.110063">
      </trkpt>
      <trkpt lat="50.738574" lon="7.11341">
      </trkpt>
      <trkpt lat="50.738727" lon="7.114479">
      </trkpt>
      <trkpt lat="50.738828" lon="7.115368">
      </trkpt>
      <trkpt lat="50.738415" lon="7.116284">
      </trkpt>
      <trkpt lat="50.738653" lon="7.117344">
      </trkpt>
      <trkpt lat="50.738183" lon="7.117998">
      </trkpt>
      <trkpt lat="50.738164" lon="7.118934">
      </trkpt>
      <trkpt lat="50.738775" lon="7.120867">
      </trkpt>
      <trkpt lat="50.739223" lon="7.12212">
      </trkpt>
      <trkpt lat="50.739652" lon="7.123387">
      </trkpt>
      <trkpt lat="50.739857" lon="7.124539">
      </trkpt>
      <trkpt lat="50.740001" lon="7.12568">
      </trkpt>
      <trkpt lat="50.739846" lon="7.126601">
      </trkpt>
      <trkpt lat="50.740182" lon="7.127272">
      </trkpt>
      <trkpt lat="50.73923" lon="7.128367">
      </trkpt>
      <trkpt lat="50.738695" lon="7.128862">
      </trkpt>
      <trkpt lat="50.736698" lon="7.130278">
      </trkpt>
      <trkpt lat="50.735855" lon="7.130885">
      </trkpt>
      <trkpt lat="50.734648" lon="7.131752">
      </trkpt>
      <trkpt lat="50.734067" lon="7.132178">
      </trkpt>
      <trkpt lat="50.733416" lon="7.132652">
      </trkpt>
      <trkpt lat="50.732912" lon="7.133175">
      </trkpt>
      <trkpt lat="50.731918" lon="7.134514">
      </trkpt>
      <trkpt lat="50.73255" lon="7.135689">
      </trkpt>
      <trkpt lat="50.73317" lon="7.136363">
      </trkpt>
      <trkpt lat="50.732839" lon="7.13727">
      </trkpt>
      <trkpt lat="50.732697" lon="7.138214">
      </trkpt>
      <trkpt lat="50.732383" lon="7.139292">
      </trkpt>
      <trkpt lat="50.732951" lon="7.139754">
      </trkpt>
      <trkpt lat="50.733578" lon="7.139999">
      </trkpt>
      <trkpt lat="50.733054" lon="7.140349">
      </trkpt>
      <trkpt lat="50.732584" lon="7.140924">
      </trkpt>
      <trkpt lat="50.732005" lon="7.141526">
      </trkpt>
      <trkpt lat="50.732265" lon="7.143004">
      </trkpt>
      <trkpt lat="50.732693" lon="7.143865">
      </trkpt>
      <trkpt lat="50.733185" lon="7.144587">
      </trkpt>
      <trkpt lat="50.733586" lon="7.145183">
      </trkpt>
      <trkpt lat="50.733965" lon="7.146239">
      </trkpt>
      <trkpt lat="50.734388" lon="7.147513">
      </trkpt>
      <trkpt lat="50.735014" lon="7.147274">
      </trkpt>
      <trkpt lat="50.735853" lon="7.147419">
      </trkpt>
      <trkpt lat="50.736407" lon="7.148633">
      </trkpt>
      <trkpt lat="50.735824" lon="7.148466">
      </trkpt>
      <trkpt lat="50.734954" lon="7.149335">
      </trkpt>
      <trkpt lat="50.73572" lon="7.15135">
      </trkpt>
      <trkpt lat="50.736103" lon="7.153031">
      </trkpt>
      <trkpt lat="50.736228" lon="7.154082">
      </trkpt>
      <trkpt lat="50.735345" lon="7.153838">
      </trkpt>
      <trkpt lat="50.734781" lon="7.154031">
      </trkpt>
      <trkpt lat="50.733934" lon="7.154101">
      </trkpt>
      <trkpt lat="50.733376" lon="7.154418">
      </trkpt>
      <trkpt lat="50.732574" lon="7.154906">
      </trkpt>
      <trkpt lat="50.731748" lon="7.154813">
      </trkpt>
      <trkpt lat="50.732235" lon="7.156741">
      </trkpt>
      <trkpt lat="50.732833" lon="7.158403">
      </trkpt>
      <trkpt lat="50.732106" lon="7.158176">
      </trkpt>
      <trkpt lat="50.73148" lon="7.157626">
      </trkpt>
      <trkpt lat="50.730858" lon="7.157932">
      </trkpt>
      <trkpt lat="50.730485" lon="7.158917">
      </trkpt>
      <trkpt lat="50.729777" lon="7.160178">
      </trkpt>
      <trkpt lat="50.729159" lon="7.159755">
      </trkpt>
      <trkpt lat="50.728346" lon="7.159404">
      </trkpt>
      <trkpt lat="50.728123" lon="7.160321">
      </trkpt>
      <trkpt lat="50.72837" lon="7.161592">
      </trkpt>
      <trkpt lat="50.728636" lon="7.162815">
      </trkpt>
      <trkpt lat="50.728715" lon="7.163749">
      </trkpt>
      <trkpt lat="50.729052" lon="7.165168">
      </trkpt>
      <trkpt lat="50.728899" lon="7.166226">
      </trkpt>
      <trkpt lat="50.728398" lon="7.165859">
      </trkpt>
      <trkpt lat="50.727875" lon="7.165517">
      </trkpt>
      <trkpt lat="50.727538" lon="7.166541">
      </trkpt>
      <trkpt lat="50.727133" lon="7.167705">
      </trkpt>
      <trkpt lat="50.726772" lon="7.168419">
      </trkpt>
      <trkpt lat="50.726284" lon="7.16901">
      </trkpt>
      <trkpt lat="50.725535" lon="7.169411">
      </trkpt>
      <trkpt lat="50.724752" lon="7.169632">
      </trkpt>
      <trkpt lat="50.724039" lon="7.169731">
      </trkpt>
      <trkpt lat="50.723386" lon="7.169189">
      </trkpt>
      <trkpt lat="50.722815" lon="7.169224">
      </trkpt>
      <trkpt lat="50.72232" lon="7.169702">
      </trkpt>
      <trkpt lat="50.721512" lon="7.169768">
      </trkpt>
      <trkpt lat="50.720954" lon="7.169938">
      </trkpt>
      <trkpt lat="50.720436" lon="7.170742">
      </trkpt>
      <trkpt lat="50.720096" lon="7.171408">
      </trkpt>
      <trkpt lat="50.719586" lon="7.17212">
      </trkpt>
      <trkpt lat="50.719205" lon="7.172979">
      </trkpt>
      <trkpt lat="50.718685" lon="7.17323">
      </trkpt>
      <trkpt lat="50.718178" lon="7.174498">
      </trkpt>
      <trkpt lat="50.717954" lon="7.175562">
      </trkpt>
      <trkpt lat="50.717408" lon="7.175853">
      </trkpt>
      <trkpt lat="50.716693" lon="7.175816">
      </trkpt>
      <trkpt lat="50.716134" lon="7.176365">
      </trkpt>
      <trkpt lat="50.715606" lon="7.176954">
      </trkpt>
      <trkpt lat="50.715442" lon="7.177932">
      </trkpt>
      <trkpt lat="50.714895" lon="7.178942">
      </trkpt>
      <trkpt lat="50.714483" lon="7.179585">
      </trkpt>
      <trkpt lat="50.714257" lon="7.181022">
      </trkpt>
      <trkpt lat="50.714092" lon="7.181972">
      </trkpt>
      <trkpt lat="50.714748" lon="7.182283">
      </trkpt>
      <trkpt lat="50.714548" lon="7.183501">
      </trkpt>
      <trkpt lat="50.713627" lon="7.183381">
      </trkpt>
      <trkpt lat="50.712962" lon="7.183535">
      </trkpt>
      <trkpt lat="50.712546" lon="7.18411">
      </trkpt>
      <trkpt lat="50.712195" lon="7.184784">
      </trkpt>
      <trkpt lat="50.711772" lon="7.185646">
      </trkpt>
      <trkpt lat="50.711305" lon="7.186357">
      </trkpt>
      <trkpt lat="50.710972" lon="7.187348">
      </trkpt>
      <trkpt lat="50.71062" lon="7.188454">
      </trkpt>
      <trkpt lat="50.710268" lon="7.189207">
      </trkpt>
      <trkpt lat="50.710257" lon="7.190376">
      </trkpt>
      <trkpt lat="50.710662" lon="7.191633">
      </trkpt>
      <trkpt lat="50.709214" lon="7.191837">
      </trkpt>
      <trkpt lat="50.70868" lon="7.192123">
      </trkpt>
      <trkpt lat="50.707985" lon="7.192759">
      </trkpt>
      <trkpt lat="50.707435" lon="7.193002">
      </trkpt>
      <trkpt lat="50.706885" lon="7.192813">
      </trkpt>
      <trkpt lat="50.706258" lon="7.192079">
      </trkpt>
      <trkpt lat="50.705188" lon="7.191555">
      </trkpt>
      <trkpt lat="50.704427" lon="7.191409">
      </trkpt>
      <trkpt lat="50.703767" lon="7.191089">
      </trkpt>
      <trkpt lat="50.70313" lon="7.190642">
      </trkpt>
      <trkpt lat="50.702443" lon="7.1903">
      </trkpt>
      <trkpt lat="50.702362" lon="7.191186">
      </trkpt>
      <trkpt lat="50.701968" lon="7.191873">
      </trkpt>
      <trkpt lat="50.701654" lon="7.19107">
      </trkpt>
      <trkpt lat="50.701032" lon="7.191465">
      </trkpt>
      <trkpt lat="50.700371" lon="7.191946">
      </trkpt>
      <trkpt lat="50.699785" lon="7.191876">
      </trkpt>
      <trkpt lat="50.699568" lon="7.192688">
      </trkpt>
      <trkpt lat="50.69926" lon="7.193474">
      </trkpt>
      <trkpt lat="50.698881" lon="7.194511">
      </trkpt>
      <trkpt lat="50.698172" lon="7.195068">
      </trkpt>
      <trkpt lat="50.697744" lon="7.19588">
      </trkpt>
      <trkpt lat="50.697651" lon="7.196852">
      </trkpt>
      <trkpt lat="50.698019" lon="7.197609">
      </trkpt>
      <trkpt lat="50.698394" lon="7.19848">
      </trkpt>
      <trkpt lat="50.698544" lon="7.199346">
      </trkpt>
      <trkpt lat="50.698984" lon="7.200336">
      </trkpt>
      <trkpt lat="50.699035" lon="7.201331">
      </trkpt>
      <trkpt lat="50.699221" lon="7.202946">
      </trkpt>
      <trkpt lat="50.699333" lon="7.203808">
      </trkpt>
      <trkpt lat="50.699702" lon="7.204746">
      </trkpt>
      <trkpt lat="50.699538" lon="7.205781">
      </trkpt>
      <trkpt lat="50.699047" lon="7.206696">
      </trkpt>
      <trkpt lat="50.699354" lon="7.20833">
      </trkpt>
      <trkpt lat="50.699514" lon="7.209234">
      </trkpt>
      <trkpt lat="50.699274" lon="7.210004">
      </trkpt>
      <trkpt lat="50.69789" lon="7.211162">
      </trkpt>
      <trkpt lat="50.696561" lon="7.212444">
      </trkpt>
      <trkpt lat="50.696344" lon="7.211632">
      </trkpt>
      <trkpt lat="50.695916" lon="7.210926">
      </trkpt>
      <trkpt lat="50.69534" lon="7.210048">
      </trkpt>
      <trkpt lat="50.694835" lon="7.208608">
      </trkpt>
      <trkpt lat="50.694549" lon="7.207848">
      </trkpt>
      <trkpt lat="50.693934" lon="7.207196">
      </trkpt>
      <trkpt lat="50.693475" lon="7.208208">
      </trkpt>
      <trkpt lat="50.693236" lon="7.208992">
      </trkpt>
      <trkpt lat="50.692145" lon="7.210767">
      </trkpt>
      <trkpt lat="50.691418" lon="7.211812">
      </trkpt>
      <trkpt lat="50.691069" lon="7.21255">
      </trkpt>
      <trkpt lat="50.690612" lon="7.213951">
      </trkpt>
      <trkpt lat="50.690411" lon="7.214787">
      </trkpt>
      <trkpt lat="50.690671" lon="7.215826">
      </trkpt>
      <trkpt lat="50.690489" lon="7.216666">
      </trkpt>
      <trkpt lat="50.689879" lon="7.21687">
      </trkpt>
      <trkpt lat="50.68944" lon="7.217711">
      </trkpt>
      <trkpt lat="50.689137" lon="7.218663">
      </trkpt>
      <trkpt lat="50.68886" lon="7.219513">
      </trkpt>
      <trkpt lat="50.68876" lon="7.220883">
      </trkpt>
      <trkpt lat="50.688469" lon="7.222018">
      </trkpt>
      <trkpt lat="50.687646" lon="7.224267">
      </trkpt>
      <trkpt lat="50.687165" lon="7.225325">
      </trkpt>
      <trkpt lat="50.687959" lon="7.225789">
      </trkpt>
      <trkpt lat="50.688787" lon="7.225815">
      </trkpt>
      <trkpt lat="50.689746" lon="7.225464">
      </trkpt>
      <trkpt lat="50.690209" lon="7.226">
      </trkpt>
      <trkpt lat="50.690356" lon="7.226963">
      </trkpt>
      <trkpt lat="50.690361" lon="7.227997">
      </trkpt>
      <trkpt lat="50.690958" lon="7.228528">
      </trkpt>
      <trkpt lat="50.691632" lon="7.228621">
      </trkpt>
      <trkpt lat="50.692613" lon="7.227577">
      </trkpt>
      <trkpt lat="50.692958" lon="7.226571">
      </trkpt>
      <trkpt lat="50.693049" lon="7.22534">
      </trkpt>
      <trkpt lat="50.693647" lon="7.225891">
      </trkpt>
      <trkpt lat="50.694081" lon="7.225386">
      </trkpt>
      <trkpt lat="50.694591" lon="7.225813">
      </trkpt>
      <trkpt lat="50.694167" lon="7.224336">
      </trkpt>
      <trkpt lat="50.693886" lon="7.222957">
      </trkpt>
      <trkpt lat="50.694437" lon="7.222367">
      </trkpt>
      <trkpt lat="50.694259" lon="7.223359">
      </trkpt>
      <trkpt lat="50.694994" lon="7.223214">
      </trkpt>
      <trkpt lat="50.694441" lon="7.223571">
      </trkpt>
      <trkpt lat="50.694424" lon="7.22245">
      </trkpt>
      <trkpt lat="50.694777" lon="7.221679">
      </trkpt>
      <trkpt lat="50.695952" lon="7.220486">
      </trkpt>
      <trkpt lat="50.696508" lon="7.221357">
      </trkpt>
      <trkpt lat="50.697147" lon="7.221722">
      </trkpt>
      <trkpt lat="50.697726" lon="7.22258">
      </trkpt>
      <trkpt lat="50.697949" lon="7.223389">
      </trkpt>
      <trkpt lat="50.698669" lon="7.22354">
      </trkpt>
      <trkpt lat="50.699167" lon="7.222824">
      </trkpt>
      <trkpt lat="50.699623" lon="7.222319">
      </trkpt>
      <trkpt lat="50.700206" lon="7.221605">
      </trkpt>
      <trkpt lat="50.700403" lon="7.220508">
      </trkpt>
      <trkpt lat="50.700347" lon="7.219396">
      </trkpt>
      <trkpt lat="50.699738" lon="7.217947">
      </trkpt>
      <trkpt lat="50.699216" lon="7.217003">
      </trkpt>
      <trkpt lat="50.698695" lon="7.216139">
      </trkpt>
      <trkpt lat="50.697783" lon="7.216617">
      </trkpt>
      <trkpt lat="50.696832" lon="7.217105">
      </trkpt>
      <trkpt lat="50.697218" lon="7.21605">
      </trkpt>
      <trkpt lat="50.69753" lon="7.215113">
      </trkpt>
      <trkpt lat="50.697877" lon="7.214176">
      </trkpt>
      <trkpt lat="50.698344" lon="7.213282">
      </trkpt>
      <trkpt lat="50.700051" lon="7.212451">
      </trkpt>
      <trkpt lat="50.701299" lon="7.211841">
      </trkpt>
      <trkpt lat="50.701872" lon="7.211525">
      </trkpt>
      <trkpt lat="50.70297" lon="7.211445">
      </trkpt>
      <trkpt lat="50.703668" lon="7.210801">
      </trkpt>
      <trkpt lat="50.704281" lon="7.210002">
      </trkpt>
      <trkpt lat="50.704333" lon="7.208423">
      </trkpt>
      <trkpt lat="50.704391" lon="7.2073">
      </trkpt>
      <trkpt lat="50.704577" lon="7.206258">
      </trkpt>
      <trkpt lat="50.705241" lon="7.205345">
      </trkpt>
      <trkpt lat="50.706037" lon="7.204585">
      </trkpt>
      <trkpt lat="50.706755" lon="7.204196">
      </trkpt>
      <trkpt lat="50.707362" lon="7.203794">
      </trkpt>
      <trkpt lat="50.707761" lon="7.203118">
      </trkpt>
      <trkpt lat="50.708394" lon="7.202053">
      </trkpt>
      <trkpt lat="50.7092" lon="7.202836">
      </trkpt>
      <trkpt lat="50.710406" lon="7.202233">
      </trkpt>
      <trkpt lat="50.710972" lon="7.201598">
      </trkpt>
      <trkpt lat="50.711398" lon="7.201042">
      </trkpt>
      <trkpt lat="50.711513" lon="7.199998">
      </trkpt>
      <trkpt lat="50.711988" lon="7.199241">
      </trkpt>
      <trkpt lat="50.712306" lon="7.198467">
      </trkpt>
      <trkpt lat="50.712797" lon="7.197467">
      </trkpt>
      <trkpt lat="50.71312" lon="7.196643">
      </trkpt>
      <trkpt lat="50.713181" lon="7.195751">
      </trkpt>
      <trkpt lat="50.713515" lon="7.194997">
      </trkpt>
      <trkpt lat="50.71428" lon="7.193234">
      </trkpt>
      <trkpt lat="50.714738" lon="7.191856">
      </trkpt>
      <trkpt lat="50.715116" lon="7.191039">
      </trkpt>
      <trkpt lat="50.71571" lon="7.189627">
      </trkpt>
      <trkpt lat="50.716218" lon="7.188981">
      </trkpt>
      <trkpt lat="50.716739" lon="7.188314">
      </trkpt>
      <trkpt lat="50.717175" lon="7.187167">
      </trkpt>
      <trkpt lat="50.717434" lon="7.185815">
      </trkpt>
      <trkpt lat="50.717589" lon="7.184317">
      </trkpt>
      <trkpt lat="50.717564" lon="7.183326">
      </trkpt>
      <trkpt lat="50.717889" lon="7.181516">
      </trkpt>
      <trkpt lat="50.718238" lon="7.179821">
      </trkpt>
      <trkpt lat="50.718725" lon="7.178191">
      </trkpt>
      <trkpt lat="50.719151" lon="7.177228">
      </trkpt>
      <trkpt lat="50.719448" lon="7.176506">
      </trkpt>
      <trkpt lat="50.720058" lon="7.17521">
      </trkpt>
      <trkpt lat="50.720533" lon="7.174133">
      </trkpt>
      <trkpt lat="50.720818" lon="7.173319">
      </trkpt>
      <trkpt lat="50.72152" lon="7.17416">
      </trkpt>
      <trkpt lat="50.72177" lon="7.175715">
      </trkpt>
      <trkpt lat="50.724869" lon="7.173862">
      </trkpt>
      <trkpt lat="50.725707" lon="7.174026">
      </trkpt>
      <trkpt lat="50.726432" lon="7.17428">
      </trkpt>
      <trkpt lat="50.726928" lon="7.175056">
      </trkpt>
      <trkpt lat="50.727602" lon="7.175835">
      </trkpt>
      <trkpt lat="50.72887" lon="7.176351">
      </trkpt>
      <trkpt lat="50.729613" lon="7.176328">
      </trkpt>
      <trkpt lat="50.730526" lon="7.176692">
      </trkpt>
      <trkpt lat="50.730666" lon="7.177556">
      </trkpt>
      <trkpt lat="50.730922" lon="7.179223">
      </trkpt>
      <trkpt lat="50.731673" lon="7.178279">
      </trkpt>
      <trkpt lat="50.732083" lon="7.177592">
      </trkpt>
      <trkpt lat="50.732666" lon="7.176679">
      </trkpt>
      <trkpt lat="50.733506" lon="7.176258">
      </trkpt>
      <trkpt lat="50.73431" lon="7.175682">
      </trkpt>
      <trkpt lat="50.73484" lon="7.176187">
      </trkpt>
      <trkpt lat="50.735383" lon="7.176832">
      </trkpt>
      <trkpt lat="50.735948" lon="7.176322">
      </trkpt>
      <trkpt lat="50.736421" lon="7.176878">
      </trkpt>
      <trkpt lat="50.737135" lon="7.17763">
      </trkpt>
      <trkpt lat="50.737656" lon="7.178207">
      </trkpt>
      <trkpt lat="50.738458" lon="7.177875">
      </trkpt>
      <trkpt lat="50.738986" lon="7.177592">
      </trkpt>
      <trkpt lat="50.739852" lon="7.17382">
      </trkpt>
      <trkpt lat="50.740087" lon="7.172843">
      </trkpt>
      <trkpt lat="50.74034" lon="7.17195">
      </trkpt>
      <trkpt lat="50.740423" lon="7.171033">
      </trkpt>
      <trkpt lat="50.740018" lon="7.169909">
      </trkpt>
      <trkpt lat="50.739354" lon="7.169566">
      </trkpt>
      <trkpt lat="50.738557" lon="7.169547">
      </trkpt>
      <trkpt lat="50.737936" lon="7.169341">
      </trkpt>
      <trkpt lat="50.737759" lon="7.168221">
      </trkpt>
      <trkpt lat="50.737492" lon="7.167245">
      </trkpt>
      <trkpt lat="50.73771" lon="7.166461">
      </trkpt>
      <trkpt lat="50.738383" lon="7.161561">
      </trkpt>
      <trkpt lat="50.738542" lon="7.160182">
      </trkpt>
      <trkpt lat="50.73863" lon="7.156876">
      </trkpt>
      <trkpt lat="50.738849" lon="7.155536">
      </trkpt>
      <trkpt lat="50.73927" lon="7.154489">
      </trkpt>
      <trkpt lat="50.739839" lon="7.153667">
      </trkpt>
      <trkpt lat="50.740594" lon="7.152627">
      </trkpt>
      <trkpt lat="50.741096" lon="7.151775">
      </trkpt>
      <trkpt lat="50.741723" lon="7.150383">
      </trkpt>
      <trkpt lat="50.742175" lon="7.149411">
      </trkpt>
      <trkpt lat="50.742511" lon="7.148526">
      </trkpt>
      <trkpt lat="50.742601" lon="7.14743">
      </trkpt>
      <trkpt lat="50.742576" lon="7.146341">
      </trkpt>
      <trkpt lat="50.742543" lon="7.144578">
      </trkpt>
      <trkpt lat="50.742515" lon="7.143214">
      </trkpt>
      <trkpt lat="50.742485" lon="7.141891">
      </trkpt>
      <trkpt lat="50.742465" lon="7.1409">
      </trkpt>
      <trkpt lat="50.742445" lon="7.139746">
      </trkpt>
      <trkpt lat="50.742421" lon="7.138863">
      </trkpt>
      <trkpt lat="50.742392" lon="7.137458">
      </trkpt>
      <trkpt lat="50.742375" lon="7.136274">
      </trkpt>
      <trkpt lat="50.742365" lon="7.135196">
      </trkpt>
      <trkpt lat="50.742323" lon="7.134195">
      </trkpt>
      <trkpt lat="50.741889" lon="7.133321">
      </trkpt>
      <trkpt lat="50.741213" lon="7.132022">
      </trkpt>
      <trkpt lat="50.740936" lon="7.131022">
      </trkpt>
      <trkpt lat="50.740745" lon="7.130059">
      </trkpt>
      <trkpt lat="50.740439" lon="7.128577">
      </trkpt>
      <trkpt lat="50.740245" lon="7.12761">
      </trkpt>
      <trkpt lat="50.740043" lon="7.126518">
      </trkpt>
      <trkpt lat="50.739857" lon="7.124539">
      </trkpt>
      <trkpt lat="50.739806" lon="7.123584">
      </trkpt>
      <trkpt lat="50.739306" lon="7.122337">
      </trkpt>
      <trkpt lat="50.738824" lon="7.121005">
      </trkpt>
      <trkpt lat="50.738242" lon="7.11918">
      </trkpt>
      <trkpt lat="50.738198" lon="7.118107">
      </trkpt>
      <trkpt lat="50.738653" lon="7.117344">
      </trkpt>
      <trkpt lat="50.738415" lon="7.116284">
      </trkpt>
      <trkpt lat="50.738864" lon="7.115763">
      </trkpt>
      <trkpt lat="50.738756" lon="7.114711">
      </trkpt>
      <trkpt lat="50.738574" lon="7.11341">
      </trkpt>
      <trkpt lat="50.738118" lon="7.110063">
      </trkpt>
      <trkpt lat="50.73765" lon="7.106707">
      </trkpt>
      <trkpt lat="50.737447" lon="7.105809">
      </trkpt>
      <trkpt lat="50.736871" lon="7.10584">
      </trkpt>
      <trkpt lat="50.736138" lon="7.106072">
      </trkpt>
      <trkpt lat="50.735778" lon="7.105198">
      </trkpt>
      <trkpt lat="50.73552" lon="7.104395">
      </trkpt>
      <trkpt lat="50.734998" lon="7.104011">
      </trkpt>
      <trkpt lat="50.73444" lon="7.104193">
      </trkpt>
    </trkseg>
  </trk>
</gpx>