<?xml version="1.0" encoding="UTF-8"?>
<gpx xmlns="http://www.topografix.com/GPX/1/1" xmlns:xsi="http://www.w3.org/2001/XMLSchema-instance" xsi:schemaLocation="http://www.topografix.com/GPX/1/1 http://www.topografix.com/GPX/1/1/gpx.xsd" version="1.1" creator="gpx.py -- https://github.com/tkrajina/gpxpy">
  <metadata>
    <name>035</name>
  </metadata>
  <trk>
    <name>035</name>
    <trkseg>
      <trkpt lat="50.733926" lon="7.104399">
      </trkpt>
      <trkpt lat="50.733521" lon="7.105465">
      </trkpt>
      <trkpt lat="50.733015" lon="7.106478">
      </trkpt>
      <trkpt lat="50.732198" lon="7.106972">
      </trkpt>
      <trkpt lat="50.731523" lon="7.107415">
      </trkpt>
      <trkpt lat="50.731014" lon="7.107749">
      </trkpt>
      <trkpt lat="50.730468" lon="7.108127">
      </trkpt>
      <trkpt lat="50.729918" lon="7.108518">
      </trkpt>
      <trkpt lat="50.729267" lon="7.108942">
      </trkpt>
      <trkpt lat="50.728362" lon="7.109568">
      </trkpt>
      <trkpt lat="50.728719" lon="7.110951">
      </trkpt>
      <trkpt lat="50.728397" lon="7.111688">
      </trkpt>
      <trkpt lat="50.727889" lon="7.112297">
      </trkpt>
      <trkpt lat="50.727075" lon="7.113114">
      </trkpt>
      <trkpt lat="50.725852" lon="7.114551">
      </trkpt>
      <trkpt lat="50.725152" lon="7.115492">
      </trkpt>
      <trkpt lat="50.724103" lon="7.117062">
      </trkpt>
      <trkpt lat="50.722446" lon="7.119719">
      </trkpt>
      <trkpt lat="50.721702" lon="7.121041">
      </trkpt>
      <trkpt lat="50.720912" lon="7.12284">
      </trkpt>
      <trkpt lat="50.720328" lon="7.124354">
      </trkpt>
      <trkpt lat="50.719859" lon="7.125743">
      </trkpt>
      <trkpt lat="50.719587" lon="7.126695">
      </trkpt>
      <trkpt lat="50.719158" lon="7.128439">
      </trkpt>
      <trkpt lat="50.718938" lon="7.129399">
      </trkpt>
      <trkpt lat="50.718676" lon="7.130738">
      </trkpt>
      <trkpt lat="50.718401" lon="7.132125">
      </trkpt>
      <trkpt lat="50.718168" lon="7.133254">
      </trkpt>
      <trkpt lat="50.717937" lon="7.134393">
      </trkpt>
      <trkpt lat="50.717621" lon="7.135722">
      </trkpt>
      <trkpt lat="50.717318" lon="7.13643">
      </trkpt>
      <trkpt lat="50.716912" lon="7.137357">
      </trkpt>
      <trkpt lat="50.716524" lon="7.138345">
      </trkpt>
      <trkpt lat="50.716277" lon="7.13954">
      </trkpt>
      <trkpt lat="50.715691" lon="7.139551">
      </trkpt>
      <trkpt lat="50.715137" lon="7.139341">
      </trkpt>
      <trkpt lat="50.714549" lon="7.138875">
      </trkpt>
      <trkpt lat="50.714145" lon="7.138192">
      </trkpt>
      <trkpt lat="50.713506" lon="7.138626">
      </trkpt>
      <trkpt lat="50.712946" lon="7.139039">
      </trkpt>
      <trkpt lat="50.712712" lon="7.139945">
      </trkpt>
      <trkpt lat="50.712385" lon="7.140622">
      </trkpt>
      <trkpt lat="50.711725" lon="7.140416">
      </trkpt>
      <trkpt lat="50.711306" lon="7.139813">
      </trkpt>
      <trkpt lat="50.710762" lon="7.139674">
      </trkpt>
      <trkpt lat="50.710028" lon="7.139005">
      </trkpt>
      <trkpt lat="50.709554" lon="7.138152">
      </trkpt>
      <trkpt lat="50.708976" lon="7.13746">
      </trkpt>
      <trkpt lat="50.70831" lon="7.136504">
      </trkpt>
      <trkpt lat="50.707742" lon="7.135937">
      </trkpt>
      <trkpt lat="50.70729" lon="7.13523">
      </trkpt>
      <trkpt lat="50.706716" lon="7.134708">
      </trkpt>
      <trkpt lat="50.706163" lon="7.133935">
      </trkpt>
      <trkpt lat="50.70566" lon="7.133236">
      </trkpt>
      <trkpt lat="50.705308" lon="7.13254">
      </trkpt>
      <trkpt lat="50.704713" lon="7.13244">
      </trkpt>
      <trkpt lat="50.704113" lon="7.131476">
      </trkpt>
      <trkpt lat="50.703416" lon="7.130243">
      </trkpt>
      <trkpt lat="50.702571" lon="7.130851">
      </trkpt>
      <trkpt lat="50.701775" lon="7.131919">
      </trkpt>
      <trkpt lat="50.701351" lon="7.130867">
      </trkpt>
      <trkpt lat="50.700894" lon="7.130412">
      </trkpt>
      <trkpt lat="50.700452" lon="7.131074">
      </trkpt>
      <trkpt lat="50.69983" lon="7.13178">
      </trkpt>
      <trkpt lat="50.699376" lon="7.132458">
      </trkpt>
      <trkpt lat="50.699043" lon="7.13141">
      </trkpt>
      <trkpt lat="50.69828" lon="7.13209">
      </trkpt>
      <trkpt lat="50.697235" lon="7.133084">
      </trkpt>
      <trkpt lat="50.696387" lon="7.13326">
      </trkpt>
      <trkpt lat="50.695806" lon="7.133305">
      </trkpt>
      <trkpt lat="50.695211" lon="7.133316">
      </trkpt>
      <trkpt lat="50.694552" lon="7.13369">
      </trkpt>
      <trkpt lat="50.693638" lon="7.133066">
      </trkpt>
      <trkpt lat="50.692886" lon="7.132135">
      </trkpt>
      <trkpt lat="50.692095" lon="7.131173">
      </trkpt>
      <trkpt lat="50.691359" lon="7.130952">
      </trkpt>
      <trkpt lat="50.690846" lon="7.130509">
      </trkpt>
      <trkpt lat="50.690067" lon="7.130033">
      </trkpt>
      <trkpt lat="50.689424" lon="7.129634">
      </trkpt>
      <trkpt lat="50.688608" lon="7.12924">
      </trkpt>
      <trkpt lat="50.687968" lon="7.128535">
      </trkpt>
      <trkpt lat="50.687124" lon="7.127561">
      </trkpt>
      <trkpt lat="50.687469" lon="7.126868">
      </trkpt>
      <trkpt lat="50.688289" lon="7.12658">
      </trkpt>
      <trkpt lat="50.688925" lon="7.126541">
      </trkpt>
      <trkpt lat="50.688305" lon="7.12557">
      </trkpt>
      <trkpt lat="50.687864" lon="7.124835">
      </trkpt>
      <trkpt lat="50.687455" lon="7.12425">
      </trkpt>
      <trkpt lat="50.686577" lon="7.123253">
      </trkpt>
      <trkpt lat="50.685449" lon="7.121326">
      </trkpt>
      <trkpt lat="50.684697" lon="7.120471">
      </trkpt>
      <trkpt lat="50.682707" lon="7.119232">
      </trkpt>
      <trkpt lat="50.681978" lon="7.118711">
      </trkpt>
      <trkpt lat="50.680126" lon="7.118024">
      </trkpt>
      <trkpt lat="50.677588" lon="7.117091">
      </trkpt>
      <trkpt lat="50.676525" lon="7.116115">
      </trkpt>
      <trkpt lat="50.675675" lon="7.115487">
      </trkpt>
      <trkpt lat="50.674106" lon="7.115095">
      </trkpt>
      <trkpt lat="50.673491" lon="7.114942">
      </trkpt>
      <trkpt lat="50.670997" lon="7.116083">
      </trkpt>
      <trkpt lat="50.670281" lon="7.116675">
      </trkpt>
      <trkpt lat="50.66713" lon="7.120924">
      </trkpt>
      <trkpt lat="50.666203" lon="7.122138">
      </trkpt>
      <trkpt lat="50.664924" lon="7.120157">
      </trkpt>
      <trkpt lat="50.663103" lon="7.116852">
      </trkpt>
      <trkpt lat="50.66226" lon="7.11647">
      </trkpt>
      <trkpt lat="50.661663" lon="7.116113">
      </trkpt>
      <trkpt lat="50.660834" lon="7.114322">
      </trkpt>
      <trkpt lat="50.660277" lon="7.113464">
      </trkpt>
      <trkpt lat="50.659461" lon="7.111593">
      </trkpt>
      <trkpt lat="50.659582" lon="7.109951">
      </trkpt>
      <trkpt lat="50.659714" lon="7.108712">
      </trkpt>
      <trkpt lat="50.659755" lon="7.107544">
      </trkpt>
      <trkpt lat="50.659721" lon="7.10588">
      </trkpt>
      <trkpt lat="50.659253" lon="7.104985">
      </trkpt>
      <trkpt lat="50.658016" lon="7.104107">
      </trkpt>
      <trkpt lat="50.657038" lon="7.101978">
      </trkpt>
      <trkpt lat="50.656731" lon="7.101079">
      </trkpt>
      <trkpt lat="50.656221" lon="7.100073">
      </trkpt>
      <trkpt lat="50.655802" lon="7.09946">
      </trkpt>
      <trkpt lat="50.65505" lon="7.098402">
      </trkpt>
      <trkpt lat="50.653849" lon="7.097429">
      </trkpt>
      <trkpt lat="50.653033" lon="7.09647">
      </trkpt>
      <trkpt lat="50.652512" lon="7.095806">
      </trkpt>
      <trkpt lat="50.65163" lon="7.094382">
      </trkpt>
      <trkpt lat="50.651389" lon="7.093374">
      </trkpt>
      <trkpt lat="50.650896" lon="7.09215">
      </trkpt>
      <trkpt lat="50.650595" lon="7.091268">
      </trkpt>
      <trkpt lat="50.649662" lon="7.089308">
      </trkpt>
      <trkpt lat="50.649078" lon="7.08815">
      </trkpt>
      <trkpt lat="50.648825" lon="7.087077">
      </trkpt>
      <trkpt lat="50.648241" lon="7.087094">
      </trkpt>
      <trkpt lat="50.647217" lon="7.08854">
      </trkpt>
      <trkpt lat="50.645714" lon="7.086149">
      </trkpt>
      <trkpt lat="50.644852" lon="7.085217">
      </trkpt>
      <trkpt lat="50.644293" lon="7.086504">
      </trkpt>
      <trkpt lat="50.643984" lon="7.087264">
      </trkpt>
      <trkpt lat="50.643627" lon="7.08825">
      </trkpt>
      <trkpt lat="50.643164" lon="7.087483">
      </trkpt>
      <trkpt lat="50.642719" lon="7.086774">
      </trkpt>
      <trkpt lat="50.642043" lon="7.08571">
      </trkpt>
      <trkpt lat="50.641301" lon="7.085956">
      </trkpt>
      <trkpt lat="50.63991" lon="7.086464">
      </trkpt>
      <trkpt lat="50.63893" lon="7.086788">
      </trkpt>
      <trkpt lat="50.637694" lon="7.087192">
      </trkpt>
      <trkpt lat="50.636083" lon="7.086898">
      </trkpt>
      <trkpt lat="50.635407" lon="7.087419">
      </trkpt>
      <trkpt lat="50.634812" lon="7.087784">
      </trkpt>
      <trkpt lat="50.634267" lon="7.088277">
      </trkpt>
      <trkpt lat="50.633784" lon="7.089447">
      </trkpt>
      <trkpt lat="50.633195" lon="7.089706">
      </trkpt>
      <trkpt lat="50.632476" lon="7.089041">
      </trkpt>
      <trkpt lat="50.631834" lon="7.087519">
      </trkpt>
      <trkpt lat="50.631521" lon="7.086729">
      </trkpt>
      <trkpt lat="50.631023" lon="7.084841">
      </trkpt>
      <trkpt lat="50.629968" lon="7.082783">
      </trkpt>
      <trkpt lat="50.629421" lon="7.082326">
      </trkpt>
      <trkpt lat="50.62939" lon="7.080483">
      </trkpt>
      <trkpt lat="50.629847" lon="7.0799">
      </trkpt>
      <trkpt lat="50.629479" lon="7.079127">
      </trkpt>
      <trkpt lat="50.629092" lon="7.078474">
      </trkpt>
      <trkpt lat="50.628822" lon="7.07757">
      </trkpt>
      <trkpt lat="50.628101" lon="7.075329">
      </trkpt>
      <trkpt lat="50.627317" lon="7.073317">
      </trkpt>
      <trkpt lat="50.626918" lon="7.072356">
      </trkpt>
      <trkpt lat="50.626964" lon="7.071297">
      </trkpt>
      <trkpt lat="50.626955" lon="7.070033">
      </trkpt>
      <trkpt lat="50.627117" lon="7.069002">
      </trkpt>
      <trkpt lat="50.627841" lon="7.066689">
      </trkpt>
      <trkpt lat="50.625502" lon="7.065463">
      </trkpt>
      <trkpt lat="50.624791" lon="7.064881">
      </trkpt>
      <trkpt lat="50.624068" lon="7.064215">
      </trkpt>
      <trkpt lat="50.621187" lon="7.061769">
      </trkpt>
      <trkpt lat="50.620483" lon="7.061153">
      </trkpt>
      <trkpt lat="50.619454" lon="7.061141">
      </trkpt>
      <trkpt lat="50.617172" lon="7.061815">
      </trkpt>
      <trkpt lat="50.616317" lon="7.060699">
      </trkpt>
      <trkpt lat="50.616354" lon="7.05961">
      </trkpt>
      <trkpt lat="50.61651" lon="7.056711">
      </trkpt>
      <trkpt lat="50.616695" lon="7.055412">
      </trkpt>
      <trkpt lat="50.616385" lon="7.054294">
      </trkpt>
      <trkpt lat="50.615788" lon="7.052847">
      </trkpt>
      <trkpt lat="50.615577" lon="7.052057">
      </trkpt>
      <trkpt lat="50.61534" lon="7.050683">
      </trkpt>
      <trkpt lat="50.614912" lon="7.04996">
      </trkpt>
      <trkpt lat="50.614489" lon="7.049396">
      </trkpt>
      <trkpt lat="50.61391" lon="7.048601">
      </trkpt>
      <trkpt lat="50.6125" lon="7.047693">
      </trkpt>
      <trkpt lat="50.612269" lon="7.046815">
      </trkpt>
      <trkpt lat="50.61261" lon="7.044107">
      </trkpt>
      <trkpt lat="50.612058" lon="7.043644">
      </trkpt>
      <trkpt lat="50.611819" lon="7.042848">
      </trkpt>
      <trkpt lat="50.611906" lon="7.041495">
      </trkpt>
      <trkpt lat="50.612175" lon="7.040711">
      </trkpt>
      <trkpt lat="50.612478" lon="7.039834">
      </trkpt>
      <trkpt lat="50.612836" lon="7.03917">
      </trkpt>
      <trkpt lat="50.612528" lon="7.038359">
      </trkpt>
      <trkpt lat="50.612936" lon="7.037552">
      </trkpt>
      <trkpt lat="50.613092" lon="7.036656">
      </trkpt>
      <trkpt lat="50.613148" lon="7.035598">
      </trkpt>
      <trkpt lat="50.613738" lon="7.034721">
      </trkpt>
      <trkpt lat="50.614282" lon="7.034036">
      </trkpt>
      <trkpt lat="50.614706" lon="7.033503">
      </trkpt>
      <trkpt lat="50.615125" lon="7.032913">
      </trkpt>
      <trkpt lat="50.615532" lon="7.032294">
      </trkpt>
      <trkpt lat="50.616093" lon="7.031754">
      </trkpt>
      <trkpt lat="50.616889" lon="7.030609">
      </trkpt>
      <trkpt lat="50.617337" lon="7.029771">
      </trkpt>
      <trkpt lat="50.617855" lon="7.029165">
      </trkpt>
      <trkpt lat="50.618177" lon="7.028437">
      </trkpt>
      <trkpt lat="50.618688" lon="7.028014">
      </trkpt>
      <trkpt lat="50.619367" lon="7.027964">
      </trkpt>
      <trkpt lat="50.619913" lon="7.027173">
      </trkpt>
      <trkpt lat="50.620517" lon="7.026571">
      </trkpt>
      <trkpt lat="50.620663" lon="7.025727">
      </trkpt>
      <trkpt lat="50.621394" lon="7.025194">
      </trkpt>
      <trkpt lat="50.621969" lon="7.025389">
      </trkpt>
      <trkpt lat="50.622815" lon="7.02555">
      </trkpt>
      <trkpt lat="50.623467" lon="7.025376">
      </trkpt>
      <trkpt lat="50.624695" lon="7.024668">
      </trkpt>
      <trkpt lat="50.625339" lon="7.024814">
      </trkpt>
      <trkpt lat="50.625971" lon="7.024913">
      </trkpt>
      <trkpt lat="50.626463" lon="7.024462">
      </trkpt>
      <trkpt lat="50.627002" lon="7.023802">
      </trkpt>
      <trkpt lat="50.627521" lon="7.023103">
      </trkpt>
      <trkpt lat="50.628171" lon="7.022727">
      </trkpt>
      <trkpt lat="50.628665" lon="7.023155">
      </trkpt>
      <trkpt lat="50.630521" lon="7.025476">
      </trkpt>
      <trkpt lat="50.631259" lon="7.024821">
      </trkpt>
      <trkpt lat="50.631748" lon="7.024079">
      </trkpt>
      <trkpt lat="50.632336" lon="7.024516">
      </trkpt>
      <trkpt lat="50.632574" lon="7.02329">
      </trkpt>
      <trkpt lat="50.633371" lon="7.023557">
      </trkpt>
      <trkpt lat="50.637228" lon="7.025089">
      </trkpt>
      <trkpt lat="50.637069" lon="7.026022">
      </trkpt>
      <trkpt lat="50.639186" lon="7.028707">
      </trkpt>
      <trkpt lat="50.639625" lon="7.029204">
      </trkpt>
      <trkpt lat="50.640275" lon="7.029587">
      </trkpt>
      <trkpt lat="50.640847" lon="7.030143">
      </trkpt>
      <trkpt lat="50.641791" lon="7.030681">
      </trkpt>
      <trkpt lat="50.642296" lon="7.031012">
      </trkpt>
      <trkpt lat="50.642535" lon="7.029848">
      </trkpt>
      <trkpt lat="50.645582" lon="7.031448">
      </trkpt>
      <trkpt lat="50.646958" lon="7.031454">
      </trkpt>
      <trkpt lat="50.647504" lon="7.031542">
      </trkpt>
      <trkpt lat="50.648683" lon="7.032183">
      </trkpt>
      <trkpt lat="50.649712" lon="7.032232">
      </trkpt>
      <trkpt lat="50.650295" lon="7.032319">
      </trkpt>
      <trkpt lat="50.650667" lon="7.033652">
      </trkpt>
      <trkpt lat="50.650854" lon="7.035237">
      </trkpt>
      <trkpt lat="50.652793" lon="7.037439">
      </trkpt>
      <trkpt lat="50.655635" lon="7.040349">
      </trkpt>
      <trkpt lat="50.658338" lon="7.043183">
      </trkpt>
      <trkpt lat="50.66227" lon="7.045047">
      </trkpt>
      <trkpt lat="50.666201" lon="7.046805">
      </trkpt>
      <trkpt lat="50.669035" lon="7.047966">
      </trkpt>
      <trkpt lat="50.671684" lon="7.049126">
      </trkpt>
      <trkpt lat="50.673944" lon="7.056282">
      </trkpt>
      <trkpt lat="50.674704" lon="7.058802">
      </trkpt>
      <trkpt lat="50.67557" lon="7.06165">
      </trkpt>
      <trkpt lat="50.6761" lon="7.06341">
      </trkpt>
      <trkpt lat="50.676869" lon="7.065987">
      </trkpt>
      <trkpt lat="50.677395" lon="7.067655">
      </trkpt>
      <trkpt lat="50.677653" lon="7.068509">
      </trkpt>
      <trkpt lat="50.678417" lon="7.068498">
      </trkpt>
      <trkpt lat="50.679059" lon="7.068487">
      </trkpt>
      <trkpt lat="50.679999" lon="7.068292">
      </trkpt>
      <trkpt lat="50.680865" lon="7.068192">
      </trkpt>
      <trkpt lat="50.681619" lon="7.068097">
      </trkpt>
      <trkpt lat="50.682391" lon="7.068096">
      </trkpt>
      <trkpt lat="50.682958" lon="7.068164">
      </trkpt>
      <trkpt lat="50.683494" lon="7.068288">
      </trkpt>
      <trkpt lat="50.684314" lon="7.068505">
      </trkpt>
      <trkpt lat="50.685015" lon="7.068202">
      </trkpt>
      <trkpt lat="50.685735" lon="7.068363">
      </trkpt>
      <trkpt lat="50.686428" lon="7.068715">
      </trkpt>
      <trkpt lat="50.687205" lon="7.068315">
      </trkpt>
      <trkpt lat="50.687845" lon="7.068277">
      </trkpt>
      <trkpt lat="50.688563" lon="7.068199">
      </trkpt>
      <trkpt lat="50.689278" lon="7.068108">
      </trkpt>
      <trkpt lat="50.689814" lon="7.067987">
      </trkpt>
      <trkpt lat="50.690447" lon="7.068471">
      </trkpt>
      <trkpt lat="50.690966" lon="7.069074">
      </trkpt>
      <trkpt lat="50.691637" lon="7.069438">
      </trkpt>
      <trkpt lat="50.69266" lon="7.068991">
      </trkpt>
      <trkpt lat="50.693292" lon="7.069164">
      </trkpt>
      <trkpt lat="50.693555" lon="7.070346">
      </trkpt>
      <trkpt lat="50.694611" lon="7.071131">
      </trkpt>
      <trkpt lat="50.695239" lon="7.07111">
      </trkpt>
      <trkpt lat="50.695894" lon="7.071076">
      </trkpt>
      <trkpt lat="50.696576" lon="7.070815">
      </trkpt>
      <trkpt lat="50.698075" lon="7.071652">
      </trkpt>
      <trkpt lat="50.699399" lon="7.071954">
      </trkpt>
      <trkpt lat="50.69959" lon="7.072753">
      </trkpt>
      <trkpt lat="50.700614" lon="7.073166">
      </trkpt>
      <trkpt lat="50.701097" lon="7.074206">
      </trkpt>
      <trkpt lat="50.701512" lon="7.074823">
      </trkpt>
      <trkpt lat="50.70216" lon="7.075097">
      </trkpt>
      <trkpt lat="50.702794" lon="7.075952">
      </trkpt>
      <trkpt lat="50.703175" lon="7.076629">
      </trkpt>
      <trkpt lat="50.704085" lon="7.078127">
      </trkpt>
      <trkpt lat="50.704626" lon="7.078885">
      </trkpt>
      <trkpt lat="50.705126" lon="7.079611">
      </trkpt>
      <trkpt lat="50.705532" lon="7.080241">
      </trkpt>
      <trkpt lat="50.706163" lon="7.081124">
      </trkpt>
      <trkpt lat="50.706691" lon="7.081349">
      </trkpt>
      <trkpt lat="50.707251" lon="7.081537">
      </trkpt>
      <trkpt lat="50.707817" lon="7.081233">
      </trkpt>
      <trkpt lat="50.708612" lon="7.080856">
      </trkpt>
      <trkpt lat="50.709691" lon="7.080292">
      </trkpt>
      <trkpt lat="50.710449" lon="7.080212">
      </trkpt>
      <trkpt lat="50.71114" lon="7.080146">
      </trkpt>
      <trkpt lat="50.711694" lon="7.08001">
      </trkpt>
      <trkpt lat="50.71243" lon="7.079866">
      </trkpt>
      <trkpt lat="50.712733" lon="7.081116">
      </trkpt>
      <trkpt lat="50.713759" lon="7.080909">
      </trkpt>
      <trkpt lat="50.714377" lon="7.080855">
      </trkpt>
      <trkpt lat="50.714925" lon="7.081321">
      </trkpt>
      <trkpt lat="50.715546" lon="7.081811">
      </trkpt>
      <trkpt lat="50.716088" lon="7.08227">
      </trkpt>
      <trkpt lat="50.716809" lon="7.082607">
      </trkpt>
      <trkpt lat="50.717262" lon="7.08332">
      </trkpt>
      <trkpt lat="50.71775" lon="7.083743">
      </trkpt>
      <trkpt lat="50.718727" lon="7.083898">
      </trkpt>
      <trkpt lat="50.719367" lon="7.08426">
      </trkpt>
      <trkpt lat="50.719812" lon="7.085314">
      </trkpt>
      <trkpt lat="50.720404" lon="7.086522">
      </trkpt>
      <trkpt lat="50.720569" lon="7.087345">
      </trkpt>
      <trkpt lat="50.721189" lon="7.087774">
      </trkpt>
      <trkpt lat="50.72197" lon="7.088311">
      </trkpt>
      <trkpt lat="50.722603" lon="7.08873">
      </trkpt>
      <trkpt lat="50.723345" lon="7.089266">
      </trkpt>
      <trkpt lat="50.724137" lon="7.089851">
      </trkpt>
      <trkpt lat="50.724612" lon="7.090332">
      </trkpt>
      <trkpt lat="50.725137" lon="7.090956">
      </trkpt>
      <trkpt lat="50.725619" lon="7.091559">
      </trkpt>
      <trkpt lat="50.726209" lon="7.092264">
      </trkpt>
      <trkpt lat="50.726468" lon="7.093178">
      </trkpt>
      <trkpt lat="50.726406" lon="7.094121">
      </trkpt>
      <trkpt lat="50.727381" lon="7.095372">
      </trkpt>
      <trkpt lat="50.727956" lon="7.096109">
      </trkpt>
      <trkpt lat="50.728454" lon="7.096756">
      </trkpt>
      <trkpt lat="50.729151" lon="7.09764">
      </trkpt>
      <trkpt lat="50.730551" lon="7.099416">
      </trkpt>
    </trkseg>
  </trk>
</gpx>