<?xml version="1.0" encoding="UTF-8"?>
<gpx xmlns="http://www.topografix.com/GPX/1/1" xmlns:xsi="http://www.w3.org/2001/XMLSchema-instance" xsi:schemaLocation="http://www.topografix.com/GPX/1/1 http://www.topografix.com/GPX/1/1/gpx.xsd" version="1.1" creator="gpx.py -- https://github.com/tkrajina/gpxpy">
  <metadata>
    <name>036</name>
  </metadata>
  <trk>
    <name>036</name>
    <trkseg>
      <trkpt lat="50.734029" lon="7.104186">
      </trkpt>
      <trkpt lat="50.733384" lon="7.10342">
      </trkpt>
      <trkpt lat="50.732927" lon="7.102831">
      </trkpt>
      <trkpt lat="50.732394" lon="7.102167">
      </trkpt>
      <trkpt lat="50.731828" lon="7.101104">
      </trkpt>
      <trkpt lat="50.731759" lon="7.100157">
      </trkpt>
      <trkpt lat="50.731871" lon="7.098896">
      </trkpt>
      <trkpt lat="50.731528" lon="7.099675">
      </trkpt>
      <trkpt lat="50.731128" lon="7.098938">
      </trkpt>
      <trkpt lat="50.729749" lon="7.097762">
      </trkpt>
      <trkpt lat="50.7282" lon="7.095811">
      </trkpt>
      <trkpt lat="50.727562" lon="7.095">
      </trkpt>
      <trkpt lat="50.727031" lon="7.094314">
      </trkpt>
      <trkpt lat="50.72652" lon="7.093734">
      </trkpt>
      <trkpt lat="50.726503" lon="7.092808">
      </trkpt>
      <trkpt lat="50.725873" lon="7.091868">
      </trkpt>
      <trkpt lat="50.725137" lon="7.090956">
      </trkpt>
      <trkpt lat="50.724683" lon="7.090389">
      </trkpt>
      <trkpt lat="50.724217" lon="7.089909">
      </trkpt>
      <trkpt lat="50.723345" lon="7.089266">
      </trkpt>
      <trkpt lat="50.722603" lon="7.08873">
      </trkpt>
      <trkpt lat="50.722065" lon="7.088373">
      </trkpt>
      <trkpt lat="50.721813" lon="7.08924">
      </trkpt>
      <trkpt lat="50.721429" lon="7.090315">
      </trkpt>
      <trkpt lat="50.721042" lon="7.091174">
      </trkpt>
      <trkpt lat="50.720658" lon="7.091937">
      </trkpt>
      <trkpt lat="50.719774" lon="7.091731">
      </trkpt>
      <trkpt lat="50.719448" lon="7.092525">
      </trkpt>
      <trkpt lat="50.71908" lon="7.094313">
      </trkpt>
      <trkpt lat="50.718615" lon="7.095685">
      </trkpt>
      <trkpt lat="50.718184" lon="7.096325">
      </trkpt>
      <trkpt lat="50.717631" lon="7.096557">
      </trkpt>
      <trkpt lat="50.717053" lon="7.096968">
      </trkpt>
      <trkpt lat="50.716252" lon="7.098751">
      </trkpt>
      <trkpt lat="50.715746" lon="7.099684">
      </trkpt>
      <trkpt lat="50.715705" lon="7.098775">
      </trkpt>
      <trkpt lat="50.715938" lon="7.097859">
      </trkpt>
      <trkpt lat="50.715302" lon="7.098299">
      </trkpt>
      <trkpt lat="50.7146" lon="7.098987">
      </trkpt>
      <trkpt lat="50.714271" lon="7.099759">
      </trkpt>
      <trkpt lat="50.713653" lon="7.09903">
      </trkpt>
      <trkpt lat="50.713121" lon="7.09835">
      </trkpt>
      <trkpt lat="50.712475" lon="7.098343">
      </trkpt>
      <trkpt lat="50.711869" lon="7.098353">
      </trkpt>
      <trkpt lat="50.711383" lon="7.098901">
      </trkpt>
      <trkpt lat="50.710869" lon="7.099897">
      </trkpt>
      <trkpt lat="50.710385" lon="7.100475">
      </trkpt>
      <trkpt lat="50.710109" lon="7.101621">
      </trkpt>
      <trkpt lat="50.709524" lon="7.101695">
      </trkpt>
      <trkpt lat="50.708922" lon="7.101898">
      </trkpt>
      <trkpt lat="50.708298" lon="7.102149">
      </trkpt>
      <trkpt lat="50.707776" lon="7.102533">
      </trkpt>
      <trkpt lat="50.707248" lon="7.102328">
      </trkpt>
      <trkpt lat="50.706557" lon="7.103434">
      </trkpt>
      <trkpt lat="50.70636" lon="7.104432">
      </trkpt>
      <trkpt lat="50.705856" lon="7.105256">
      </trkpt>
      <trkpt lat="50.705125" lon="7.105444">
      </trkpt>
      <trkpt lat="50.70451" lon="7.105384">
      </trkpt>
      <trkpt lat="50.703971" lon="7.105908">
      </trkpt>
      <trkpt lat="50.703466" lon="7.10638">
      </trkpt>
      <trkpt lat="50.702922" lon="7.107082">
      </trkpt>
      <trkpt lat="50.702662" lon="7.107849">
      </trkpt>
      <trkpt lat="50.701896" lon="7.108425">
      </trkpt>
      <trkpt lat="50.701099" lon="7.1082">
      </trkpt>
      <trkpt lat="50.700594" lon="7.108964">
      </trkpt>
      <trkpt lat="50.69973" lon="7.108842">
      </trkpt>
      <trkpt lat="50.699265" lon="7.108087">
      </trkpt>
      <trkpt lat="50.698693" lon="7.108671">
      </trkpt>
      <trkpt lat="50.698056" lon="7.108994">
      </trkpt>
      <trkpt lat="50.697046" lon="7.109237">
      </trkpt>
      <trkpt lat="50.69651" lon="7.10913">
      </trkpt>
      <trkpt lat="50.695831" lon="7.108615">
      </trkpt>
      <trkpt lat="50.694492" lon="7.107933">
      </trkpt>
      <trkpt lat="50.693813" lon="7.10733">
      </trkpt>
      <trkpt lat="50.693307" lon="7.106932">
      </trkpt>
      <trkpt lat="50.692776" lon="7.106071">
      </trkpt>
      <trkpt lat="50.692026" lon="7.106154">
      </trkpt>
      <trkpt lat="50.691027" lon="7.106757">
      </trkpt>
      <trkpt lat="50.690496" lon="7.107407">
      </trkpt>
      <trkpt lat="50.689827" lon="7.107172">
      </trkpt>
      <trkpt lat="50.689176" lon="7.107457">
      </trkpt>
      <trkpt lat="50.688511" lon="7.107248">
      </trkpt>
      <trkpt lat="50.687946" lon="7.106969">
      </trkpt>
      <trkpt lat="50.687657" lon="7.107728">
      </trkpt>
      <trkpt lat="50.68611" lon="7.110248">
      </trkpt>
      <trkpt lat="50.685216" lon="7.1117">
      </trkpt>
      <trkpt lat="50.683526" lon="7.114443">
      </trkpt>
      <trkpt lat="50.683151" lon="7.115345">
      </trkpt>
      <trkpt lat="50.682572" lon="7.115001">
      </trkpt>
      <trkpt lat="50.682128" lon="7.114356">
      </trkpt>
      <trkpt lat="50.681198" lon="7.11428">
      </trkpt>
      <trkpt lat="50.680502" lon="7.114211">
      </trkpt>
      <trkpt lat="50.679731" lon="7.114345">
      </trkpt>
      <trkpt lat="50.678985" lon="7.11457">
      </trkpt>
      <trkpt lat="50.677996" lon="7.114151">
      </trkpt>
      <trkpt lat="50.677366" lon="7.113996">
      </trkpt>
      <trkpt lat="50.676538" lon="7.113782">
      </trkpt>
      <trkpt lat="50.676525" lon="7.116115">
      </trkpt>
      <trkpt lat="50.676704" lon="7.120652">
      </trkpt>
      <trkpt lat="50.676063" lon="7.121482">
      </trkpt>
      <trkpt lat="50.675548" lon="7.121958">
      </trkpt>
      <trkpt lat="50.674363" lon="7.121327">
      </trkpt>
      <trkpt lat="50.67384" lon="7.121077">
      </trkpt>
      <trkpt lat="50.672452" lon="7.11945">
      </trkpt>
      <trkpt lat="50.671882" lon="7.119959">
      </trkpt>
      <trkpt lat="50.671403" lon="7.118858">
      </trkpt>
      <trkpt lat="50.671344" lon="7.11792">
      </trkpt>
      <trkpt lat="50.67109" lon="7.116907">
      </trkpt>
      <trkpt lat="50.670785" lon="7.116134">
      </trkpt>
      <trkpt lat="50.670281" lon="7.116675">
      </trkpt>
      <trkpt lat="50.666203" lon="7.122138">
      </trkpt>
      <trkpt lat="50.664924" lon="7.120157">
      </trkpt>
      <trkpt lat="50.663103" lon="7.116852">
      </trkpt>
      <trkpt lat="50.66226" lon="7.11647">
      </trkpt>
      <trkpt lat="50.661663" lon="7.116113">
      </trkpt>
      <trkpt lat="50.660811" lon="7.118506">
      </trkpt>
      <trkpt lat="50.6603" lon="7.118991">
      </trkpt>
      <trkpt lat="50.659814" lon="7.11951">
      </trkpt>
      <trkpt lat="50.659153" lon="7.119569">
      </trkpt>
      <trkpt lat="50.658695" lon="7.119112">
      </trkpt>
      <trkpt lat="50.658464" lon="7.11774">
      </trkpt>
      <trkpt lat="50.658165" lon="7.116862">
      </trkpt>
      <trkpt lat="50.65815" lon="7.114984">
      </trkpt>
      <trkpt lat="50.658316" lon="7.113965">
      </trkpt>
      <trkpt lat="50.658729" lon="7.112533">
      </trkpt>
      <trkpt lat="50.659169" lon="7.111067">
      </trkpt>
      <trkpt lat="50.659582" lon="7.109951">
      </trkpt>
      <trkpt lat="50.659714" lon="7.108712">
      </trkpt>
      <trkpt lat="50.659755" lon="7.107544">
      </trkpt>
      <trkpt lat="50.659721" lon="7.10588">
      </trkpt>
      <trkpt lat="50.659555" lon="7.105022">
      </trkpt>
      <trkpt lat="50.658313" lon="7.104013">
      </trkpt>
      <trkpt lat="50.657836" lon="7.103611">
      </trkpt>
      <trkpt lat="50.657422" lon="7.101833">
      </trkpt>
      <trkpt lat="50.659425" lon="7.100133">
      </trkpt>
      <trkpt lat="50.660812" lon="7.099047">
      </trkpt>
      <trkpt lat="50.660558" lon="7.097763">
      </trkpt>
      <trkpt lat="50.661218" lon="7.098729">
      </trkpt>
      <trkpt lat="50.661671" lon="7.099407">
      </trkpt>
      <trkpt lat="50.661218" lon="7.098729">
      </trkpt>
      <trkpt lat="50.663019" lon="7.097377">
      </trkpt>
      <trkpt lat="50.664613" lon="7.096179">
      </trkpt>
      <trkpt lat="50.663406" lon="7.092686">
      </trkpt>
      <trkpt lat="50.661778" lon="7.088097">
      </trkpt>
      <trkpt lat="50.661563" lon="7.087245">
      </trkpt>
      <trkpt lat="50.660749" lon="7.084302">
      </trkpt>
      <trkpt lat="50.660351" lon="7.082865">
      </trkpt>
      <trkpt lat="50.660073" lon="7.081775">
      </trkpt>
      <trkpt lat="50.659438" lon="7.078758">
      </trkpt>
      <trkpt lat="50.658379" lon="7.076368">
      </trkpt>
      <trkpt lat="50.658445" lon="7.071052">
      </trkpt>
      <trkpt lat="50.658561" lon="7.064082">
      </trkpt>
      <trkpt lat="50.658064" lon="7.063644">
      </trkpt>
      <trkpt lat="50.657465" lon="7.063353">
      </trkpt>
      <trkpt lat="50.656731" lon="7.063103">
      </trkpt>
      <trkpt lat="50.656184" lon="7.062666">
      </trkpt>
      <trkpt lat="50.655452" lon="7.062755">
      </trkpt>
      <trkpt lat="50.654516" lon="7.062718">
      </trkpt>
      <trkpt lat="50.655087" lon="7.056757">
      </trkpt>
      <trkpt lat="50.655674" lon="7.051894">
      </trkpt>
      <trkpt lat="50.655685" lon="7.050752">
      </trkpt>
      <trkpt lat="50.656153" lon="7.049528">
      </trkpt>
      <trkpt lat="50.658611" lon="7.043523">
      </trkpt>
      <trkpt lat="50.660454" lon="7.039016">
      </trkpt>
      <trkpt lat="50.661348" lon="7.036865">
      </trkpt>
      <trkpt lat="50.661708" lon="7.037521">
      </trkpt>
      <trkpt lat="50.662601" lon="7.038838">
      </trkpt>
      <trkpt lat="50.66383" lon="7.040648">
      </trkpt>
      <trkpt lat="50.664661" lon="7.040934">
      </trkpt>
      <trkpt lat="50.665861" lon="7.039943">
      </trkpt>
      <trkpt lat="50.66658" lon="7.039942">
      </trkpt>
      <trkpt lat="50.667082" lon="7.038469">
      </trkpt>
      <trkpt lat="50.667585" lon="7.037323">
      </trkpt>
      <trkpt lat="50.668024" lon="7.036737">
      </trkpt>
      <trkpt lat="50.668559" lon="7.038361">
      </trkpt>
      <trkpt lat="50.669654" lon="7.041973">
      </trkpt>
      <trkpt lat="50.67167" lon="7.048666">
      </trkpt>
      <trkpt lat="50.673944" lon="7.056282">
      </trkpt>
      <trkpt lat="50.673271" lon="7.057786">
      </trkpt>
      <trkpt lat="50.671461" lon="7.061849">
      </trkpt>
      <trkpt lat="50.671127" lon="7.062628">
      </trkpt>
      <trkpt lat="50.670631" lon="7.063776">
      </trkpt>
      <trkpt lat="50.669686" lon="7.066404">
      </trkpt>
      <trkpt lat="50.6694" lon="7.067182">
      </trkpt>
      <trkpt lat="50.668209" lon="7.070577">
      </trkpt>
      <trkpt lat="50.668056" lon="7.071651">
      </trkpt>
      <trkpt lat="50.668101" lon="7.072761">
      </trkpt>
      <trkpt lat="50.668727" lon="7.073434">
      </trkpt>
      <trkpt lat="50.669074" lon="7.074141">
      </trkpt>
      <trkpt lat="50.66954" lon="7.074627">
      </trkpt>
      <trkpt lat="50.669842" lon="7.075352">
      </trkpt>
      <trkpt lat="50.670101" lon="7.076157">
      </trkpt>
      <trkpt lat="50.670326" lon="7.077158">
      </trkpt>
      <trkpt lat="50.670863" lon="7.077465">
      </trkpt>
      <trkpt lat="50.671443" lon="7.078078">
      </trkpt>
      <trkpt lat="50.671925" lon="7.078889">
      </trkpt>
      <trkpt lat="50.672665" lon="7.079314">
      </trkpt>
      <trkpt lat="50.673506" lon="7.079893">
      </trkpt>
      <trkpt lat="50.674" lon="7.080408">
      </trkpt>
      <trkpt lat="50.674669" lon="7.080546">
      </trkpt>
      <trkpt lat="50.675233" lon="7.080835">
      </trkpt>
      <trkpt lat="50.675699" lon="7.081322">
      </trkpt>
      <trkpt lat="50.676133" lon="7.081929">
      </trkpt>
      <trkpt lat="50.676632" lon="7.082268">
      </trkpt>
      <trkpt lat="50.677257" lon="7.082067">
      </trkpt>
      <trkpt lat="50.677816" lon="7.081917">
      </trkpt>
      <trkpt lat="50.678435" lon="7.082409">
      </trkpt>
      <trkpt lat="50.678929" lon="7.08299">
      </trkpt>
      <trkpt lat="50.679468" lon="7.083669">
      </trkpt>
      <trkpt lat="50.680073" lon="7.083808">
      </trkpt>
      <trkpt lat="50.680627" lon="7.083808">
      </trkpt>
      <trkpt lat="50.681145" lon="7.083437">
      </trkpt>
      <trkpt lat="50.681724" lon="7.083">
      </trkpt>
      <trkpt lat="50.682196" lon="7.082392">
      </trkpt>
      <trkpt lat="50.682785" lon="7.08212">
      </trkpt>
      <trkpt lat="50.683212" lon="7.0812">
      </trkpt>
      <trkpt lat="50.682347" lon="7.079222">
      </trkpt>
      <trkpt lat="50.682071" lon="7.078162">
      </trkpt>
      <trkpt lat="50.682594" lon="7.076997">
      </trkpt>
      <trkpt lat="50.683267" lon="7.076964">
      </trkpt>
      <trkpt lat="50.684325" lon="7.077027">
      </trkpt>
      <trkpt lat="50.685069" lon="7.076642">
      </trkpt>
      <trkpt lat="50.68573" lon="7.076675">
      </trkpt>
      <trkpt lat="50.686319" lon="7.076731">
      </trkpt>
      <trkpt lat="50.686914" lon="7.076173">
      </trkpt>
      <trkpt lat="50.688639" lon="7.07428">
      </trkpt>
      <trkpt lat="50.690123" lon="7.072594">
      </trkpt>
      <trkpt lat="50.690914" lon="7.071722">
      </trkpt>
      <trkpt lat="50.691603" lon="7.071291">
      </trkpt>
      <trkpt lat="50.692451" lon="7.071234">
      </trkpt>
      <trkpt lat="50.69343" lon="7.071191">
      </trkpt>
      <trkpt lat="50.694611" lon="7.071131">
      </trkpt>
      <trkpt lat="50.695239" lon="7.07111">
      </trkpt>
      <trkpt lat="50.695894" lon="7.071076">
      </trkpt>
      <trkpt lat="50.696576" lon="7.070815">
      </trkpt>
      <trkpt lat="50.698075" lon="7.071652">
      </trkpt>
      <trkpt lat="50.699399" lon="7.071954">
      </trkpt>
      <trkpt lat="50.69959" lon="7.072753">
      </trkpt>
      <trkpt lat="50.700614" lon="7.073166">
      </trkpt>
      <trkpt lat="50.701414" lon="7.072895">
      </trkpt>
      <trkpt lat="50.702658" lon="7.07299">
      </trkpt>
      <trkpt lat="50.703228" lon="7.073047">
      </trkpt>
      <trkpt lat="50.704474" lon="7.073281">
      </trkpt>
      <trkpt lat="50.705294" lon="7.07325">
      </trkpt>
      <trkpt lat="50.706351" lon="7.073499">
      </trkpt>
      <trkpt lat="50.707318" lon="7.07379">
      </trkpt>
      <trkpt lat="50.707967" lon="7.073783">
      </trkpt>
      <trkpt lat="50.708784" lon="7.074212">
      </trkpt>
      <trkpt lat="50.70961" lon="7.074369">
      </trkpt>
      <trkpt lat="50.710243" lon="7.074083">
      </trkpt>
      <trkpt lat="50.710385" lon="7.075375">
      </trkpt>
      <trkpt lat="50.710653" lon="7.076206">
      </trkpt>
      <trkpt lat="50.710728" lon="7.077497">
      </trkpt>
      <trkpt lat="50.710393" lon="7.078702">
      </trkpt>
      <trkpt lat="50.710404" lon="7.079663">
      </trkpt>
      <trkpt lat="50.710844" lon="7.080297">
      </trkpt>
      <trkpt lat="50.711694" lon="7.08001">
      </trkpt>
      <trkpt lat="50.712205" lon="7.07937">
      </trkpt>
      <trkpt lat="50.712732" lon="7.079155">
      </trkpt>
      <trkpt lat="50.713419" lon="7.079204">
      </trkpt>
      <trkpt lat="50.714158" lon="7.078538">
      </trkpt>
      <trkpt lat="50.714724" lon="7.079891">
      </trkpt>
      <trkpt lat="50.714824" lon="7.080742">
      </trkpt>
      <trkpt lat="50.716626" lon="7.080163">
      </trkpt>
      <trkpt lat="50.717386" lon="7.079525">
      </trkpt>
      <trkpt lat="50.717826" lon="7.078991">
      </trkpt>
      <trkpt lat="50.718534" lon="7.078384">
      </trkpt>
      <trkpt lat="50.719154" lon="7.079173">
      </trkpt>
      <trkpt lat="50.71966" lon="7.079741">
      </trkpt>
      <trkpt lat="50.720166" lon="7.080366">
      </trkpt>
      <trkpt lat="50.720617" lon="7.081243">
      </trkpt>
      <trkpt lat="50.720851" lon="7.08204">
      </trkpt>
      <trkpt lat="50.721309" lon="7.08326">
      </trkpt>
      <trkpt lat="50.721571" lon="7.084135">
      </trkpt>
      <trkpt lat="50.721726" lon="7.085093">
      </trkpt>
      <trkpt lat="50.721611" lon="7.086456">
      </trkpt>
      <trkpt lat="50.721203" lon="7.087349">
      </trkpt>
      <trkpt lat="50.721726" lon="7.08772">
      </trkpt>
    </trkseg>
  </trk>
</gpx>