<?xml version="1.0" encoding="UTF-8"?>
<gpx xmlns="http://www.topografix.com/GPX/1/1" xmlns:xsi="http://www.w3.org/2001/XMLSchema-instance" xsi:schemaLocation="http://www.topografix.com/GPX/1/1 http://www.topografix.com/GPX/1/1/gpx.xsd" version="1.1" creator="gpx.py -- https://github.com/tkrajina/gpxpy">
  <metadata>
    <name>038</name>
  </metadata>
  <trk>
    <name>038</name>
    <trkseg>
      <trkpt lat="50.73429" lon="7.104149">
      </trkpt>
      <trkpt lat="50.733521" lon="7.105465">
      </trkpt>
      <trkpt lat="50.733015" lon="7.106478">
      </trkpt>
      <trkpt lat="50.732198" lon="7.106972">
      </trkpt>
      <trkpt lat="50.732148" lon="7.108039">
      </trkpt>
      <trkpt lat="50.732382" lon="7.109343">
      </trkpt>
      <trkpt lat="50.730283" lon="7.110352">
      </trkpt>
      <trkpt lat="50.728923" lon="7.111419">
      </trkpt>
      <trkpt lat="50.727889" lon="7.112297">
      </trkpt>
      <trkpt lat="50.727075" lon="7.113114">
      </trkpt>
      <trkpt lat="50.725852" lon="7.114551">
      </trkpt>
      <trkpt lat="50.725152" lon="7.115492">
      </trkpt>
      <trkpt lat="50.724103" lon="7.117062">
      </trkpt>
      <trkpt lat="50.722446" lon="7.119719">
      </trkpt>
      <trkpt lat="50.721702" lon="7.121041">
      </trkpt>
      <trkpt lat="50.720912" lon="7.12284">
      </trkpt>
      <trkpt lat="50.720328" lon="7.124354">
      </trkpt>
      <trkpt lat="50.719859" lon="7.125743">
      </trkpt>
      <trkpt lat="50.719587" lon="7.126695">
      </trkpt>
      <trkpt lat="50.719158" lon="7.128439">
      </trkpt>
      <trkpt lat="50.718764" lon="7.129111">
      </trkpt>
      <trkpt lat="50.71838" lon="7.129884">
      </trkpt>
      <trkpt lat="50.718095" lon="7.130712">
      </trkpt>
      <trkpt lat="50.717773" lon="7.131689">
      </trkpt>
      <trkpt lat="50.717496" lon="7.132598">
      </trkpt>
      <trkpt lat="50.716432" lon="7.133528">
      </trkpt>
      <trkpt lat="50.715884" lon="7.133622">
      </trkpt>
      <trkpt lat="50.714922" lon="7.133599">
      </trkpt>
      <trkpt lat="50.714315" lon="7.133981">
      </trkpt>
      <trkpt lat="50.713968" lon="7.134929">
      </trkpt>
      <trkpt lat="50.713474" lon="7.135516">
      </trkpt>
      <trkpt lat="50.71325" lon="7.136524">
      </trkpt>
      <trkpt lat="50.713186" lon="7.137597">
      </trkpt>
      <trkpt lat="50.713303" lon="7.138517">
      </trkpt>
      <trkpt lat="50.712803" lon="7.139033">
      </trkpt>
      <trkpt lat="50.712187" lon="7.138622">
      </trkpt>
      <trkpt lat="50.712527" lon="7.139289">
      </trkpt>
      <trkpt lat="50.713231" lon="7.139959">
      </trkpt>
      <trkpt lat="50.714576" lon="7.140932">
      </trkpt>
      <trkpt lat="50.719242" lon="7.144244">
      </trkpt>
      <trkpt lat="50.719835" lon="7.14465">
      </trkpt>
      <trkpt lat="50.720047" lon="7.143743">
      </trkpt>
      <trkpt lat="50.719569" lon="7.144439">
      </trkpt>
      <trkpt lat="50.719482" lon="7.145293">
      </trkpt>
      <trkpt lat="50.719517" lon="7.146669">
      </trkpt>
      <trkpt lat="50.718973" lon="7.14709">
      </trkpt>
      <trkpt lat="50.718315" lon="7.148945">
      </trkpt>
      <trkpt lat="50.717949" lon="7.150072">
      </trkpt>
      <trkpt lat="50.717275" lon="7.151268">
      </trkpt>
      <trkpt lat="50.716837" lon="7.15237">
      </trkpt>
      <trkpt lat="50.716469" lon="7.153393">
      </trkpt>
      <trkpt lat="50.7161" lon="7.154417">
      </trkpt>
      <trkpt lat="50.7159" lon="7.155524">
      </trkpt>
      <trkpt lat="50.715313" lon="7.156938">
      </trkpt>
      <trkpt lat="50.714795" lon="7.158024">
      </trkpt>
      <trkpt lat="50.714222" lon="7.159116">
      </trkpt>
      <trkpt lat="50.712756" lon="7.161333">
      </trkpt>
      <trkpt lat="50.712279" lon="7.162275">
      </trkpt>
      <trkpt lat="50.711591" lon="7.163231">
      </trkpt>
      <trkpt lat="50.711143" lon="7.163839">
      </trkpt>
      <trkpt lat="50.710858" lon="7.164573">
      </trkpt>
      <trkpt lat="50.711221" lon="7.165875">
      </trkpt>
      <trkpt lat="50.71148" lon="7.166628">
      </trkpt>
      <trkpt lat="50.711799" lon="7.16765">
      </trkpt>
      <trkpt lat="50.711255" lon="7.168395">
      </trkpt>
      <trkpt lat="50.710498" lon="7.169292">
      </trkpt>
      <trkpt lat="50.710339" lon="7.171107">
      </trkpt>
      <trkpt lat="50.710207" lon="7.172606">
      </trkpt>
      <trkpt lat="50.710162" lon="7.173883">
      </trkpt>
      <trkpt lat="50.710091" lon="7.174801">
      </trkpt>
      <trkpt lat="50.709993" lon="7.175717">
      </trkpt>
      <trkpt lat="50.70996" lon="7.176605">
      </trkpt>
      <trkpt lat="50.709964" lon="7.177571">
      </trkpt>
      <trkpt lat="50.710419" lon="7.178611">
      </trkpt>
      <trkpt lat="50.711069" lon="7.179442">
      </trkpt>
      <trkpt lat="50.71142" lon="7.180338">
      </trkpt>
      <trkpt lat="50.71132" lon="7.181722">
      </trkpt>
      <trkpt lat="50.711231" lon="7.182829">
      </trkpt>
      <trkpt lat="50.711667" lon="7.185163">
      </trkpt>
      <trkpt lat="50.711407" lon="7.186136">
      </trkpt>
      <trkpt lat="50.711119" lon="7.186858">
      </trkpt>
      <trkpt lat="50.710755" lon="7.187796">
      </trkpt>
      <trkpt lat="50.710268" lon="7.189207">
      </trkpt>
      <trkpt lat="50.710257" lon="7.190376">
      </trkpt>
      <trkpt lat="50.710662" lon="7.191633">
      </trkpt>
      <trkpt lat="50.709214" lon="7.191837">
      </trkpt>
      <trkpt lat="50.70868" lon="7.192123">
      </trkpt>
      <trkpt lat="50.707985" lon="7.192759">
      </trkpt>
      <trkpt lat="50.707435" lon="7.193002">
      </trkpt>
      <trkpt lat="50.706885" lon="7.192813">
      </trkpt>
      <trkpt lat="50.706258" lon="7.192079">
      </trkpt>
      <trkpt lat="50.705188" lon="7.191555">
      </trkpt>
      <trkpt lat="50.704427" lon="7.191409">
      </trkpt>
      <trkpt lat="50.703767" lon="7.191089">
      </trkpt>
      <trkpt lat="50.70313" lon="7.190642">
      </trkpt>
      <trkpt lat="50.703055" lon="7.191665">
      </trkpt>
      <trkpt lat="50.702737" lon="7.193136">
      </trkpt>
      <trkpt lat="50.702533" lon="7.194089">
      </trkpt>
      <trkpt lat="50.702418" lon="7.195229">
      </trkpt>
      <trkpt lat="50.703184" lon="7.195173">
      </trkpt>
      <trkpt lat="50.703912" lon="7.1948">
      </trkpt>
      <trkpt lat="50.704657" lon="7.194612">
      </trkpt>
      <trkpt lat="50.705951" lon="7.195479">
      </trkpt>
      <trkpt lat="50.70674" lon="7.195599">
      </trkpt>
      <trkpt lat="50.707364" lon="7.195908">
      </trkpt>
      <trkpt lat="50.708113" lon="7.197">
      </trkpt>
      <trkpt lat="50.708331" lon="7.198311">
      </trkpt>
      <trkpt lat="50.708529" lon="7.199542">
      </trkpt>
      <trkpt lat="50.708498" lon="7.200406">
      </trkpt>
      <trkpt lat="50.70855" lon="7.201374">
      </trkpt>
      <trkpt lat="50.7092" lon="7.202836">
      </trkpt>
      <trkpt lat="50.710406" lon="7.202233">
      </trkpt>
      <trkpt lat="50.710972" lon="7.201598">
      </trkpt>
      <trkpt lat="50.711398" lon="7.201042">
      </trkpt>
      <trkpt lat="50.71196" lon="7.202126">
      </trkpt>
      <trkpt lat="50.712517" lon="7.203079">
      </trkpt>
      <trkpt lat="50.712811" lon="7.204075">
      </trkpt>
      <trkpt lat="50.713048" lon="7.20512">
      </trkpt>
      <trkpt lat="50.712501" lon="7.205568">
      </trkpt>
      <trkpt lat="50.712565" lon="7.206644">
      </trkpt>
      <trkpt lat="50.711815" lon="7.207273">
      </trkpt>
      <trkpt lat="50.711213" lon="7.207225">
      </trkpt>
      <trkpt lat="50.709489" lon="7.208479">
      </trkpt>
      <trkpt lat="50.708726" lon="7.209034">
      </trkpt>
      <trkpt lat="50.708184" lon="7.209479">
      </trkpt>
      <trkpt lat="50.707818" lon="7.210293">
      </trkpt>
      <trkpt lat="50.707835" lon="7.212977">
      </trkpt>
      <trkpt lat="50.707712" lon="7.21475">
      </trkpt>
      <trkpt lat="50.707144" lon="7.217465">
      </trkpt>
      <trkpt lat="50.70671" lon="7.218415">
      </trkpt>
      <trkpt lat="50.706167" lon="7.2198">
      </trkpt>
      <trkpt lat="50.705698" lon="7.220619">
      </trkpt>
      <trkpt lat="50.705231" lon="7.221156">
      </trkpt>
      <trkpt lat="50.70475" lon="7.221563">
      </trkpt>
      <trkpt lat="50.704122" lon="7.22237">
      </trkpt>
      <trkpt lat="50.70356" lon="7.222983">
      </trkpt>
      <trkpt lat="50.702929" lon="7.22385">
      </trkpt>
      <trkpt lat="50.702024" lon="7.225322">
      </trkpt>
      <trkpt lat="50.701338" lon="7.225754">
      </trkpt>
      <trkpt lat="50.700477" lon="7.226763">
      </trkpt>
      <trkpt lat="50.699762" lon="7.227881">
      </trkpt>
      <trkpt lat="50.699515" lon="7.228716">
      </trkpt>
      <trkpt lat="50.698029" lon="7.230072">
      </trkpt>
      <trkpt lat="50.697533" lon="7.230425">
      </trkpt>
      <trkpt lat="50.696912" lon="7.23054">
      </trkpt>
      <trkpt lat="50.696205" lon="7.230468">
      </trkpt>
      <trkpt lat="50.695788" lon="7.231062">
      </trkpt>
      <trkpt lat="50.695618" lon="7.230222">
      </trkpt>
      <trkpt lat="50.694942" lon="7.230295">
      </trkpt>
      <trkpt lat="50.694582" lon="7.231738">
      </trkpt>
      <trkpt lat="50.69464" lon="7.233529">
      </trkpt>
      <trkpt lat="50.694415" lon="7.234749">
      </trkpt>
      <trkpt lat="50.694165" lon="7.23564">
      </trkpt>
      <trkpt lat="50.693766" lon="7.236617">
      </trkpt>
      <trkpt lat="50.693317" lon="7.237451">
      </trkpt>
      <trkpt lat="50.693045" lon="7.238461">
      </trkpt>
      <trkpt lat="50.692709" lon="7.239472">
      </trkpt>
      <trkpt lat="50.692256" lon="7.240128">
      </trkpt>
      <trkpt lat="50.692079" lon="7.241118">
      </trkpt>
      <trkpt lat="50.692048" lon="7.242827">
      </trkpt>
      <trkpt lat="50.691454" lon="7.243091">
      </trkpt>
      <trkpt lat="50.691206" lon="7.244322">
      </trkpt>
      <trkpt lat="50.690936" lon="7.245138">
      </trkpt>
      <trkpt lat="50.690541" lon="7.246397">
      </trkpt>
      <trkpt lat="50.6906" lon="7.247344">
      </trkpt>
      <trkpt lat="50.691067" lon="7.24845">
      </trkpt>
      <trkpt lat="50.690711" lon="7.249117">
      </trkpt>
      <trkpt lat="50.690383" lon="7.249981">
      </trkpt>
      <trkpt lat="50.689747" lon="7.250874">
      </trkpt>
      <trkpt lat="50.689387" lon="7.251567">
      </trkpt>
      <trkpt lat="50.688851" lon="7.252184">
      </trkpt>
      <trkpt lat="50.688285" lon="7.252752">
      </trkpt>
      <trkpt lat="50.687774" lon="7.253137">
      </trkpt>
      <trkpt lat="50.687098" lon="7.25366">
      </trkpt>
      <trkpt lat="50.686582" lon="7.25406">
      </trkpt>
      <trkpt lat="50.685908" lon="7.254579">
      </trkpt>
      <trkpt lat="50.684533" lon="7.255634">
      </trkpt>
      <trkpt lat="50.684009" lon="7.256935">
      </trkpt>
      <trkpt lat="50.683348" lon="7.257125">
      </trkpt>
      <trkpt lat="50.681965" lon="7.257837">
      </trkpt>
      <trkpt lat="50.6811" lon="7.257974">
      </trkpt>
      <trkpt lat="50.680521" lon="7.257734">
      </trkpt>
      <trkpt lat="50.680213" lon="7.256628">
      </trkpt>
      <trkpt lat="50.679956" lon="7.255556">
      </trkpt>
      <trkpt lat="50.679735" lon="7.254603">
      </trkpt>
      <trkpt lat="50.678829" lon="7.253313">
      </trkpt>
      <trkpt lat="50.678442" lon="7.251827">
      </trkpt>
      <trkpt lat="50.678061" lon="7.250405">
      </trkpt>
      <trkpt lat="50.677742" lon="7.249424">
      </trkpt>
      <trkpt lat="50.677998" lon="7.2486">
      </trkpt>
      <trkpt lat="50.678312" lon="7.247592">
      </trkpt>
      <trkpt lat="50.67871" lon="7.246996">
      </trkpt>
      <trkpt lat="50.67906" lon="7.248198">
      </trkpt>
      <trkpt lat="50.679439" lon="7.249136">
      </trkpt>
      <trkpt lat="50.680508" lon="7.249802">
      </trkpt>
      <trkpt lat="50.68135" lon="7.250381">
      </trkpt>
      <trkpt lat="50.68092" lon="7.249479">
      </trkpt>
      <trkpt lat="50.680761" lon="7.248663">
      </trkpt>
      <trkpt lat="50.681669" lon="7.24731">
      </trkpt>
      <trkpt lat="50.682376" lon="7.247348">
      </trkpt>
      <trkpt lat="50.682891" lon="7.248044">
      </trkpt>
      <trkpt lat="50.682376" lon="7.247348">
      </trkpt>
      <trkpt lat="50.683164" lon="7.247316">
      </trkpt>
      <trkpt lat="50.683589" lon="7.247877">
      </trkpt>
      <trkpt lat="50.684156" lon="7.248848">
      </trkpt>
      <trkpt lat="50.684852" lon="7.248755">
      </trkpt>
      <trkpt lat="50.686689" lon="7.24808">
      </trkpt>
      <trkpt lat="50.686261" lon="7.247284">
      </trkpt>
      <trkpt lat="50.685784" lon="7.246351">
      </trkpt>
      <trkpt lat="50.685307" lon="7.245419">
      </trkpt>
      <trkpt lat="50.684356" lon="7.244557">
      </trkpt>
      <trkpt lat="50.683447" lon="7.243936">
      </trkpt>
      <trkpt lat="50.682616" lon="7.243935">
      </trkpt>
      <trkpt lat="50.682018" lon="7.243834">
      </trkpt>
      <trkpt lat="50.681644" lon="7.242924">
      </trkpt>
      <trkpt lat="50.681294" lon="7.242244">
      </trkpt>
      <trkpt lat="50.680634" lon="7.24204">
      </trkpt>
      <trkpt lat="50.6802" lon="7.241528">
      </trkpt>
      <trkpt lat="50.679849" lon="7.240418">
      </trkpt>
      <trkpt lat="50.67993" lon="7.239243">
      </trkpt>
      <trkpt lat="50.679962" lon="7.238105">
      </trkpt>
      <trkpt lat="50.680189" lon="7.237288">
      </trkpt>
      <trkpt lat="50.680312" lon="7.236136">
      </trkpt>
      <trkpt lat="50.680208" lon="7.235156">
      </trkpt>
      <trkpt lat="50.680692" lon="7.234621">
      </trkpt>
      <trkpt lat="50.681377" lon="7.233626">
      </trkpt>
      <trkpt lat="50.681873" lon="7.232976">
      </trkpt>
      <trkpt lat="50.682477" lon="7.232619">
      </trkpt>
      <trkpt lat="50.683423" lon="7.232369">
      </trkpt>
      <trkpt lat="50.684754" lon="7.231574">
      </trkpt>
      <trkpt lat="50.685159" lon="7.230957">
      </trkpt>
      <trkpt lat="50.685601" lon="7.229859">
      </trkpt>
      <trkpt lat="50.685794" lon="7.228856">
      </trkpt>
      <trkpt lat="50.68611" lon="7.228033">
      </trkpt>
      <trkpt lat="50.686431" lon="7.22681">
      </trkpt>
      <trkpt lat="50.686805" lon="7.226103">
      </trkpt>
      <trkpt lat="50.687165" lon="7.225325">
      </trkpt>
      <trkpt lat="50.687646" lon="7.224267">
      </trkpt>
      <trkpt lat="50.688179" lon="7.222699">
      </trkpt>
      <trkpt lat="50.688613" lon="7.221525">
      </trkpt>
      <trkpt lat="50.688769" lon="7.223503">
      </trkpt>
      <trkpt lat="50.689763" lon="7.223327">
      </trkpt>
      <trkpt lat="50.690719" lon="7.222643">
      </trkpt>
      <trkpt lat="50.692029" lon="7.222203">
      </trkpt>
      <trkpt lat="50.692922" lon="7.222174">
      </trkpt>
      <trkpt lat="50.693517" lon="7.222298">
      </trkpt>
      <trkpt lat="50.693886" lon="7.222957">
      </trkpt>
      <trkpt lat="50.694437" lon="7.222367">
      </trkpt>
      <trkpt lat="50.694777" lon="7.221679">
      </trkpt>
      <trkpt lat="50.695952" lon="7.220486">
      </trkpt>
      <trkpt lat="50.696355" lon="7.219879">
      </trkpt>
      <trkpt lat="50.696576" lon="7.218117">
      </trkpt>
      <trkpt lat="50.696832" lon="7.217105">
      </trkpt>
      <trkpt lat="50.697218" lon="7.21605">
      </trkpt>
      <trkpt lat="50.69753" lon="7.215113">
      </trkpt>
      <trkpt lat="50.697877" lon="7.214176">
      </trkpt>
      <trkpt lat="50.698344" lon="7.213282">
      </trkpt>
      <trkpt lat="50.700051" lon="7.212451">
      </trkpt>
      <trkpt lat="50.701299" lon="7.211841">
      </trkpt>
      <trkpt lat="50.701872" lon="7.211525">
      </trkpt>
      <trkpt lat="50.70297" lon="7.211445">
      </trkpt>
      <trkpt lat="50.703668" lon="7.210801">
      </trkpt>
      <trkpt lat="50.704281" lon="7.210002">
      </trkpt>
      <trkpt lat="50.704333" lon="7.208423">
      </trkpt>
      <trkpt lat="50.704391" lon="7.2073">
      </trkpt>
      <trkpt lat="50.704577" lon="7.206258">
      </trkpt>
      <trkpt lat="50.705241" lon="7.205345">
      </trkpt>
      <trkpt lat="50.706037" lon="7.204585">
      </trkpt>
      <trkpt lat="50.706755" lon="7.204196">
      </trkpt>
      <trkpt lat="50.707362" lon="7.203794">
      </trkpt>
      <trkpt lat="50.707761" lon="7.203118">
      </trkpt>
      <trkpt lat="50.708394" lon="7.202053">
      </trkpt>
      <trkpt lat="50.7092" lon="7.202836">
      </trkpt>
      <trkpt lat="50.710406" lon="7.202233">
      </trkpt>
      <trkpt lat="50.710972" lon="7.201598">
      </trkpt>
      <trkpt lat="50.711398" lon="7.201042">
      </trkpt>
      <trkpt lat="50.711513" lon="7.199998">
      </trkpt>
      <trkpt lat="50.711988" lon="7.199241">
      </trkpt>
      <trkpt lat="50.712306" lon="7.198467">
      </trkpt>
      <trkpt lat="50.712797" lon="7.197467">
      </trkpt>
      <trkpt lat="50.71312" lon="7.196643">
      </trkpt>
      <trkpt lat="50.713181" lon="7.195751">
      </trkpt>
      <trkpt lat="50.713515" lon="7.194997">
      </trkpt>
      <trkpt lat="50.71428" lon="7.193234">
      </trkpt>
      <trkpt lat="50.714738" lon="7.191856">
      </trkpt>
      <trkpt lat="50.715116" lon="7.191039">
      </trkpt>
      <trkpt lat="50.71571" lon="7.189627">
      </trkpt>
      <trkpt lat="50.716218" lon="7.188981">
      </trkpt>
      <trkpt lat="50.716739" lon="7.188314">
      </trkpt>
      <trkpt lat="50.716825" lon="7.186736">
      </trkpt>
      <trkpt lat="50.716934" lon="7.184811">
      </trkpt>
      <trkpt lat="50.71702" lon="7.183813">
      </trkpt>
      <trkpt lat="50.716811" lon="7.182245">
      </trkpt>
      <trkpt lat="50.716715" lon="7.181075">
      </trkpt>
      <trkpt lat="50.716597" lon="7.180223">
      </trkpt>
      <trkpt lat="50.716444" lon="7.179318">
      </trkpt>
      <trkpt lat="50.715921" lon="7.17849">
      </trkpt>
      <trkpt lat="50.715442" lon="7.177932">
      </trkpt>
      <trkpt lat="50.715606" lon="7.176954">
      </trkpt>
      <trkpt lat="50.716134" lon="7.176365">
      </trkpt>
      <trkpt lat="50.716693" lon="7.175816">
      </trkpt>
      <trkpt lat="50.717248" lon="7.17585">
      </trkpt>
      <trkpt lat="50.717954" lon="7.175562">
      </trkpt>
      <trkpt lat="50.718178" lon="7.174498">
      </trkpt>
      <trkpt lat="50.718488" lon="7.173444">
      </trkpt>
      <trkpt lat="50.719205" lon="7.172979">
      </trkpt>
      <trkpt lat="50.719586" lon="7.17212">
      </trkpt>
      <trkpt lat="50.720096" lon="7.171408">
      </trkpt>
      <trkpt lat="50.720436" lon="7.170742">
      </trkpt>
      <trkpt lat="50.721075" lon="7.16999">
      </trkpt>
      <trkpt lat="50.721616" lon="7.169203">
      </trkpt>
      <trkpt lat="50.721135" lon="7.168422">
      </trkpt>
      <trkpt lat="50.72059" lon="7.168607">
      </trkpt>
      <trkpt lat="50.719878" lon="7.168987">
      </trkpt>
      <trkpt lat="50.719645" lon="7.169922">
      </trkpt>
      <trkpt lat="50.718996" lon="7.170381">
      </trkpt>
      <trkpt lat="50.720102" lon="7.168161">
      </trkpt>
      <trkpt lat="50.721154" lon="7.167197">
      </trkpt>
      <trkpt lat="50.721667" lon="7.166692">
      </trkpt>
      <trkpt lat="50.721466" lon="7.165757">
      </trkpt>
      <trkpt lat="50.721549" lon="7.164697">
      </trkpt>
      <trkpt lat="50.722088" lon="7.164419">
      </trkpt>
      <trkpt lat="50.722501" lon="7.163865">
      </trkpt>
      <trkpt lat="50.722684" lon="7.162754">
      </trkpt>
      <trkpt lat="50.722921" lon="7.161361">
      </trkpt>
      <trkpt lat="50.722892" lon="7.160423">
      </trkpt>
      <trkpt lat="50.722852" lon="7.159461">
      </trkpt>
      <trkpt lat="50.723334" lon="7.158538">
      </trkpt>
      <trkpt lat="50.723904" lon="7.15794">
      </trkpt>
      <trkpt lat="50.724386" lon="7.157474">
      </trkpt>
      <trkpt lat="50.724125" lon="7.156424">
      </trkpt>
      <trkpt lat="50.723882" lon="7.155437">
      </trkpt>
      <trkpt lat="50.723554" lon="7.154241">
      </trkpt>
      <trkpt lat="50.723442" lon="7.153302">
      </trkpt>
      <trkpt lat="50.723794" lon="7.152085">
      </trkpt>
      <trkpt lat="50.72417" lon="7.150959">
      </trkpt>
      <trkpt lat="50.724587" lon="7.149852">
      </trkpt>
      <trkpt lat="50.725047" lon="7.148412">
      </trkpt>
      <trkpt lat="50.725649" lon="7.146921">
      </trkpt>
      <trkpt lat="50.725339" lon="7.145982">
      </trkpt>
      <trkpt lat="50.724749" lon="7.145246">
      </trkpt>
      <trkpt lat="50.724206" lon="7.144657">
      </trkpt>
      <trkpt lat="50.723757" lon="7.144151">
      </trkpt>
      <trkpt lat="50.723051" lon="7.143349">
      </trkpt>
      <trkpt lat="50.722522" lon="7.142845">
      </trkpt>
    </trkseg>
  </trk>
</gpx>