<?xml version="1.0" encoding="UTF-8"?>
<gpx xmlns="http://www.topografix.com/GPX/1/1" xmlns:xsi="http://www.w3.org/2001/XMLSchema-instance" xsi:schemaLocation="http://www.topografix.com/GPX/1/1 http://www.topografix.com/GPX/1/1/gpx.xsd" version="1.1" creator="gpx.py -- https://github.com/tkrajina/gpxpy">
  <metadata>
    <name>039</name>
  </metadata>
  <trk>
    <name>039</name>
    <trkseg>
      <trkpt lat="50.734282" lon="7.104054">
      </trkpt>
      <trkpt lat="50.734998" lon="7.104011">
      </trkpt>
      <trkpt lat="50.73552" lon="7.104395">
      </trkpt>
      <trkpt lat="50.736176" lon="7.104756">
      </trkpt>
      <trkpt lat="50.736801" lon="7.10427">
      </trkpt>
      <trkpt lat="50.737374" lon="7.103767">
      </trkpt>
      <trkpt lat="50.738116" lon="7.103103">
      </trkpt>
      <trkpt lat="50.73879" lon="7.102651">
      </trkpt>
      <trkpt lat="50.739312" lon="7.10227">
      </trkpt>
      <trkpt lat="50.739905" lon="7.101925">
      </trkpt>
      <trkpt lat="50.739617" lon="7.100365">
      </trkpt>
      <trkpt lat="50.740113" lon="7.099292">
      </trkpt>
      <trkpt lat="50.740665" lon="7.098753">
      </trkpt>
      <trkpt lat="50.741199" lon="7.098194">
      </trkpt>
      <trkpt lat="50.74173" lon="7.097838">
      </trkpt>
      <trkpt lat="50.742095" lon="7.097183">
      </trkpt>
      <trkpt lat="50.742786" lon="7.096635">
      </trkpt>
      <trkpt lat="50.743317" lon="7.096179">
      </trkpt>
      <trkpt lat="50.744549" lon="7.095736">
      </trkpt>
      <trkpt lat="50.744365" lon="7.09454">
      </trkpt>
      <trkpt lat="50.744213" lon="7.093552">
      </trkpt>
      <trkpt lat="50.744097" lon="7.092529">
      </trkpt>
      <trkpt lat="50.743882" lon="7.090727">
      </trkpt>
      <trkpt lat="50.743767" lon="7.089856">
      </trkpt>
      <trkpt lat="50.744331" lon="7.088129">
      </trkpt>
      <trkpt lat="50.744736" lon="7.087267">
      </trkpt>
      <trkpt lat="50.745297" lon="7.086977">
      </trkpt>
      <trkpt lat="50.746021" lon="7.087408">
      </trkpt>
      <trkpt lat="50.747033" lon="7.087709">
      </trkpt>
      <trkpt lat="50.748345" lon="7.087328">
      </trkpt>
      <trkpt lat="50.749857" lon="7.086907">
      </trkpt>
      <trkpt lat="50.751036" lon="7.086782">
      </trkpt>
      <trkpt lat="50.751797" lon="7.086465">
      </trkpt>
      <trkpt lat="50.752518" lon="7.085828">
      </trkpt>
      <trkpt lat="50.753042" lon="7.085161">
      </trkpt>
      <trkpt lat="50.754043" lon="7.084684">
      </trkpt>
      <trkpt lat="50.754528" lon="7.084312">
      </trkpt>
      <trkpt lat="50.755101" lon="7.084253">
      </trkpt>
      <trkpt lat="50.755761" lon="7.083687">
      </trkpt>
      <trkpt lat="50.756356" lon="7.082896">
      </trkpt>
      <trkpt lat="50.756791" lon="7.08239">
      </trkpt>
      <trkpt lat="50.757409" lon="7.08233">
      </trkpt>
      <trkpt lat="50.757679" lon="7.081589">
      </trkpt>
      <trkpt lat="50.757702" lon="7.080347">
      </trkpt>
      <trkpt lat="50.758871" lon="7.07872">
      </trkpt>
      <trkpt lat="50.759295" lon="7.078128">
      </trkpt>
      <trkpt lat="50.760127" lon="7.076791">
      </trkpt>
      <trkpt lat="50.760705" lon="7.076147">
      </trkpt>
      <trkpt lat="50.761129" lon="7.075177">
      </trkpt>
      <trkpt lat="50.76145" lon="7.07436">
      </trkpt>
      <trkpt lat="50.76158" lon="7.07316">
      </trkpt>
      <trkpt lat="50.762349" lon="7.070943">
      </trkpt>
      <trkpt lat="50.762747" lon="7.070187">
      </trkpt>
      <trkpt lat="50.764084" lon="7.068164">
      </trkpt>
      <trkpt lat="50.764866" lon="7.066713">
      </trkpt>
      <trkpt lat="50.76614" lon="7.064218">
      </trkpt>
      <trkpt lat="50.766572" lon="7.063186">
      </trkpt>
      <trkpt lat="50.767035" lon="7.062269">
      </trkpt>
      <trkpt lat="50.768358" lon="7.064105">
      </trkpt>
      <trkpt lat="50.768911" lon="7.064844">
      </trkpt>
      <trkpt lat="50.769644" lon="7.06222">
      </trkpt>
      <trkpt lat="50.770155" lon="7.060372">
      </trkpt>
      <trkpt lat="50.770753" lon="7.060685">
      </trkpt>
      <trkpt lat="50.771431" lon="7.060283">
      </trkpt>
      <trkpt lat="50.772004" lon="7.058333">
      </trkpt>
      <trkpt lat="50.772797" lon="7.054671">
      </trkpt>
      <trkpt lat="50.772927" lon="7.053695">
      </trkpt>
      <trkpt lat="50.773045" lon="7.052226">
      </trkpt>
      <trkpt lat="50.772636" lon="7.051562">
      </trkpt>
      <trkpt lat="50.773034" lon="7.050147">
      </trkpt>
      <trkpt lat="50.773548" lon="7.048832">
      </trkpt>
      <trkpt lat="50.77389" lon="7.047784">
      </trkpt>
      <trkpt lat="50.774329" lon="7.046922">
      </trkpt>
      <trkpt lat="50.775369" lon="7.044947">
      </trkpt>
      <trkpt lat="50.775761" lon="7.044194">
      </trkpt>
      <trkpt lat="50.777105" lon="7.041756">
      </trkpt>
      <trkpt lat="50.778202" lon="7.040105">
      </trkpt>
      <trkpt lat="50.779044" lon="7.039016">
      </trkpt>
      <trkpt lat="50.781269" lon="7.036555">
      </trkpt>
      <trkpt lat="50.781917" lon="7.035862">
      </trkpt>
      <trkpt lat="50.783669" lon="7.034158">
      </trkpt>
      <trkpt lat="50.784913" lon="7.03302">
      </trkpt>
      <trkpt lat="50.786181" lon="7.031937">
      </trkpt>
      <trkpt lat="50.786977" lon="7.031269">
      </trkpt>
      <trkpt lat="50.788362" lon="7.030258">
      </trkpt>
      <trkpt lat="50.789735" lon="7.029391">
      </trkpt>
      <trkpt lat="50.790406" lon="7.029085">
      </trkpt>
      <trkpt lat="50.792474" lon="7.028127">
      </trkpt>
      <trkpt lat="50.793207" lon="7.027991">
      </trkpt>
      <trkpt lat="50.79372" lon="7.027728">
      </trkpt>
      <trkpt lat="50.794367" lon="7.027384">
      </trkpt>
      <trkpt lat="50.795257" lon="7.027182">
      </trkpt>
      <trkpt lat="50.795855" lon="7.027036">
      </trkpt>
      <trkpt lat="50.796856" lon="7.026906">
      </trkpt>
      <trkpt lat="50.797508" lon="7.026926">
      </trkpt>
      <trkpt lat="50.799312" lon="7.026862">
      </trkpt>
      <trkpt lat="50.7999" lon="7.027003">
      </trkpt>
      <trkpt lat="50.800734" lon="7.027096">
      </trkpt>
      <trkpt lat="50.802261" lon="7.027151">
      </trkpt>
      <trkpt lat="50.803901" lon="7.027292">
      </trkpt>
      <trkpt lat="50.805014" lon="7.027306">
      </trkpt>
      <trkpt lat="50.805889" lon="7.027246">
      </trkpt>
      <trkpt lat="50.807472" lon="7.027122">
      </trkpt>
      <trkpt lat="50.808253" lon="7.027044">
      </trkpt>
      <trkpt lat="50.810157" lon="7.026651">
      </trkpt>
      <trkpt lat="50.810992" lon="7.026074">
      </trkpt>
      <trkpt lat="50.811929" lon="7.025465">
      </trkpt>
      <trkpt lat="50.813803" lon="7.024129">
      </trkpt>
      <trkpt lat="50.814476" lon="7.024039">
      </trkpt>
      <trkpt lat="50.81698" lon="7.022455">
      </trkpt>
      <trkpt lat="50.818068" lon="7.021211">
      </trkpt>
      <trkpt lat="50.818675" lon="7.020378">
      </trkpt>
      <trkpt lat="50.819397" lon="7.018979">
      </trkpt>
      <trkpt lat="50.819939" lon="7.017753">
      </trkpt>
      <trkpt lat="50.820672" lon="7.015896">
      </trkpt>
      <trkpt lat="50.821142" lon="7.014053">
      </trkpt>
      <trkpt lat="50.821395" lon="7.012626">
      </trkpt>
      <trkpt lat="50.821585" lon="7.011256">
      </trkpt>
      <trkpt lat="50.821745" lon="7.010337">
      </trkpt>
      <trkpt lat="50.821802" lon="7.009439">
      </trkpt>
      <trkpt lat="50.821809" lon="7.007409">
      </trkpt>
      <trkpt lat="50.821765" lon="7.006376">
      </trkpt>
      <trkpt lat="50.821837" lon="7.00449">
      </trkpt>
      <trkpt lat="50.821935" lon="7.001751">
      </trkpt>
      <trkpt lat="50.821915" lon="7.000691">
      </trkpt>
      <trkpt lat="50.82228" lon="6.99455">
      </trkpt>
      <trkpt lat="50.82243" lon="6.993241">
      </trkpt>
      <trkpt lat="50.822711" lon="6.991891">
      </trkpt>
      <trkpt lat="50.822927" lon="6.990944">
      </trkpt>
      <trkpt lat="50.823573" lon="6.989283">
      </trkpt>
      <trkpt lat="50.824078" lon="6.988893">
      </trkpt>
      <trkpt lat="50.824372" lon="6.988141">
      </trkpt>
      <trkpt lat="50.824678" lon="6.987288">
      </trkpt>
      <trkpt lat="50.825034" lon="6.986608">
      </trkpt>
      <trkpt lat="50.82549" lon="6.986074">
      </trkpt>
      <trkpt lat="50.827438" lon="6.992248">
      </trkpt>
      <trkpt lat="50.82744" lon="6.993569">
      </trkpt>
      <trkpt lat="50.827648" lon="6.992675">
      </trkpt>
      <trkpt lat="50.828092" lon="6.991677">
      </trkpt>
      <trkpt lat="50.828625" lon="6.990205">
      </trkpt>
      <trkpt lat="50.829113" lon="6.989104">
      </trkpt>
      <trkpt lat="50.829296" lon="6.988182">
      </trkpt>
      <trkpt lat="50.829933" lon="6.98701">
      </trkpt>
      <trkpt lat="50.830346" lon="6.986403">
      </trkpt>
      <trkpt lat="50.830958" lon="6.985725">
      </trkpt>
      <trkpt lat="50.831939" lon="6.984974">
      </trkpt>
      <trkpt lat="50.832695" lon="6.984623">
      </trkpt>
      <trkpt lat="50.833397" lon="6.98436">
      </trkpt>
      <trkpt lat="50.833993" lon="6.98421">
      </trkpt>
      <trkpt lat="50.834715" lon="6.983971">
      </trkpt>
      <trkpt lat="50.83575" lon="6.983942">
      </trkpt>
      <trkpt lat="50.836327" lon="6.982629">
      </trkpt>
      <trkpt lat="50.83614" lon="6.983975">
      </trkpt>
      <trkpt lat="50.835607" lon="6.986037">
      </trkpt>
      <trkpt lat="50.834671" lon="6.988136">
      </trkpt>
      <trkpt lat="50.833354" lon="6.990903">
      </trkpt>
      <trkpt lat="50.830303" lon="6.99339">
      </trkpt>
      <trkpt lat="50.8313" lon="6.994777">
      </trkpt>
      <trkpt lat="50.832149" lon="6.996242">
      </trkpt>
      <trkpt lat="50.833247" lon="6.998763">
      </trkpt>
      <trkpt lat="50.833607" lon="6.999776">
      </trkpt>
      <trkpt lat="50.834001" lon="7.001019">
      </trkpt>
      <trkpt lat="50.834356" lon="7.001742">
      </trkpt>
      <trkpt lat="50.835284" lon="7.004798">
      </trkpt>
      <trkpt lat="50.835727" lon="7.006172">
      </trkpt>
      <trkpt lat="50.836173" lon="7.00713">
      </trkpt>
      <trkpt lat="50.836787" lon="7.007591">
      </trkpt>
      <trkpt lat="50.83759" lon="7.00747">
      </trkpt>
      <trkpt lat="50.837911" lon="7.008227">
      </trkpt>
      <trkpt lat="50.838789" lon="7.009646">
      </trkpt>
      <trkpt lat="50.8396" lon="7.011207">
      </trkpt>
      <trkpt lat="50.839886" lon="7.012288">
      </trkpt>
      <trkpt lat="50.839805" lon="7.013646">
      </trkpt>
      <trkpt lat="50.83958" lon="7.017118">
      </trkpt>
      <trkpt lat="50.839393" lon="7.020121">
      </trkpt>
      <trkpt lat="50.839302" lon="7.021565">
      </trkpt>
      <trkpt lat="50.83919" lon="7.023375">
      </trkpt>
      <trkpt lat="50.838998" lon="7.02515">
      </trkpt>
      <trkpt lat="50.838831" lon="7.026607">
      </trkpt>
      <trkpt lat="50.837957" lon="7.026484">
      </trkpt>
      <trkpt lat="50.837353" lon="7.026371">
      </trkpt>
      <trkpt lat="50.836053" lon="7.02519">
      </trkpt>
      <trkpt lat="50.835561" lon="7.024686">
      </trkpt>
      <trkpt lat="50.835191" lon="7.025492">
      </trkpt>
      <trkpt lat="50.834275" lon="7.027403">
      </trkpt>
      <trkpt lat="50.833561" lon="7.026477">
      </trkpt>
      <trkpt lat="50.832949" lon="7.027805">
      </trkpt>
      <trkpt lat="50.833089" lon="7.029644">
      </trkpt>
      <trkpt lat="50.832523" lon="7.030412">
      </trkpt>
      <trkpt lat="50.83243" lon="7.031334">
      </trkpt>
      <trkpt lat="50.832546" lon="7.032283">
      </trkpt>
      <trkpt lat="50.831484" lon="7.033619">
      </trkpt>
      <trkpt lat="50.830978" lon="7.033958">
      </trkpt>
      <trkpt lat="50.830432" lon="7.034344">
      </trkpt>
      <trkpt lat="50.829779" lon="7.03481">
      </trkpt>
      <trkpt lat="50.829963" lon="7.035714">
      </trkpt>
      <trkpt lat="50.830361" lon="7.037562">
      </trkpt>
      <trkpt lat="50.830103" lon="7.036351">
      </trkpt>
      <trkpt lat="50.829239" lon="7.036524">
      </trkpt>
      <trkpt lat="50.826467" lon="7.037736">
      </trkpt>
      <trkpt lat="50.825576" lon="7.038128">
      </trkpt>
      <trkpt lat="50.825005" lon="7.038402">
      </trkpt>
      <trkpt lat="50.825674" lon="7.042543">
      </trkpt>
      <trkpt lat="50.825707" lon="7.043615">
      </trkpt>
      <trkpt lat="50.825308" lon="7.044267">
      </trkpt>
      <trkpt lat="50.822744" lon="7.045365">
      </trkpt>
      <trkpt lat="50.822295" lon="7.044666">
      </trkpt>
      <trkpt lat="50.822143" lon="7.045538">
      </trkpt>
      <trkpt lat="50.819987" lon="7.046204">
      </trkpt>
      <trkpt lat="50.818332" lon="7.046708">
      </trkpt>
      <trkpt lat="50.81838" lon="7.047564">
      </trkpt>
      <trkpt lat="50.818743" lon="7.049479">
      </trkpt>
      <trkpt lat="50.818978" lon="7.051505">
      </trkpt>
      <trkpt lat="50.818905" lon="7.053723">
      </trkpt>
      <trkpt lat="50.818399" lon="7.05543">
      </trkpt>
      <trkpt lat="50.818215" lon="7.056347">
      </trkpt>
      <trkpt lat="50.817907" lon="7.057981">
      </trkpt>
      <trkpt lat="50.817824" lon="7.058946">
      </trkpt>
      <trkpt lat="50.818097" lon="7.060376">
      </trkpt>
      <trkpt lat="50.81817" lon="7.061274">
      </trkpt>
      <trkpt lat="50.817659" lon="7.066856">
      </trkpt>
      <trkpt lat="50.816481" lon="7.066112">
      </trkpt>
      <trkpt lat="50.815962" lon="7.065561">
      </trkpt>
      <trkpt lat="50.81406" lon="7.064779">
      </trkpt>
      <trkpt lat="50.812075" lon="7.064185">
      </trkpt>
      <trkpt lat="50.811108" lon="7.063685">
      </trkpt>
      <trkpt lat="50.80995" lon="7.062056">
      </trkpt>
      <trkpt lat="50.808991" lon="7.060354">
      </trkpt>
      <trkpt lat="50.806311" lon="7.063871">
      </trkpt>
      <trkpt lat="50.804627" lon="7.065991">
      </trkpt>
      <trkpt lat="50.803121" lon="7.067744">
      </trkpt>
      <trkpt lat="50.801992" lon="7.069058">
      </trkpt>
      <trkpt lat="50.800911" lon="7.070366">
      </trkpt>
      <trkpt lat="50.799753" lon="7.071679">
      </trkpt>
      <trkpt lat="50.797769" lon="7.073998">
      </trkpt>
      <trkpt lat="50.796918" lon="7.074992">
      </trkpt>
      <trkpt lat="50.79498" lon="7.077267">
      </trkpt>
      <trkpt lat="50.792869" lon="7.079488">
      </trkpt>
      <trkpt lat="50.79204" lon="7.080409">
      </trkpt>
      <trkpt lat="50.791158" lon="7.08186">
      </trkpt>
      <trkpt lat="50.788612" lon="7.085763">
      </trkpt>
      <trkpt lat="50.78736" lon="7.087012">
      </trkpt>
      <trkpt lat="50.786327" lon="7.088062">
      </trkpt>
      <trkpt lat="50.784842" lon="7.084474">
      </trkpt>
      <trkpt lat="50.784198" lon="7.082994">
      </trkpt>
      <trkpt lat="50.783789" lon="7.082204">
      </trkpt>
      <trkpt lat="50.783043" lon="7.081201">
      </trkpt>
      <trkpt lat="50.781962" lon="7.082891">
      </trkpt>
      <trkpt lat="50.780912" lon="7.081778">
      </trkpt>
      <trkpt lat="50.780024" lon="7.080439">
      </trkpt>
      <trkpt lat="50.779432" lon="7.080846">
      </trkpt>
      <trkpt lat="50.778748" lon="7.081903">
      </trkpt>
      <trkpt lat="50.778368" lon="7.082548">
      </trkpt>
      <trkpt lat="50.77793" lon="7.083317">
      </trkpt>
      <trkpt lat="50.777506" lon="7.082185">
      </trkpt>
      <trkpt lat="50.776804" lon="7.083617">
      </trkpt>
      <trkpt lat="50.776493" lon="7.084319">
      </trkpt>
      <trkpt lat="50.77614" lon="7.085428">
      </trkpt>
      <trkpt lat="50.775872" lon="7.08617">
      </trkpt>
      <trkpt lat="50.775621" lon="7.087028">
      </trkpt>
      <trkpt lat="50.774975" lon="7.087743">
      </trkpt>
      <trkpt lat="50.774255" lon="7.08847">
      </trkpt>
      <trkpt lat="50.7737" lon="7.089109">
      </trkpt>
      <trkpt lat="50.772827" lon="7.090253">
      </trkpt>
      <trkpt lat="50.772468" lon="7.091011">
      </trkpt>
      <trkpt lat="50.772099" lon="7.092568">
      </trkpt>
      <trkpt lat="50.77193" lon="7.09384">
      </trkpt>
      <trkpt lat="50.771026" lon="7.093721">
      </trkpt>
      <trkpt lat="50.770416" lon="7.093888">
      </trkpt>
      <trkpt lat="50.769689" lon="7.093512">
      </trkpt>
      <trkpt lat="50.767784" lon="7.094907">
      </trkpt>
      <trkpt lat="50.767316" lon="7.095396">
      </trkpt>
      <trkpt lat="50.765569" lon="7.09722">
      </trkpt>
      <trkpt lat="50.764764" lon="7.097717">
      </trkpt>
      <trkpt lat="50.76421" lon="7.097787">
      </trkpt>
      <trkpt lat="50.764682" lon="7.098585">
      </trkpt>
      <trkpt lat="50.765522" lon="7.100672">
      </trkpt>
      <trkpt lat="50.766104" lon="7.103151">
      </trkpt>
      <trkpt lat="50.766546" lon="7.104718">
      </trkpt>
      <trkpt lat="50.767369" lon="7.104602">
      </trkpt>
      <trkpt lat="50.767584" lon="7.103783">
      </trkpt>
      <trkpt lat="50.766711" lon="7.10571">
      </trkpt>
      <trkpt lat="50.765901" lon="7.107332">
      </trkpt>
      <trkpt lat="50.765044" lon="7.108875">
      </trkpt>
      <trkpt lat="50.764237" lon="7.110204">
      </trkpt>
      <trkpt lat="50.763459" lon="7.11137">
      </trkpt>
      <trkpt lat="50.764084" lon="7.110991">
      </trkpt>
      <trkpt lat="50.764781" lon="7.110398">
      </trkpt>
      <trkpt lat="50.765039" lon="7.109089">
      </trkpt>
      <trkpt lat="50.764593" lon="7.108009">
      </trkpt>
      <trkpt lat="50.763788" lon="7.107608">
      </trkpt>
      <trkpt lat="50.763187" lon="7.107094">
      </trkpt>
      <trkpt lat="50.762624" lon="7.106405">
      </trkpt>
      <trkpt lat="50.76162" lon="7.106631">
      </trkpt>
      <trkpt lat="50.760975" lon="7.106715">
      </trkpt>
      <trkpt lat="50.760662" lon="7.105952">
      </trkpt>
      <trkpt lat="50.759805" lon="7.105129">
      </trkpt>
      <trkpt lat="50.759388" lon="7.104131">
      </trkpt>
      <trkpt lat="50.758928" lon="7.103401">
      </trkpt>
      <trkpt lat="50.759056" lon="7.102408">
      </trkpt>
      <trkpt lat="50.759198" lon="7.10141">
      </trkpt>
      <trkpt lat="50.7596" lon="7.100538">
      </trkpt>
      <trkpt lat="50.759959" lon="7.0998">
      </trkpt>
      <trkpt lat="50.760777" lon="7.097589">
      </trkpt>
      <trkpt lat="50.762538" lon="7.091523">
      </trkpt>
      <trkpt lat="50.760928" lon="7.097121">
      </trkpt>
      <trkpt lat="50.760131" lon="7.099377">
      </trkpt>
      <trkpt lat="50.7596" lon="7.100538">
      </trkpt>
      <trkpt lat="50.759198" lon="7.10141">
      </trkpt>
      <trkpt lat="50.759056" lon="7.102408">
      </trkpt>
      <trkpt lat="50.758059" lon="7.103342">
      </trkpt>
      <trkpt lat="50.757427" lon="7.102089">
      </trkpt>
      <trkpt lat="50.756789" lon="7.102966">
      </trkpt>
      <trkpt lat="50.75622" lon="7.103747">
      </trkpt>
      <trkpt lat="50.755181" lon="7.104905">
      </trkpt>
      <trkpt lat="50.754464" lon="7.105569">
      </trkpt>
      <trkpt lat="50.753735" lon="7.106153">
      </trkpt>
      <trkpt lat="50.753236" lon="7.106628">
      </trkpt>
      <trkpt lat="50.752423" lon="7.107348">
      </trkpt>
      <trkpt lat="50.751478" lon="7.107739">
      </trkpt>
      <trkpt lat="50.751706" lon="7.10852">
      </trkpt>
      <trkpt lat="50.750131" lon="7.109675">
      </trkpt>
      <trkpt lat="50.749593" lon="7.109965">
      </trkpt>
      <trkpt lat="50.748086" lon="7.110687">
      </trkpt>
      <trkpt lat="50.746905" lon="7.11138">
      </trkpt>
      <trkpt lat="50.745846" lon="7.111927">
      </trkpt>
      <trkpt lat="50.745201" lon="7.112089">
      </trkpt>
      <trkpt lat="50.742329" lon="7.11263">
      </trkpt>
      <trkpt lat="50.741752" lon="7.112603">
      </trkpt>
      <trkpt lat="50.741208" lon="7.112828">
      </trkpt>
      <trkpt lat="50.740466" lon="7.113008">
      </trkpt>
      <trkpt lat="50.739778" lon="7.112939">
      </trkpt>
      <trkpt lat="50.738815" lon="7.113125">
      </trkpt>
      <trkpt lat="50.739012" lon="7.114687">
      </trkpt>
      <trkpt lat="50.739133" lon="7.115623">
      </trkpt>
      <trkpt lat="50.738942" lon="7.114662">
      </trkpt>
      <trkpt lat="50.738757" lon="7.113346">
      </trkpt>
      <trkpt lat="50.738289" lon="7.110067">
      </trkpt>
      <trkpt lat="50.737833" lon="7.106791">
      </trkpt>
      <trkpt lat="50.73773" lon="7.105888">
      </trkpt>
    </trkseg>
  </trk>
</gpx>