<?xml version="1.0" encoding="UTF-8"?>
<gpx xmlns="http://www.topografix.com/GPX/1/1" xmlns:xsi="http://www.w3.org/2001/XMLSchema-instance" xsi:schemaLocation="http://www.topografix.com/GPX/1/1 http://www.topografix.com/GPX/1/1/gpx.xsd" version="1.1" creator="gpx.py -- https://github.com/tkrajina/gpxpy">
  <metadata>
    <name>040</name>
  </metadata>
  <trk>
    <name>040</name>
    <trkseg>
      <trkpt lat="50.734326" lon="7.103988">
      </trkpt>
      <trkpt lat="50.733769" lon="7.10391">
      </trkpt>
      <trkpt lat="50.733188" lon="7.103172">
      </trkpt>
      <trkpt lat="50.732619" lon="7.102447">
      </trkpt>
      <trkpt lat="50.732138" lon="7.101498">
      </trkpt>
      <trkpt lat="50.731709" lon="7.100973">
      </trkpt>
      <trkpt lat="50.731935" lon="7.10005">
      </trkpt>
      <trkpt lat="50.732145" lon="7.099024">
      </trkpt>
      <trkpt lat="50.731609" lon="7.099425">
      </trkpt>
      <trkpt lat="50.731128" lon="7.098938">
      </trkpt>
      <trkpt lat="50.729749" lon="7.097762">
      </trkpt>
      <trkpt lat="50.729151" lon="7.09764">
      </trkpt>
      <trkpt lat="50.728454" lon="7.096756">
      </trkpt>
      <trkpt lat="50.727956" lon="7.096109">
      </trkpt>
      <trkpt lat="50.727381" lon="7.095372">
      </trkpt>
      <trkpt lat="50.726815" lon="7.094648">
      </trkpt>
      <trkpt lat="50.726173" lon="7.094188">
      </trkpt>
      <trkpt lat="50.725587" lon="7.09474">
      </trkpt>
      <trkpt lat="50.725218" lon="7.095415">
      </trkpt>
      <trkpt lat="50.724381" lon="7.096387">
      </trkpt>
      <trkpt lat="50.723674" lon="7.095591">
      </trkpt>
      <trkpt lat="50.722998" lon="7.094847">
      </trkpt>
      <trkpt lat="50.722521" lon="7.094336">
      </trkpt>
      <trkpt lat="50.721755" lon="7.093539">
      </trkpt>
      <trkpt lat="50.721002" lon="7.092764">
      </trkpt>
      <trkpt lat="50.720515" lon="7.092259">
      </trkpt>
      <trkpt lat="50.719774" lon="7.091731">
      </trkpt>
      <trkpt lat="50.719448" lon="7.092525">
      </trkpt>
      <trkpt lat="50.71908" lon="7.094313">
      </trkpt>
      <trkpt lat="50.718615" lon="7.095685">
      </trkpt>
      <trkpt lat="50.718184" lon="7.096325">
      </trkpt>
      <trkpt lat="50.717631" lon="7.096557">
      </trkpt>
      <trkpt lat="50.718184" lon="7.095824">
      </trkpt>
      <trkpt lat="50.718344" lon="7.094976">
      </trkpt>
      <trkpt lat="50.718294" lon="7.093987">
      </trkpt>
      <trkpt lat="50.718159" lon="7.094824">
      </trkpt>
      <trkpt lat="50.717317" lon="7.095453">
      </trkpt>
      <trkpt lat="50.716615" lon="7.096596">
      </trkpt>
      <trkpt lat="50.716117" lon="7.097062">
      </trkpt>
      <trkpt lat="50.715709" lon="7.097981">
      </trkpt>
      <trkpt lat="50.715141" lon="7.098324">
      </trkpt>
      <trkpt lat="50.7146" lon="7.098987">
      </trkpt>
      <trkpt lat="50.714271" lon="7.099759">
      </trkpt>
      <trkpt lat="50.714475" lon="7.098195">
      </trkpt>
      <trkpt lat="50.714755" lon="7.096831">
      </trkpt>
      <trkpt lat="50.714638" lon="7.095831">
      </trkpt>
      <trkpt lat="50.713779" lon="7.095082">
      </trkpt>
      <trkpt lat="50.713895" lon="7.096087">
      </trkpt>
      <trkpt lat="50.71291" lon="7.09711">
      </trkpt>
      <trkpt lat="50.712288" lon="7.09764">
      </trkpt>
      <trkpt lat="50.711523" lon="7.097498">
      </trkpt>
      <trkpt lat="50.710868" lon="7.097704">
      </trkpt>
      <trkpt lat="50.708936" lon="7.097677">
      </trkpt>
      <trkpt lat="50.708186" lon="7.097663">
      </trkpt>
      <trkpt lat="50.707148" lon="7.09824">
      </trkpt>
      <trkpt lat="50.706559" lon="7.098527">
      </trkpt>
      <trkpt lat="50.706048" lon="7.099063">
      </trkpt>
      <trkpt lat="50.705928" lon="7.099983">
      </trkpt>
      <trkpt lat="50.705851" lon="7.101521">
      </trkpt>
      <trkpt lat="50.705593" lon="7.102557">
      </trkpt>
      <trkpt lat="50.705145" lon="7.103426">
      </trkpt>
      <trkpt lat="50.704239" lon="7.103624">
      </trkpt>
      <trkpt lat="50.703672" lon="7.104058">
      </trkpt>
      <trkpt lat="50.703018" lon="7.104459">
      </trkpt>
      <trkpt lat="50.70252" lon="7.104884">
      </trkpt>
      <trkpt lat="50.702044" lon="7.105695">
      </trkpt>
      <trkpt lat="50.701615" lon="7.10658">
      </trkpt>
      <trkpt lat="50.701241" lon="7.107247">
      </trkpt>
      <trkpt lat="50.700575" lon="7.107553">
      </trkpt>
      <trkpt lat="50.699805" lon="7.107807">
      </trkpt>
      <trkpt lat="50.699244" lon="7.107649">
      </trkpt>
      <trkpt lat="50.697455" lon="7.10836">
      </trkpt>
      <trkpt lat="50.696903" lon="7.108707">
      </trkpt>
      <trkpt lat="50.696197" lon="7.107486">
      </trkpt>
      <trkpt lat="50.69538" lon="7.105783">
      </trkpt>
      <trkpt lat="50.694916" lon="7.104812">
      </trkpt>
      <trkpt lat="50.694617" lon="7.104037">
      </trkpt>
      <trkpt lat="50.694177" lon="7.103244">
      </trkpt>
      <trkpt lat="50.693633" lon="7.102222">
      </trkpt>
      <trkpt lat="50.693127" lon="7.101193">
      </trkpt>
      <trkpt lat="50.692788" lon="7.100454">
      </trkpt>
      <trkpt lat="50.692341" lon="7.099604">
      </trkpt>
      <trkpt lat="50.691775" lon="7.098572">
      </trkpt>
      <trkpt lat="50.69131" lon="7.097476">
      </trkpt>
      <trkpt lat="50.690619" lon="7.095979">
      </trkpt>
      <trkpt lat="50.689968" lon="7.094712">
      </trkpt>
      <trkpt lat="50.689394" lon="7.093753">
      </trkpt>
      <trkpt lat="50.688921" lon="7.09281">
      </trkpt>
      <trkpt lat="50.688638" lon="7.091996">
      </trkpt>
      <trkpt lat="50.688104" lon="7.09108">
      </trkpt>
      <trkpt lat="50.687821" lon="7.09019">
      </trkpt>
      <trkpt lat="50.686429" lon="7.087388">
      </trkpt>
      <trkpt lat="50.685855" lon="7.086231">
      </trkpt>
      <trkpt lat="50.684871" lon="7.084251">
      </trkpt>
      <trkpt lat="50.684364" lon="7.083714">
      </trkpt>
      <trkpt lat="50.683692" lon="7.083871">
      </trkpt>
      <trkpt lat="50.683114" lon="7.083996">
      </trkpt>
      <trkpt lat="50.682435" lon="7.084343">
      </trkpt>
      <trkpt lat="50.68181" lon="7.084778">
      </trkpt>
      <trkpt lat="50.681443" lon="7.085561">
      </trkpt>
      <trkpt lat="50.680644" lon="7.085788">
      </trkpt>
      <trkpt lat="50.680036" lon="7.086061">
      </trkpt>
      <trkpt lat="50.679242" lon="7.086279">
      </trkpt>
      <trkpt lat="50.678525" lon="7.086157">
      </trkpt>
      <trkpt lat="50.677929" lon="7.085713">
      </trkpt>
      <trkpt lat="50.677045" lon="7.084835">
      </trkpt>
      <trkpt lat="50.67644" lon="7.084399">
      </trkpt>
      <trkpt lat="50.675827" lon="7.084133">
      </trkpt>
      <trkpt lat="50.674776" lon="7.083894">
      </trkpt>
      <trkpt lat="50.674091" lon="7.084173">
      </trkpt>
      <trkpt lat="50.673241" lon="7.083752">
      </trkpt>
      <trkpt lat="50.67271" lon="7.083114">
      </trkpt>
      <trkpt lat="50.672089" lon="7.082508">
      </trkpt>
      <trkpt lat="50.671639" lon="7.082021">
      </trkpt>
      <trkpt lat="50.66901" lon="7.084142">
      </trkpt>
      <trkpt lat="50.668555" lon="7.082766">
      </trkpt>
      <trkpt lat="50.66784" lon="7.080565">
      </trkpt>
      <trkpt lat="50.666333" lon="7.075916">
      </trkpt>
      <trkpt lat="50.664665" lon="7.070895">
      </trkpt>
      <trkpt lat="50.662837" lon="7.065362">
      </trkpt>
      <trkpt lat="50.658561" lon="7.064082">
      </trkpt>
      <trkpt lat="50.65437" lon="7.062802">
      </trkpt>
      <trkpt lat="50.654075" lon="7.063683">
      </trkpt>
      <trkpt lat="50.654025" lon="7.065976">
      </trkpt>
      <trkpt lat="50.656287" lon="7.080044">
      </trkpt>
      <trkpt lat="50.657861" lon="7.088189">
      </trkpt>
      <trkpt lat="50.65925" lon="7.095242">
      </trkpt>
      <trkpt lat="50.659455" lon="7.096101">
      </trkpt>
      <trkpt lat="50.661218" lon="7.098729">
      </trkpt>
      <trkpt lat="50.659425" lon="7.100133">
      </trkpt>
      <trkpt lat="50.657421" lon="7.101682">
      </trkpt>
      <trkpt lat="50.657646" lon="7.103627">
      </trkpt>
      <trkpt lat="50.659253" lon="7.104985">
      </trkpt>
      <trkpt lat="50.659729" lon="7.105424">
      </trkpt>
      <trkpt lat="50.660161" lon="7.106942">
      </trkpt>
      <trkpt lat="50.661037" lon="7.108045">
      </trkpt>
      <trkpt lat="50.66201" lon="7.108869">
      </trkpt>
      <trkpt lat="50.662523" lon="7.109684">
      </trkpt>
      <trkpt lat="50.662887" lon="7.111156">
      </trkpt>
      <trkpt lat="50.661663" lon="7.116113">
      </trkpt>
      <trkpt lat="50.66226" lon="7.11647">
      </trkpt>
      <trkpt lat="50.663103" lon="7.116852">
      </trkpt>
      <trkpt lat="50.664924" lon="7.120157">
      </trkpt>
      <trkpt lat="50.666132" lon="7.122094">
      </trkpt>
      <trkpt lat="50.668316" lon="7.119372">
      </trkpt>
      <trkpt lat="50.669993" lon="7.117175">
      </trkpt>
      <trkpt lat="50.670478" lon="7.116181">
      </trkpt>
      <trkpt lat="50.673491" lon="7.114942">
      </trkpt>
      <trkpt lat="50.674106" lon="7.115095">
      </trkpt>
      <trkpt lat="50.675675" lon="7.115487">
      </trkpt>
      <trkpt lat="50.676525" lon="7.116115">
      </trkpt>
      <trkpt lat="50.67644" lon="7.113757">
      </trkpt>
      <trkpt lat="50.676343" lon="7.111634">
      </trkpt>
      <trkpt lat="50.676801" lon="7.107836">
      </trkpt>
      <trkpt lat="50.677434" lon="7.103189">
      </trkpt>
      <trkpt lat="50.677614" lon="7.101657">
      </trkpt>
      <trkpt lat="50.678016" lon="7.098942">
      </trkpt>
      <trkpt lat="50.678724" lon="7.093733">
      </trkpt>
      <trkpt lat="50.679348" lon="7.093229">
      </trkpt>
      <trkpt lat="50.681692" lon="7.09155">
      </trkpt>
      <trkpt lat="50.684341" lon="7.089753">
      </trkpt>
      <trkpt lat="50.685085" lon="7.091532">
      </trkpt>
      <trkpt lat="50.685408" lon="7.092327">
      </trkpt>
      <trkpt lat="50.685833" lon="7.094187">
      </trkpt>
      <trkpt lat="50.686046" lon="7.095324">
      </trkpt>
      <trkpt lat="50.686328" lon="7.096243">
      </trkpt>
      <trkpt lat="50.686063" lon="7.103953">
      </trkpt>
      <trkpt lat="50.686103" lon="7.10534">
      </trkpt>
      <trkpt lat="50.686278" lon="7.106255">
      </trkpt>
      <trkpt lat="50.686433" lon="7.107227">
      </trkpt>
      <trkpt lat="50.6874" lon="7.108148">
      </trkpt>
      <trkpt lat="50.68611" lon="7.110248">
      </trkpt>
      <trkpt lat="50.683526" lon="7.114443">
      </trkpt>
      <trkpt lat="50.683151" lon="7.115345">
      </trkpt>
      <trkpt lat="50.682644" lon="7.116548">
      </trkpt>
      <trkpt lat="50.682065" lon="7.117767">
      </trkpt>
      <trkpt lat="50.681978" lon="7.118711">
      </trkpt>
      <trkpt lat="50.682707" lon="7.119232">
      </trkpt>
      <trkpt lat="50.684697" lon="7.120471">
      </trkpt>
      <trkpt lat="50.685449" lon="7.121326">
      </trkpt>
      <trkpt lat="50.68647" lon="7.12307">
      </trkpt>
      <trkpt lat="50.687455" lon="7.12425">
      </trkpt>
      <trkpt lat="50.687864" lon="7.124835">
      </trkpt>
      <trkpt lat="50.688305" lon="7.12557">
      </trkpt>
      <trkpt lat="50.688859" lon="7.126227">
      </trkpt>
      <trkpt lat="50.688289" lon="7.12658">
      </trkpt>
      <trkpt lat="50.687689" lon="7.126356">
      </trkpt>
      <trkpt lat="50.687283" lon="7.127068">
      </trkpt>
      <trkpt lat="50.686776" lon="7.126705">
      </trkpt>
      <trkpt lat="50.687124" lon="7.127561">
      </trkpt>
      <trkpt lat="50.687674" lon="7.128321">
      </trkpt>
      <trkpt lat="50.688227" lon="7.12864">
      </trkpt>
      <trkpt lat="50.688981" lon="7.129512">
      </trkpt>
      <trkpt lat="50.689574" lon="7.129658">
      </trkpt>
      <trkpt lat="50.690067" lon="7.130033">
      </trkpt>
      <trkpt lat="50.690786" lon="7.130447">
      </trkpt>
      <trkpt lat="50.691359" lon="7.130952">
      </trkpt>
      <trkpt lat="50.692007" lon="7.131123">
      </trkpt>
      <trkpt lat="50.692788" lon="7.13201">
      </trkpt>
      <trkpt lat="50.693523" lon="7.132914">
      </trkpt>
      <trkpt lat="50.69416" lon="7.134042">
      </trkpt>
      <trkpt lat="50.694971" lon="7.135907">
      </trkpt>
      <trkpt lat="50.69531" lon="7.136718">
      </trkpt>
      <trkpt lat="50.695906" lon="7.138124">
      </trkpt>
      <trkpt lat="50.696255" lon="7.13894">
      </trkpt>
      <trkpt lat="50.696675" lon="7.139893">
      </trkpt>
      <trkpt lat="50.697079" lon="7.140835">
      </trkpt>
      <trkpt lat="50.697197" lon="7.141856">
      </trkpt>
      <trkpt lat="50.697355" lon="7.142743">
      </trkpt>
      <trkpt lat="50.697883" lon="7.143935">
      </trkpt>
      <trkpt lat="50.698219" lon="7.144664">
      </trkpt>
      <trkpt lat="50.699116" lon="7.146448">
      </trkpt>
      <trkpt lat="50.69949" lon="7.147177">
      </trkpt>
      <trkpt lat="50.70011" lon="7.148161">
      </trkpt>
      <trkpt lat="50.700636" lon="7.148909">
      </trkpt>
      <trkpt lat="50.701086" lon="7.149638">
      </trkpt>
      <trkpt lat="50.70152" lon="7.150486">
      </trkpt>
      <trkpt lat="50.702088" lon="7.15159">
      </trkpt>
      <trkpt lat="50.70252" lon="7.15221">
      </trkpt>
      <trkpt lat="50.703089" lon="7.152095">
      </trkpt>
      <trkpt lat="50.703583" lon="7.152535">
      </trkpt>
      <trkpt lat="50.704217" lon="7.152561">
      </trkpt>
      <trkpt lat="50.704806" lon="7.151901">
      </trkpt>
      <trkpt lat="50.705322" lon="7.15159">
      </trkpt>
      <trkpt lat="50.705403" lon="7.150526">
      </trkpt>
      <trkpt lat="50.705186" lon="7.149517">
      </trkpt>
      <trkpt lat="50.705185" lon="7.148525">
      </trkpt>
      <trkpt lat="50.705685" lon="7.148083">
      </trkpt>
      <trkpt lat="50.70646" lon="7.148143">
      </trkpt>
      <trkpt lat="50.707004" lon="7.148547">
      </trkpt>
      <trkpt lat="50.707581" lon="7.148611">
      </trkpt>
      <trkpt lat="50.70806" lon="7.1478">
      </trkpt>
      <trkpt lat="50.707927" lon="7.146863">
      </trkpt>
      <trkpt lat="50.707645" lon="7.145852">
      </trkpt>
      <trkpt lat="50.708108" lon="7.145032">
      </trkpt>
      <trkpt lat="50.709147" lon="7.144756">
      </trkpt>
      <trkpt lat="50.710072" lon="7.145306">
      </trkpt>
      <trkpt lat="50.710886" lon="7.145593">
      </trkpt>
      <trkpt lat="50.711442" lon="7.145499">
      </trkpt>
      <trkpt lat="50.711672" lon="7.144387">
      </trkpt>
      <trkpt lat="50.712118" lon="7.14354">
      </trkpt>
      <trkpt lat="50.712725" lon="7.142749">
      </trkpt>
      <trkpt lat="50.713418" lon="7.141985">
      </trkpt>
      <trkpt lat="50.713917" lon="7.140809">
      </trkpt>
      <trkpt lat="50.71416" lon="7.139877">
      </trkpt>
      <trkpt lat="50.71453" lon="7.139083">
      </trkpt>
      <trkpt lat="50.715084" lon="7.139316">
      </trkpt>
      <trkpt lat="50.715691" lon="7.139551">
      </trkpt>
      <trkpt lat="50.716277" lon="7.13954">
      </trkpt>
      <trkpt lat="50.716733" lon="7.138982">
      </trkpt>
      <trkpt lat="50.717288" lon="7.137064">
      </trkpt>
      <trkpt lat="50.717621" lon="7.135722">
      </trkpt>
      <trkpt lat="50.717937" lon="7.134393">
      </trkpt>
      <trkpt lat="50.718168" lon="7.133254">
      </trkpt>
      <trkpt lat="50.718401" lon="7.132125">
      </trkpt>
      <trkpt lat="50.718676" lon="7.130738">
      </trkpt>
      <trkpt lat="50.718856" lon="7.129833">
      </trkpt>
      <trkpt lat="50.719073" lon="7.128843">
      </trkpt>
      <trkpt lat="50.719587" lon="7.126695">
      </trkpt>
      <trkpt lat="50.719859" lon="7.125743">
      </trkpt>
      <trkpt lat="50.720185" lon="7.124757">
      </trkpt>
      <trkpt lat="50.720912" lon="7.12284">
      </trkpt>
      <trkpt lat="50.721427" lon="7.121617">
      </trkpt>
      <trkpt lat="50.722446" lon="7.119719">
      </trkpt>
      <trkpt lat="50.723829" lon="7.117462">
      </trkpt>
      <trkpt lat="50.725152" lon="7.115492">
      </trkpt>
      <trkpt lat="50.725684" lon="7.11475">
      </trkpt>
      <trkpt lat="50.727075" lon="7.113114">
      </trkpt>
      <trkpt lat="50.727889" lon="7.112297">
      </trkpt>
      <trkpt lat="50.72845" lon="7.111791">
      </trkpt>
      <trkpt lat="50.729885" lon="7.110769">
      </trkpt>
      <trkpt lat="50.731859" lon="7.109381">
      </trkpt>
      <trkpt lat="50.732484" lon="7.109346">
      </trkpt>
      <trkpt lat="50.734562" lon="7.108362">
      </trkpt>
      <trkpt lat="50.735524" lon="7.107799">
      </trkpt>
      <trkpt lat="50.736107" lon="7.107553">
      </trkpt>
      <trkpt lat="50.736131" lon="7.106686">
      </trkpt>
      <trkpt lat="50.735939" lon="7.105724">
      </trkpt>
      <trkpt lat="50.735408" lon="7.105209">
      </trkpt>
      <trkpt lat="50.734693" lon="7.105412">
      </trkpt>
      <trkpt lat="50.73444" lon="7.104193">
      </trkpt>
    </trkseg>
  </trk>
</gpx>