<?xml version="1.0" encoding="UTF-8"?>
<gpx xmlns="http://www.topografix.com/GPX/1/1" xmlns:xsi="http://www.w3.org/2001/XMLSchema-instance" xsi:schemaLocation="http://www.topografix.com/GPX/1/1 http://www.topografix.com/GPX/1/1/gpx.xsd" version="1.1" creator="gpx.py -- https://github.com/tkrajina/gpxpy">
  <metadata>
    <name>041</name>
  </metadata>
  <trk>
    <name>041</name>
    <trkseg>
      <trkpt lat="50.734282" lon="7.104054">
      </trkpt>
      <trkpt lat="50.734998" lon="7.104011">
      </trkpt>
      <trkpt lat="50.73552" lon="7.104395">
      </trkpt>
      <trkpt lat="50.736176" lon="7.104756">
      </trkpt>
      <trkpt lat="50.736801" lon="7.10427">
      </trkpt>
      <trkpt lat="50.737358" lon="7.104709">
      </trkpt>
      <trkpt lat="50.737469" lon="7.105598">
      </trkpt>
      <trkpt lat="50.73765" lon="7.106707">
      </trkpt>
      <trkpt lat="50.738118" lon="7.110063">
      </trkpt>
      <trkpt lat="50.738574" lon="7.11341">
      </trkpt>
      <trkpt lat="50.738727" lon="7.114479">
      </trkpt>
      <trkpt lat="50.738828" lon="7.115368">
      </trkpt>
      <trkpt lat="50.739101" lon="7.117247">
      </trkpt>
      <trkpt lat="50.739031" lon="7.118315">
      </trkpt>
      <trkpt lat="50.738463" lon="7.118744">
      </trkpt>
      <trkpt lat="50.737584" lon="7.119483">
      </trkpt>
      <trkpt lat="50.737194" lon="7.120152">
      </trkpt>
      <trkpt lat="50.737061" lon="7.121211">
      </trkpt>
      <trkpt lat="50.736535" lon="7.122273">
      </trkpt>
      <trkpt lat="50.736141" lon="7.122886">
      </trkpt>
      <trkpt lat="50.735661" lon="7.123398">
      </trkpt>
      <trkpt lat="50.734983" lon="7.124149">
      </trkpt>
      <trkpt lat="50.734353" lon="7.125184">
      </trkpt>
      <trkpt lat="50.733765" lon="7.126012">
      </trkpt>
      <trkpt lat="50.733289" lon="7.126661">
      </trkpt>
      <trkpt lat="50.7326" lon="7.127582">
      </trkpt>
      <trkpt lat="50.731836" lon="7.128619">
      </trkpt>
      <trkpt lat="50.731413" lon="7.129291">
      </trkpt>
      <trkpt lat="50.731045" lon="7.12996">
      </trkpt>
      <trkpt lat="50.730543" lon="7.131024">
      </trkpt>
      <trkpt lat="50.730276" lon="7.131908">
      </trkpt>
      <trkpt lat="50.729849" lon="7.132511">
      </trkpt>
      <trkpt lat="50.729298" lon="7.133746">
      </trkpt>
      <trkpt lat="50.72918" lon="7.134811">
      </trkpt>
      <trkpt lat="50.728892" lon="7.135997">
      </trkpt>
      <trkpt lat="50.728425" lon="7.137974">
      </trkpt>
      <trkpt lat="50.728091" lon="7.139012">
      </trkpt>
      <trkpt lat="50.728204" lon="7.139912">
      </trkpt>
      <trkpt lat="50.72786" lon="7.141022">
      </trkpt>
      <trkpt lat="50.727164" lon="7.141675">
      </trkpt>
      <trkpt lat="50.725862" lon="7.144309">
      </trkpt>
      <trkpt lat="50.725897" lon="7.145441">
      </trkpt>
      <trkpt lat="50.725528" lon="7.146213">
      </trkpt>
      <trkpt lat="50.725047" lon="7.148412">
      </trkpt>
      <trkpt lat="50.72475" lon="7.149357">
      </trkpt>
      <trkpt lat="50.72417" lon="7.150959">
      </trkpt>
      <trkpt lat="50.723817" lon="7.152017">
      </trkpt>
      <trkpt lat="50.723518" lon="7.153049">
      </trkpt>
      <trkpt lat="50.723018" lon="7.154802">
      </trkpt>
      <trkpt lat="50.722819" lon="7.155649">
      </trkpt>
      <trkpt lat="50.72215" lon="7.15651">
      </trkpt>
      <trkpt lat="50.72271" lon="7.157671">
      </trkpt>
      <trkpt lat="50.723334" lon="7.158538">
      </trkpt>
      <trkpt lat="50.722808" lon="7.159347">
      </trkpt>
      <trkpt lat="50.722892" lon="7.160423">
      </trkpt>
      <trkpt lat="50.722921" lon="7.161361">
      </trkpt>
      <trkpt lat="50.722721" lon="7.162617">
      </trkpt>
      <trkpt lat="50.722517" lon="7.163719">
      </trkpt>
      <trkpt lat="50.722088" lon="7.164419">
      </trkpt>
      <trkpt lat="50.721549" lon="7.164697">
      </trkpt>
      <trkpt lat="50.721466" lon="7.165757">
      </trkpt>
      <trkpt lat="50.72171" lon="7.16653">
      </trkpt>
      <trkpt lat="50.721154" lon="7.167197">
      </trkpt>
      <trkpt lat="50.720102" lon="7.168161">
      </trkpt>
      <trkpt lat="50.718598" lon="7.169959">
      </trkpt>
      <trkpt lat="50.719452" lon="7.170172">
      </trkpt>
      <trkpt lat="50.719708" lon="7.16924">
      </trkpt>
      <trkpt lat="50.720178" lon="7.168646">
      </trkpt>
      <trkpt lat="50.720808" lon="7.168572">
      </trkpt>
      <trkpt lat="50.721393" lon="7.168481">
      </trkpt>
      <trkpt lat="50.721512" lon="7.169768">
      </trkpt>
      <trkpt lat="50.721104" lon="7.171435">
      </trkpt>
      <trkpt lat="50.721019" lon="7.172414">
      </trkpt>
      <trkpt lat="50.720533" lon="7.174133">
      </trkpt>
      <trkpt lat="50.720058" lon="7.17521">
      </trkpt>
      <trkpt lat="50.719448" lon="7.176506">
      </trkpt>
      <trkpt lat="50.719151" lon="7.177228">
      </trkpt>
      <trkpt lat="50.718725" lon="7.178191">
      </trkpt>
      <trkpt lat="50.718393" lon="7.179263">
      </trkpt>
      <trkpt lat="50.717889" lon="7.181516">
      </trkpt>
      <trkpt lat="50.717564" lon="7.183326">
      </trkpt>
      <trkpt lat="50.717589" lon="7.184317">
      </trkpt>
      <trkpt lat="50.717434" lon="7.185815">
      </trkpt>
      <trkpt lat="50.717175" lon="7.187167">
      </trkpt>
      <trkpt lat="50.716739" lon="7.188314">
      </trkpt>
      <trkpt lat="50.716218" lon="7.188981">
      </trkpt>
      <trkpt lat="50.71571" lon="7.189627">
      </trkpt>
      <trkpt lat="50.715116" lon="7.191039">
      </trkpt>
      <trkpt lat="50.714738" lon="7.191856">
      </trkpt>
      <trkpt lat="50.71428" lon="7.193234">
      </trkpt>
      <trkpt lat="50.713515" lon="7.194997">
      </trkpt>
      <trkpt lat="50.713181" lon="7.195751">
      </trkpt>
      <trkpt lat="50.71312" lon="7.196643">
      </trkpt>
      <trkpt lat="50.712797" lon="7.197467">
      </trkpt>
      <trkpt lat="50.712306" lon="7.198467">
      </trkpt>
      <trkpt lat="50.711988" lon="7.199241">
      </trkpt>
      <trkpt lat="50.711487" lon="7.199562">
      </trkpt>
      <trkpt lat="50.711609" lon="7.200398">
      </trkpt>
      <trkpt lat="50.711264" lon="7.20134">
      </trkpt>
      <trkpt lat="50.710741" lon="7.201895">
      </trkpt>
      <trkpt lat="50.709723" lon="7.203013">
      </trkpt>
      <trkpt lat="50.708749" lon="7.202139">
      </trkpt>
      <trkpt lat="50.707982" lon="7.202695">
      </trkpt>
      <trkpt lat="50.707362" lon="7.203794">
      </trkpt>
      <trkpt lat="50.706755" lon="7.204196">
      </trkpt>
      <trkpt lat="50.706037" lon="7.204585">
      </trkpt>
      <trkpt lat="50.705241" lon="7.205345">
      </trkpt>
      <trkpt lat="50.704577" lon="7.206258">
      </trkpt>
      <trkpt lat="50.704391" lon="7.2073">
      </trkpt>
      <trkpt lat="50.704333" lon="7.208423">
      </trkpt>
      <trkpt lat="50.704281" lon="7.210002">
      </trkpt>
      <trkpt lat="50.703668" lon="7.210801">
      </trkpt>
      <trkpt lat="50.703212" lon="7.21134">
      </trkpt>
      <trkpt lat="50.702097" lon="7.211461">
      </trkpt>
      <trkpt lat="50.70166" lon="7.212008">
      </trkpt>
      <trkpt lat="50.700051" lon="7.212451">
      </trkpt>
      <trkpt lat="50.698631" lon="7.213112">
      </trkpt>
      <trkpt lat="50.697964" lon="7.213651">
      </trkpt>
      <trkpt lat="50.697762" lon="7.214637">
      </trkpt>
      <trkpt lat="50.697218" lon="7.21605">
      </trkpt>
      <trkpt lat="50.696832" lon="7.217105">
      </trkpt>
      <trkpt lat="50.696576" lon="7.218117">
      </trkpt>
      <trkpt lat="50.696489" lon="7.219108">
      </trkpt>
      <trkpt lat="50.696365" lon="7.220274">
      </trkpt>
      <trkpt lat="50.694909" lon="7.221495">
      </trkpt>
      <trkpt lat="50.694526" lon="7.222232">
      </trkpt>
      <trkpt lat="50.694007" lon="7.222876">
      </trkpt>
      <trkpt lat="50.693517" lon="7.222298">
      </trkpt>
      <trkpt lat="50.692957" lon="7.222177">
      </trkpt>
      <trkpt lat="50.692029" lon="7.222203">
      </trkpt>
      <trkpt lat="50.691153" lon="7.222395">
      </trkpt>
      <trkpt lat="50.689763" lon="7.223327">
      </trkpt>
      <trkpt lat="50.689058" lon="7.22368">
      </trkpt>
      <trkpt lat="50.688672" lon="7.222289">
      </trkpt>
      <trkpt lat="50.688179" lon="7.222699">
      </trkpt>
      <trkpt lat="50.687646" lon="7.224267">
      </trkpt>
      <trkpt lat="50.687165" lon="7.225325">
      </trkpt>
      <trkpt lat="50.686805" lon="7.226103">
      </trkpt>
      <trkpt lat="50.686431" lon="7.22681">
      </trkpt>
      <trkpt lat="50.686096" lon="7.227869">
      </trkpt>
      <trkpt lat="50.685794" lon="7.228856">
      </trkpt>
      <trkpt lat="50.685601" lon="7.229859">
      </trkpt>
      <trkpt lat="50.685159" lon="7.230957">
      </trkpt>
      <trkpt lat="50.684754" lon="7.231574">
      </trkpt>
      <trkpt lat="50.683932" lon="7.23227">
      </trkpt>
      <trkpt lat="50.682993" lon="7.232568">
      </trkpt>
      <trkpt lat="50.682162" lon="7.232703">
      </trkpt>
      <trkpt lat="50.681674" lon="7.233216">
      </trkpt>
      <trkpt lat="50.680894" lon="7.234406">
      </trkpt>
      <trkpt lat="50.680282" lon="7.234765">
      </trkpt>
      <trkpt lat="50.680285" lon="7.235911">
      </trkpt>
      <trkpt lat="50.680256" lon="7.236921">
      </trkpt>
      <trkpt lat="50.679996" lon="7.2379">
      </trkpt>
      <trkpt lat="50.67993" lon="7.239243">
      </trkpt>
      <trkpt lat="50.679814" lon="7.240155">
      </trkpt>
      <trkpt lat="50.68005" lon="7.24096">
      </trkpt>
      <trkpt lat="50.680634" lon="7.24204">
      </trkpt>
      <trkpt lat="50.680914" lon="7.243501">
      </trkpt>
      <trkpt lat="50.680276" lon="7.243669">
      </trkpt>
      <trkpt lat="50.679877" lon="7.244633">
      </trkpt>
      <trkpt lat="50.679242" lon="7.245643">
      </trkpt>
      <trkpt lat="50.678633" lon="7.245777">
      </trkpt>
      <trkpt lat="50.67827" lon="7.246525">
      </trkpt>
      <trkpt lat="50.677733" lon="7.247197">
      </trkpt>
      <trkpt lat="50.677415" lon="7.248175">
      </trkpt>
      <trkpt lat="50.676788" lon="7.248811">
      </trkpt>
      <trkpt lat="50.675516" lon="7.250029">
      </trkpt>
      <trkpt lat="50.674802" lon="7.250806">
      </trkpt>
      <trkpt lat="50.674408" lon="7.249907">
      </trkpt>
      <trkpt lat="50.674269" lon="7.248431">
      </trkpt>
      <trkpt lat="50.674233" lon="7.247379">
      </trkpt>
      <trkpt lat="50.67423" lon="7.246145">
      </trkpt>
      <trkpt lat="50.67444" lon="7.244921">
      </trkpt>
      <trkpt lat="50.674535" lon="7.243526">
      </trkpt>
      <trkpt lat="50.674059" lon="7.241539">
      </trkpt>
      <trkpt lat="50.673777" lon="7.240763">
      </trkpt>
      <trkpt lat="50.67335" lon="7.241399">
      </trkpt>
      <trkpt lat="50.672736" lon="7.241266">
      </trkpt>
      <trkpt lat="50.672667" lon="7.240048">
      </trkpt>
      <trkpt lat="50.672941" lon="7.239173">
      </trkpt>
      <trkpt lat="50.672983" lon="7.237968">
      </trkpt>
      <trkpt lat="50.67276" lon="7.237037">
      </trkpt>
      <trkpt lat="50.673076" lon="7.236232">
      </trkpt>
      <trkpt lat="50.672718" lon="7.235449">
      </trkpt>
      <trkpt lat="50.67248" lon="7.234372">
      </trkpt>
      <trkpt lat="50.672382" lon="7.233361">
      </trkpt>
      <trkpt lat="50.671957" lon="7.23257">
      </trkpt>
      <trkpt lat="50.672278" lon="7.231504">
      </trkpt>
      <trkpt lat="50.67241" lon="7.23001">
      </trkpt>
      <trkpt lat="50.672093" lon="7.229189">
      </trkpt>
      <trkpt lat="50.672055" lon="7.22816">
      </trkpt>
      <trkpt lat="50.672188" lon="7.227222">
      </trkpt>
      <trkpt lat="50.672681" lon="7.226304">
      </trkpt>
      <trkpt lat="50.673301" lon="7.22525">
      </trkpt>
      <trkpt lat="50.67375" lon="7.224084">
      </trkpt>
      <trkpt lat="50.673509" lon="7.223282">
      </trkpt>
      <trkpt lat="50.672878" lon="7.222789">
      </trkpt>
      <trkpt lat="50.67226" lon="7.22266">
      </trkpt>
      <trkpt lat="50.671515" lon="7.222646">
      </trkpt>
      <trkpt lat="50.670865" lon="7.221713">
      </trkpt>
      <trkpt lat="50.670403" lon="7.220966">
      </trkpt>
      <trkpt lat="50.669882" lon="7.219495">
      </trkpt>
      <trkpt lat="50.669542" lon="7.218828">
      </trkpt>
      <trkpt lat="50.669273" lon="7.217966">
      </trkpt>
      <trkpt lat="50.66973" lon="7.216737">
      </trkpt>
      <trkpt lat="50.669839" lon="7.215193">
      </trkpt>
      <trkpt lat="50.669656" lon="7.214316">
      </trkpt>
      <trkpt lat="50.669281" lon="7.213021">
      </trkpt>
      <trkpt lat="50.668476" lon="7.212065">
      </trkpt>
      <trkpt lat="50.667835" lon="7.212048">
      </trkpt>
      <trkpt lat="50.666914" lon="7.211721">
      </trkpt>
      <trkpt lat="50.666269" lon="7.211429">
      </trkpt>
      <trkpt lat="50.666133" lon="7.210573">
      </trkpt>
      <trkpt lat="50.665452" lon="7.210886">
      </trkpt>
      <trkpt lat="50.664821" lon="7.210885">
      </trkpt>
      <trkpt lat="50.665445" lon="7.210367">
      </trkpt>
      <trkpt lat="50.664903" lon="7.210728">
      </trkpt>
      <trkpt lat="50.665452" lon="7.210886">
      </trkpt>
      <trkpt lat="50.666022" lon="7.210379">
      </trkpt>
      <trkpt lat="50.665956" lon="7.211334">
      </trkpt>
      <trkpt lat="50.666462" lon="7.210599">
      </trkpt>
      <trkpt lat="50.66689" lon="7.21136">
      </trkpt>
      <trkpt lat="50.667679" lon="7.211589">
      </trkpt>
      <trkpt lat="50.668428" lon="7.211324">
      </trkpt>
      <trkpt lat="50.669101" lon="7.211465">
      </trkpt>
      <trkpt lat="50.669706" lon="7.210933">
      </trkpt>
      <trkpt lat="50.670315" lon="7.211212">
      </trkpt>
      <trkpt lat="50.670757" lon="7.212012">
      </trkpt>
      <trkpt lat="50.671299" lon="7.211166">
      </trkpt>
      <trkpt lat="50.671642" lon="7.210387">
      </trkpt>
      <trkpt lat="50.671652" lon="7.209484">
      </trkpt>
      <trkpt lat="50.671684" lon="7.208505">
      </trkpt>
      <trkpt lat="50.671931" lon="7.207455">
      </trkpt>
      <trkpt lat="50.672339" lon="7.206486">
      </trkpt>
      <trkpt lat="50.672925" lon="7.205951">
      </trkpt>
      <trkpt lat="50.673526" lon="7.205651">
      </trkpt>
      <trkpt lat="50.67411" lon="7.204926">
      </trkpt>
      <trkpt lat="50.674772" lon="7.204606">
      </trkpt>
      <trkpt lat="50.675384" lon="7.204498">
      </trkpt>
      <trkpt lat="50.675935" lon="7.204507">
      </trkpt>
      <trkpt lat="50.677777" lon="7.203172">
      </trkpt>
      <trkpt lat="50.67832" lon="7.203818">
      </trkpt>
      <trkpt lat="50.679262" lon="7.202067">
      </trkpt>
      <trkpt lat="50.679506" lon="7.200835">
      </trkpt>
      <trkpt lat="50.679618" lon="7.199498">
      </trkpt>
      <trkpt lat="50.679561" lon="7.198251">
      </trkpt>
      <trkpt lat="50.679435" lon="7.197422">
      </trkpt>
      <trkpt lat="50.67919" lon="7.196311">
      </trkpt>
      <trkpt lat="50.67881" lon="7.19508">
      </trkpt>
      <trkpt lat="50.677932" lon="7.192781">
      </trkpt>
      <trkpt lat="50.67737" lon="7.191357">
      </trkpt>
      <trkpt lat="50.677053" lon="7.190639">
      </trkpt>
      <trkpt lat="50.676767" lon="7.189824">
      </trkpt>
      <trkpt lat="50.675882" lon="7.190231">
      </trkpt>
      <trkpt lat="50.675363" lon="7.190647">
      </trkpt>
      <trkpt lat="50.674793" lon="7.191021">
      </trkpt>
      <trkpt lat="50.673948" lon="7.191605">
      </trkpt>
      <trkpt lat="50.673403" lon="7.192037">
      </trkpt>
      <trkpt lat="50.672923" lon="7.192476">
      </trkpt>
      <trkpt lat="50.67235" lon="7.192933">
      </trkpt>
      <trkpt lat="50.672753" lon="7.192283">
      </trkpt>
      <trkpt lat="50.671993" lon="7.190737">
      </trkpt>
      <trkpt lat="50.670873" lon="7.188668">
      </trkpt>
      <trkpt lat="50.673441" lon="7.185979">
      </trkpt>
      <trkpt lat="50.677368" lon="7.182599">
      </trkpt>
      <trkpt lat="50.677982" lon="7.182027">
      </trkpt>
      <trkpt lat="50.678922" lon="7.181087">
      </trkpt>
      <trkpt lat="50.679729" lon="7.180219">
      </trkpt>
      <trkpt lat="50.680254" lon="7.179664">
      </trkpt>
      <trkpt lat="50.681225" lon="7.178726">
      </trkpt>
      <trkpt lat="50.682695" lon="7.177228">
      </trkpt>
      <trkpt lat="50.683874" lon="7.175762">
      </trkpt>
      <trkpt lat="50.684966" lon="7.174671">
      </trkpt>
      <trkpt lat="50.685663" lon="7.174115">
      </trkpt>
      <trkpt lat="50.688418" lon="7.172622">
      </trkpt>
      <trkpt lat="50.689074" lon="7.172311">
      </trkpt>
      <trkpt lat="50.689631" lon="7.172038">
      </trkpt>
      <trkpt lat="50.69025" lon="7.171733">
      </trkpt>
      <trkpt lat="50.690923" lon="7.171427">
      </trkpt>
      <trkpt lat="50.691487" lon="7.171102">
      </trkpt>
      <trkpt lat="50.692425" lon="7.170638">
      </trkpt>
      <trkpt lat="50.693219" lon="7.170225">
      </trkpt>
      <trkpt lat="50.693846" lon="7.169731">
      </trkpt>
      <trkpt lat="50.69466" lon="7.169534">
      </trkpt>
      <trkpt lat="50.696304" lon="7.169005">
      </trkpt>
      <trkpt lat="50.698153" lon="7.168176">
      </trkpt>
      <trkpt lat="50.698976" lon="7.167825">
      </trkpt>
      <trkpt lat="50.699791" lon="7.167468">
      </trkpt>
      <trkpt lat="50.700823" lon="7.166879">
      </trkpt>
      <trkpt lat="50.70167" lon="7.166327">
      </trkpt>
      <trkpt lat="50.70217" lon="7.165921">
      </trkpt>
      <trkpt lat="50.702676" lon="7.165454">
      </trkpt>
      <trkpt lat="50.703326" lon="7.16488">
      </trkpt>
      <trkpt lat="50.70409" lon="7.164194">
      </trkpt>
      <trkpt lat="50.704995" lon="7.163404">
      </trkpt>
      <trkpt lat="50.705986" lon="7.162434">
      </trkpt>
      <trkpt lat="50.706476" lon="7.161883">
      </trkpt>
      <trkpt lat="50.706776" lon="7.161114">
      </trkpt>
      <trkpt lat="50.707275" lon="7.160446">
      </trkpt>
      <trkpt lat="50.708037" lon="7.15963">
      </trkpt>
      <trkpt lat="50.708933" lon="7.158395">
      </trkpt>
      <trkpt lat="50.70976" lon="7.156887">
      </trkpt>
      <trkpt lat="50.710198" lon="7.156204">
      </trkpt>
      <trkpt lat="50.710967" lon="7.155003">
      </trkpt>
      <trkpt lat="50.711478" lon="7.153902">
      </trkpt>
      <trkpt lat="50.711774" lon="7.152963">
      </trkpt>
      <trkpt lat="50.712232" lon="7.151968">
      </trkpt>
      <trkpt lat="50.71253" lon="7.151022">
      </trkpt>
      <trkpt lat="50.713005" lon="7.149921">
      </trkpt>
      <trkpt lat="50.71369" lon="7.148719">
      </trkpt>
      <trkpt lat="50.714209" lon="7.147471">
      </trkpt>
      <trkpt lat="50.714697" lon="7.146214">
      </trkpt>
      <trkpt lat="50.714921" lon="7.145356">
      </trkpt>
      <trkpt lat="50.714947" lon="7.144486">
      </trkpt>
      <trkpt lat="50.715219" lon="7.143023">
      </trkpt>
      <trkpt lat="50.715491" lon="7.141598">
      </trkpt>
      <trkpt lat="50.715784" lon="7.140638">
      </trkpt>
      <trkpt lat="50.716252" lon="7.139752">
      </trkpt>
      <trkpt lat="50.716733" lon="7.138982">
      </trkpt>
      <trkpt lat="50.717288" lon="7.137064">
      </trkpt>
      <trkpt lat="50.717621" lon="7.135722">
      </trkpt>
      <trkpt lat="50.717937" lon="7.134393">
      </trkpt>
      <trkpt lat="50.718168" lon="7.133254">
      </trkpt>
      <trkpt lat="50.718401" lon="7.132125">
      </trkpt>
      <trkpt lat="50.718676" lon="7.130738">
      </trkpt>
      <trkpt lat="50.718856" lon="7.129833">
      </trkpt>
      <trkpt lat="50.719118" lon="7.12862">
      </trkpt>
      <trkpt lat="50.719587" lon="7.126695">
      </trkpt>
      <trkpt lat="50.719859" lon="7.125743">
      </trkpt>
      <trkpt lat="50.720185" lon="7.124757">
      </trkpt>
      <trkpt lat="50.720912" lon="7.12284">
      </trkpt>
      <trkpt lat="50.721427" lon="7.121617">
      </trkpt>
      <trkpt lat="50.722446" lon="7.119719">
      </trkpt>
      <trkpt lat="50.723829" lon="7.117462">
      </trkpt>
      <trkpt lat="50.725152" lon="7.115492">
      </trkpt>
      <trkpt lat="50.725684" lon="7.11475">
      </trkpt>
      <trkpt lat="50.727075" lon="7.113114">
      </trkpt>
      <trkpt lat="50.727889" lon="7.112297">
      </trkpt>
      <trkpt lat="50.72845" lon="7.111791">
      </trkpt>
    </trkseg>
  </trk>
</gpx>