<?xml version="1.0" encoding="UTF-8"?>
<gpx xmlns="http://www.topografix.com/GPX/1/1" xmlns:xsi="http://www.w3.org/2001/XMLSchema-instance" xsi:schemaLocation="http://www.topografix.com/GPX/1/1 http://www.topografix.com/GPX/1/1/gpx.xsd" version="1.1" creator="gpx.py -- https://github.com/tkrajina/gpxpy">
  <metadata>
    <name>043</name>
  </metadata>
  <trk>
    <name>043</name>
    <trkseg>
      <trkpt lat="50.734246" lon="7.104108">
      </trkpt>
      <trkpt lat="50.733422" lon="7.104426">
      </trkpt>
      <trkpt lat="50.732878" lon="7.105476">
      </trkpt>
      <trkpt lat="50.732366" lon="7.105861">
      </trkpt>
      <trkpt lat="50.731509" lon="7.105369">
      </trkpt>
      <trkpt lat="50.731133" lon="7.104666">
      </trkpt>
      <trkpt lat="50.730676" lon="7.103937">
      </trkpt>
      <trkpt lat="50.729632" lon="7.104797">
      </trkpt>
      <trkpt lat="50.729139" lon="7.10522">
      </trkpt>
      <trkpt lat="50.728831" lon="7.104197">
      </trkpt>
      <trkpt lat="50.727633" lon="7.105195">
      </trkpt>
      <trkpt lat="50.727043" lon="7.105751">
      </trkpt>
      <trkpt lat="50.726227" lon="7.106577">
      </trkpt>
      <trkpt lat="50.724702" lon="7.108132">
      </trkpt>
      <trkpt lat="50.723757" lon="7.108572">
      </trkpt>
      <trkpt lat="50.723214" lon="7.109121">
      </trkpt>
      <trkpt lat="50.722383" lon="7.109946">
      </trkpt>
      <trkpt lat="50.721913" lon="7.110416">
      </trkpt>
      <trkpt lat="50.721267" lon="7.11105">
      </trkpt>
      <trkpt lat="50.720368" lon="7.111941">
      </trkpt>
      <trkpt lat="50.719768" lon="7.11251">
      </trkpt>
      <trkpt lat="50.719761" lon="7.11161">
      </trkpt>
      <trkpt lat="50.719245" lon="7.111327">
      </trkpt>
      <trkpt lat="50.719023" lon="7.110138">
      </trkpt>
      <trkpt lat="50.718883" lon="7.108615">
      </trkpt>
      <trkpt lat="50.718821" lon="7.107683">
      </trkpt>
      <trkpt lat="50.718701" lon="7.106726">
      </trkpt>
      <trkpt lat="50.71852" lon="7.105708">
      </trkpt>
      <trkpt lat="50.718371" lon="7.104828">
      </trkpt>
      <trkpt lat="50.717441" lon="7.104936">
      </trkpt>
      <trkpt lat="50.71694" lon="7.104565">
      </trkpt>
      <trkpt lat="50.716536" lon="7.103945">
      </trkpt>
      <trkpt lat="50.716447" lon="7.103026">
      </trkpt>
      <trkpt lat="50.716473" lon="7.102126">
      </trkpt>
      <trkpt lat="50.716694" lon="7.100387">
      </trkpt>
      <trkpt lat="50.716972" lon="7.099318">
      </trkpt>
      <trkpt lat="50.71726" lon="7.098373">
      </trkpt>
      <trkpt lat="50.717396" lon="7.097341">
      </trkpt>
      <trkpt lat="50.717631" lon="7.096557">
      </trkpt>
      <trkpt lat="50.718184" lon="7.095824">
      </trkpt>
      <trkpt lat="50.718344" lon="7.094976">
      </trkpt>
      <trkpt lat="50.718294" lon="7.093987">
      </trkpt>
      <trkpt lat="50.718159" lon="7.094824">
      </trkpt>
      <trkpt lat="50.717317" lon="7.095453">
      </trkpt>
      <trkpt lat="50.716615" lon="7.096596">
      </trkpt>
      <trkpt lat="50.716117" lon="7.097062">
      </trkpt>
      <trkpt lat="50.715709" lon="7.097981">
      </trkpt>
      <trkpt lat="50.715141" lon="7.098324">
      </trkpt>
      <trkpt lat="50.7146" lon="7.098987">
      </trkpt>
      <trkpt lat="50.714271" lon="7.099759">
      </trkpt>
      <trkpt lat="50.713653" lon="7.09903">
      </trkpt>
      <trkpt lat="50.713121" lon="7.09835">
      </trkpt>
      <trkpt lat="50.712475" lon="7.098343">
      </trkpt>
      <trkpt lat="50.711869" lon="7.098353">
      </trkpt>
      <trkpt lat="50.711383" lon="7.098901">
      </trkpt>
      <trkpt lat="50.710869" lon="7.099897">
      </trkpt>
      <trkpt lat="50.710385" lon="7.100475">
      </trkpt>
      <trkpt lat="50.710109" lon="7.101621">
      </trkpt>
      <trkpt lat="50.709524" lon="7.101695">
      </trkpt>
      <trkpt lat="50.708922" lon="7.101898">
      </trkpt>
      <trkpt lat="50.708298" lon="7.102149">
      </trkpt>
      <trkpt lat="50.707776" lon="7.102533">
      </trkpt>
      <trkpt lat="50.707248" lon="7.102328">
      </trkpt>
      <trkpt lat="50.706557" lon="7.103434">
      </trkpt>
      <trkpt lat="50.70636" lon="7.104432">
      </trkpt>
      <trkpt lat="50.705856" lon="7.105256">
      </trkpt>
      <trkpt lat="50.705125" lon="7.105444">
      </trkpt>
      <trkpt lat="50.70451" lon="7.105384">
      </trkpt>
      <trkpt lat="50.703971" lon="7.105908">
      </trkpt>
      <trkpt lat="50.703466" lon="7.10638">
      </trkpt>
      <trkpt lat="50.702922" lon="7.107082">
      </trkpt>
      <trkpt lat="50.702662" lon="7.107849">
      </trkpt>
      <trkpt lat="50.701896" lon="7.108425">
      </trkpt>
      <trkpt lat="50.701099" lon="7.1082">
      </trkpt>
      <trkpt lat="50.700594" lon="7.108964">
      </trkpt>
      <trkpt lat="50.69973" lon="7.108842">
      </trkpt>
      <trkpt lat="50.699265" lon="7.108087">
      </trkpt>
      <trkpt lat="50.698693" lon="7.108671">
      </trkpt>
      <trkpt lat="50.697939" lon="7.10909">
      </trkpt>
      <trkpt lat="50.697046" lon="7.109237">
      </trkpt>
      <trkpt lat="50.69651" lon="7.10913">
      </trkpt>
      <trkpt lat="50.695831" lon="7.108615">
      </trkpt>
      <trkpt lat="50.694492" lon="7.107933">
      </trkpt>
      <trkpt lat="50.693813" lon="7.10733">
      </trkpt>
      <trkpt lat="50.693307" lon="7.106932">
      </trkpt>
      <trkpt lat="50.693075" lon="7.106056">
      </trkpt>
      <trkpt lat="50.693208" lon="7.105031">
      </trkpt>
      <trkpt lat="50.69262" lon="7.10464">
      </trkpt>
      <trkpt lat="50.692132" lon="7.104095">
      </trkpt>
      <trkpt lat="50.691609" lon="7.103631">
      </trkpt>
      <trkpt lat="50.691056" lon="7.102932">
      </trkpt>
      <trkpt lat="50.690369" lon="7.102012">
      </trkpt>
      <trkpt lat="50.690737" lon="7.10119">
      </trkpt>
      <trkpt lat="50.691165" lon="7.09994">
      </trkpt>
      <trkpt lat="50.690554" lon="7.099918">
      </trkpt>
      <trkpt lat="50.689965" lon="7.100174">
      </trkpt>
      <trkpt lat="50.689359" lon="7.099877">
      </trkpt>
      <trkpt lat="50.688639" lon="7.099086">
      </trkpt>
      <trkpt lat="50.687977" lon="7.098504">
      </trkpt>
      <trkpt lat="50.687335" lon="7.097944">
      </trkpt>
      <trkpt lat="50.68681" lon="7.097145">
      </trkpt>
      <trkpt lat="50.686328" lon="7.096243">
      </trkpt>
      <trkpt lat="50.686046" lon="7.095324">
      </trkpt>
      <trkpt lat="50.685833" lon="7.094187">
      </trkpt>
      <trkpt lat="50.685408" lon="7.092327">
      </trkpt>
      <trkpt lat="50.685085" lon="7.091532">
      </trkpt>
      <trkpt lat="50.684632" lon="7.090245">
      </trkpt>
      <trkpt lat="50.685246" lon="7.08764">
      </trkpt>
      <trkpt lat="50.685808" lon="7.086339">
      </trkpt>
      <trkpt lat="50.684871" lon="7.084251">
      </trkpt>
      <trkpt lat="50.684364" lon="7.083714">
      </trkpt>
      <trkpt lat="50.683692" lon="7.083871">
      </trkpt>
      <trkpt lat="50.683114" lon="7.083996">
      </trkpt>
      <trkpt lat="50.682435" lon="7.084343">
      </trkpt>
      <trkpt lat="50.68181" lon="7.084778">
      </trkpt>
      <trkpt lat="50.681443" lon="7.085561">
      </trkpt>
      <trkpt lat="50.680644" lon="7.085788">
      </trkpt>
      <trkpt lat="50.680036" lon="7.086061">
      </trkpt>
      <trkpt lat="50.679242" lon="7.086279">
      </trkpt>
      <trkpt lat="50.678525" lon="7.086157">
      </trkpt>
      <trkpt lat="50.677929" lon="7.085713">
      </trkpt>
      <trkpt lat="50.677045" lon="7.084835">
      </trkpt>
      <trkpt lat="50.67644" lon="7.084399">
      </trkpt>
      <trkpt lat="50.675827" lon="7.084133">
      </trkpt>
      <trkpt lat="50.674776" lon="7.083894">
      </trkpt>
      <trkpt lat="50.674091" lon="7.084173">
      </trkpt>
      <trkpt lat="50.673241" lon="7.083752">
      </trkpt>
      <trkpt lat="50.67271" lon="7.083114">
      </trkpt>
      <trkpt lat="50.672089" lon="7.082508">
      </trkpt>
      <trkpt lat="50.671639" lon="7.082021">
      </trkpt>
      <trkpt lat="50.671516" lon="7.080639">
      </trkpt>
      <trkpt lat="50.671917" lon="7.079813">
      </trkpt>
      <trkpt lat="50.672091" lon="7.078929">
      </trkpt>
      <trkpt lat="50.672571" lon="7.078399">
      </trkpt>
      <trkpt lat="50.673098" lon="7.077663">
      </trkpt>
      <trkpt lat="50.672836" lon="7.076755">
      </trkpt>
      <trkpt lat="50.672562" lon="7.07585">
      </trkpt>
      <trkpt lat="50.672352" lon="7.074877">
      </trkpt>
      <trkpt lat="50.672316" lon="7.073892">
      </trkpt>
      <trkpt lat="50.670969" lon="7.073982">
      </trkpt>
      <trkpt lat="50.669864" lon="7.074482">
      </trkpt>
      <trkpt lat="50.66912" lon="7.074748">
      </trkpt>
      <trkpt lat="50.668812" lon="7.073729">
      </trkpt>
      <trkpt lat="50.668397" lon="7.073031">
      </trkpt>
      <trkpt lat="50.667987" lon="7.072462">
      </trkpt>
      <trkpt lat="50.668253" lon="7.070899">
      </trkpt>
      <trkpt lat="50.6694" lon="7.067182">
      </trkpt>
      <trkpt lat="50.669686" lon="7.066404">
      </trkpt>
      <trkpt lat="50.670536" lon="7.064004">
      </trkpt>
      <trkpt lat="50.671127" lon="7.062628">
      </trkpt>
      <trkpt lat="50.671461" lon="7.061849">
      </trkpt>
      <trkpt lat="50.673252" lon="7.057829">
      </trkpt>
      <trkpt lat="50.673919" lon="7.056342">
      </trkpt>
      <trkpt lat="50.671823" lon="7.04922">
      </trkpt>
      <trkpt lat="50.669654" lon="7.041973">
      </trkpt>
      <trkpt lat="50.668675" lon="7.038744">
      </trkpt>
      <trkpt lat="50.66804" lon="7.036579">
      </trkpt>
      <trkpt lat="50.667764" lon="7.035711">
      </trkpt>
      <trkpt lat="50.665288" lon="7.027527">
      </trkpt>
      <trkpt lat="50.665028" lon="7.026637">
      </trkpt>
      <trkpt lat="50.666211" lon="7.026326">
      </trkpt>
      <trkpt lat="50.666742" lon="7.026079">
      </trkpt>
      <trkpt lat="50.66739" lon="7.025916">
      </trkpt>
      <trkpt lat="50.668382" lon="7.026479">
      </trkpt>
      <trkpt lat="50.669356" lon="7.026957">
      </trkpt>
      <trkpt lat="50.669942" lon="7.027419">
      </trkpt>
      <trkpt lat="50.670567" lon="7.027855">
      </trkpt>
      <trkpt lat="50.671115" lon="7.02779">
      </trkpt>
      <trkpt lat="50.672296" lon="7.028041">
      </trkpt>
      <trkpt lat="50.672923" lon="7.028511">
      </trkpt>
      <trkpt lat="50.673671" lon="7.028113">
      </trkpt>
      <trkpt lat="50.674936" lon="7.028131">
      </trkpt>
      <trkpt lat="50.675529" lon="7.028077">
      </trkpt>
      <trkpt lat="50.676285" lon="7.028033">
      </trkpt>
      <trkpt lat="50.676815" lon="7.027852">
      </trkpt>
      <trkpt lat="50.677278" lon="7.027257">
      </trkpt>
      <trkpt lat="50.67846" lon="7.024664">
      </trkpt>
      <trkpt lat="50.679191" lon="7.025411">
      </trkpt>
      <trkpt lat="50.679702" lon="7.025938">
      </trkpt>
      <trkpt lat="50.681251" lon="7.026848">
      </trkpt>
      <trkpt lat="50.682345" lon="7.026902">
      </trkpt>
      <trkpt lat="50.683647" lon="7.027087">
      </trkpt>
      <trkpt lat="50.684321" lon="7.027183">
      </trkpt>
      <trkpt lat="50.685027" lon="7.027406">
      </trkpt>
      <trkpt lat="50.685839" lon="7.029026">
      </trkpt>
      <trkpt lat="50.686384" lon="7.029672">
      </trkpt>
      <trkpt lat="50.686915" lon="7.030153">
      </trkpt>
      <trkpt lat="50.686406" lon="7.0312">
      </trkpt>
      <trkpt lat="50.685592" lon="7.032094">
      </trkpt>
      <trkpt lat="50.685076" lon="7.032402">
      </trkpt>
      <trkpt lat="50.684257" lon="7.032793">
      </trkpt>
      <trkpt lat="50.683696" lon="7.033754">
      </trkpt>
      <trkpt lat="50.684102" lon="7.034414">
      </trkpt>
      <trkpt lat="50.684793" lon="7.034731">
      </trkpt>
      <trkpt lat="50.685507" lon="7.035142">
      </trkpt>
      <trkpt lat="50.68626" lon="7.035735">
      </trkpt>
      <trkpt lat="50.686664" lon="7.036301">
      </trkpt>
      <trkpt lat="50.686769" lon="7.037561">
      </trkpt>
      <trkpt lat="50.687138" lon="7.038227">
      </trkpt>
      <trkpt lat="50.687267" lon="7.039212">
      </trkpt>
      <trkpt lat="50.687088" lon="7.040021">
      </trkpt>
      <trkpt lat="50.687319" lon="7.040872">
      </trkpt>
      <trkpt lat="50.687593" lon="7.041672">
      </trkpt>
      <trkpt lat="50.687925" lon="7.042429">
      </trkpt>
      <trkpt lat="50.688455" lon="7.043452">
      </trkpt>
      <trkpt lat="50.687286" lon="7.046837">
      </trkpt>
      <trkpt lat="50.686447" lon="7.04909">
      </trkpt>
      <trkpt lat="50.68703" lon="7.049344">
      </trkpt>
      <trkpt lat="50.687557" lon="7.049787">
      </trkpt>
      <trkpt lat="50.688092" lon="7.049633">
      </trkpt>
      <trkpt lat="50.688744" lon="7.049779">
      </trkpt>
      <trkpt lat="50.68952" lon="7.049898">
      </trkpt>
      <trkpt lat="50.690188" lon="7.049945">
      </trkpt>
      <trkpt lat="50.690775" lon="7.050121">
      </trkpt>
      <trkpt lat="50.691371" lon="7.05021">
      </trkpt>
      <trkpt lat="50.691958" lon="7.05004">
      </trkpt>
      <trkpt lat="50.692605" lon="7.049429">
      </trkpt>
      <trkpt lat="50.693035" lon="7.048459">
      </trkpt>
      <trkpt lat="50.69334" lon="7.04764">
      </trkpt>
      <trkpt lat="50.694012" lon="7.047206">
      </trkpt>
      <trkpt lat="50.694412" lon="7.046222">
      </trkpt>
      <trkpt lat="50.694436" lon="7.045153">
      </trkpt>
      <trkpt lat="50.694486" lon="7.044251">
      </trkpt>
      <trkpt lat="50.694672" lon="7.042219">
      </trkpt>
      <trkpt lat="50.694894" lon="7.040664">
      </trkpt>
      <trkpt lat="50.695282" lon="7.039957">
      </trkpt>
      <trkpt lat="50.695442" lon="7.039143">
      </trkpt>
      <trkpt lat="50.69559" lon="7.038133">
      </trkpt>
      <trkpt lat="50.695971" lon="7.037416">
      </trkpt>
      <trkpt lat="50.696349" lon="7.035747">
      </trkpt>
      <trkpt lat="50.696575" lon="7.034518">
      </trkpt>
      <trkpt lat="50.697298" lon="7.034384">
      </trkpt>
      <trkpt lat="50.697585" lon="7.033038">
      </trkpt>
      <trkpt lat="50.698789" lon="7.032565">
      </trkpt>
      <trkpt lat="50.699518" lon="7.032344">
      </trkpt>
      <trkpt lat="50.70089" lon="7.032054">
      </trkpt>
      <trkpt lat="50.701791" lon="7.032308">
      </trkpt>
      <trkpt lat="50.702246" lon="7.031184">
      </trkpt>
      <trkpt lat="50.70334" lon="7.030827">
      </trkpt>
      <trkpt lat="50.704447" lon="7.030633">
      </trkpt>
      <trkpt lat="50.705123" lon="7.030433">
      </trkpt>
      <trkpt lat="50.705896" lon="7.03017">
      </trkpt>
      <trkpt lat="50.706456" lon="7.029765">
      </trkpt>
      <trkpt lat="50.706949" lon="7.029222">
      </trkpt>
      <trkpt lat="50.707271" lon="7.028507">
      </trkpt>
      <trkpt lat="50.70788" lon="7.028417">
      </trkpt>
      <trkpt lat="50.70841" lon="7.028246">
      </trkpt>
      <trkpt lat="50.708568" lon="7.027095">
      </trkpt>
      <trkpt lat="50.708545" lon="7.026016">
      </trkpt>
      <trkpt lat="50.70816" lon="7.025413">
      </trkpt>
      <trkpt lat="50.707698" lon="7.024844">
      </trkpt>
      <trkpt lat="50.706933" lon="7.023359">
      </trkpt>
      <trkpt lat="50.706581" lon="7.02267">
      </trkpt>
      <trkpt lat="50.705992" lon="7.022852">
      </trkpt>
      <trkpt lat="50.705304" lon="7.023353">
      </trkpt>
      <trkpt lat="50.704559" lon="7.023169">
      </trkpt>
      <trkpt lat="50.704063" lon="7.022116">
      </trkpt>
      <trkpt lat="50.705019" lon="7.021058">
      </trkpt>
      <trkpt lat="50.705697" lon="7.020505">
      </trkpt>
      <trkpt lat="50.706754" lon="7.019622">
      </trkpt>
      <trkpt lat="50.706871" lon="7.018698">
      </trkpt>
      <trkpt lat="50.706402" lon="7.018183">
      </trkpt>
      <trkpt lat="50.705656" lon="7.017849">
      </trkpt>
      <trkpt lat="50.705053" lon="7.016642">
      </trkpt>
      <trkpt lat="50.704639" lon="7.016061">
      </trkpt>
      <trkpt lat="50.705099" lon="7.015462">
      </trkpt>
      <trkpt lat="50.70569" lon="7.015073">
      </trkpt>
      <trkpt lat="50.706186" lon="7.014202">
      </trkpt>
      <trkpt lat="50.70624" lon="7.013002">
      </trkpt>
      <trkpt lat="50.705804" lon="7.009013">
      </trkpt>
      <trkpt lat="50.705336" lon="7.006497">
      </trkpt>
      <trkpt lat="50.70465" lon="7.003758">
      </trkpt>
      <trkpt lat="50.704408" lon="7.002582">
      </trkpt>
      <trkpt lat="50.704165" lon="7.000957">
      </trkpt>
      <trkpt lat="50.705406" lon="6.997577">
      </trkpt>
      <trkpt lat="50.706021" lon="6.996008">
      </trkpt>
      <trkpt lat="50.706413" lon="6.994854">
      </trkpt>
      <trkpt lat="50.707345" lon="6.992438">
      </trkpt>
      <trkpt lat="50.707836" lon="6.991099">
      </trkpt>
      <trkpt lat="50.708074" lon="6.990335">
      </trkpt>
      <trkpt lat="50.708665" lon="6.988676">
      </trkpt>
      <trkpt lat="50.711885" lon="6.980011">
      </trkpt>
      <trkpt lat="50.714849" lon="6.97193">
      </trkpt>
      <trkpt lat="50.715808" lon="6.972488">
      </trkpt>
      <trkpt lat="50.716385" lon="6.973048">
      </trkpt>
      <trkpt lat="50.717374" lon="6.9744">
      </trkpt>
      <trkpt lat="50.718097" lon="6.975807">
      </trkpt>
      <trkpt lat="50.718329" lon="6.977">
      </trkpt>
      <trkpt lat="50.718812" lon="6.978434">
      </trkpt>
      <trkpt lat="50.719229" lon="6.97969">
      </trkpt>
      <trkpt lat="50.719897" lon="6.981132">
      </trkpt>
      <trkpt lat="50.720382" lon="6.982409">
      </trkpt>
      <trkpt lat="50.721165" lon="6.983251">
      </trkpt>
      <trkpt lat="50.721544" lon="6.984039">
      </trkpt>
      <trkpt lat="50.722855" lon="6.985115">
      </trkpt>
      <trkpt lat="50.724193" lon="6.986955">
      </trkpt>
      <trkpt lat="50.72385" lon="6.98798">
      </trkpt>
      <trkpt lat="50.72354" lon="6.988935">
      </trkpt>
      <trkpt lat="50.723288" lon="6.989986">
      </trkpt>
      <trkpt lat="50.722046" lon="6.990991">
      </trkpt>
      <trkpt lat="50.721667" lon="6.991638">
      </trkpt>
      <trkpt lat="50.721198" lon="6.992151">
      </trkpt>
      <trkpt lat="50.720521" lon="6.992873">
      </trkpt>
      <trkpt lat="50.719697" lon="6.993906">
      </trkpt>
      <trkpt lat="50.719367" lon="6.994651">
      </trkpt>
      <trkpt lat="50.718796" lon="6.994974">
      </trkpt>
      <trkpt lat="50.718151" lon="6.99517">
      </trkpt>
      <trkpt lat="50.718705" lon="6.997076">
      </trkpt>
      <trkpt lat="50.719184" lon="6.998284">
      </trkpt>
      <trkpt lat="50.720086" lon="6.999396">
      </trkpt>
      <trkpt lat="50.720561" lon="6.99988">
      </trkpt>
      <trkpt lat="50.720841" lon="7.00071">
      </trkpt>
      <trkpt lat="50.720187" lon="7.003239">
      </trkpt>
      <trkpt lat="50.720811" lon="7.003516">
      </trkpt>
      <trkpt lat="50.721278" lon="7.004187">
      </trkpt>
      <trkpt lat="50.721544" lon="7.005105">
      </trkpt>
      <trkpt lat="50.72161" lon="7.006016">
      </trkpt>
      <trkpt lat="50.721404" lon="7.00708">
      </trkpt>
      <trkpt lat="50.721319" lon="7.007946">
      </trkpt>
      <trkpt lat="50.721753" lon="7.008861">
      </trkpt>
      <trkpt lat="50.721926" lon="7.009743">
      </trkpt>
      <trkpt lat="50.722165" lon="7.010615">
      </trkpt>
      <trkpt lat="50.722538" lon="7.011289">
      </trkpt>
      <trkpt lat="50.722941" lon="7.012556">
      </trkpt>
      <trkpt lat="50.723269" lon="7.013693">
      </trkpt>
      <trkpt lat="50.723532" lon="7.014566">
      </trkpt>
      <trkpt lat="50.72418" lon="7.015069">
      </trkpt>
      <trkpt lat="50.724758" lon="7.015866">
      </trkpt>
      <trkpt lat="50.725045" lon="7.016687">
      </trkpt>
      <trkpt lat="50.725437" lon="7.017437">
      </trkpt>
      <trkpt lat="50.725398" lon="7.018495">
      </trkpt>
      <trkpt lat="50.725561" lon="7.019318">
      </trkpt>
      <trkpt lat="50.726079" lon="7.020841">
      </trkpt>
      <trkpt lat="50.726148" lon="7.021886">
      </trkpt>
      <trkpt lat="50.726474" lon="7.023118">
      </trkpt>
      <trkpt lat="50.726336" lon="7.024397">
      </trkpt>
      <trkpt lat="50.726225" lon="7.025557">
      </trkpt>
      <trkpt lat="50.72625" lon="7.027069">
      </trkpt>
      <trkpt lat="50.726208" lon="7.027984">
      </trkpt>
      <trkpt lat="50.726137" lon="7.029315">
      </trkpt>
      <trkpt lat="50.727" lon="7.030116">
      </trkpt>
      <trkpt lat="50.727683" lon="7.030622">
      </trkpt>
      <trkpt lat="50.727071" lon="7.032173">
      </trkpt>
      <trkpt lat="50.72645" lon="7.033485">
      </trkpt>
      <trkpt lat="50.725915" lon="7.033655">
      </trkpt>
      <trkpt lat="50.726352" lon="7.035724">
      </trkpt>
      <trkpt lat="50.726603" lon="7.036672">
      </trkpt>
      <trkpt lat="50.726774" lon="7.037907">
      </trkpt>
      <trkpt lat="50.727111" lon="7.039116">
      </trkpt>
      <trkpt lat="50.727471" lon="7.040162">
      </trkpt>
      <trkpt lat="50.727768" lon="7.04144">
      </trkpt>
      <trkpt lat="50.728247" lon="7.042292">
      </trkpt>
      <trkpt lat="50.728337" lon="7.044474">
      </trkpt>
      <trkpt lat="50.728331" lon="7.045943">
      </trkpt>
      <trkpt lat="50.728929" lon="7.047182">
      </trkpt>
      <trkpt lat="50.728955" lon="7.04807">
      </trkpt>
      <trkpt lat="50.728997" lon="7.049054">
      </trkpt>
      <trkpt lat="50.728923" lon="7.051328">
      </trkpt>
      <trkpt lat="50.728956" lon="7.054797">
      </trkpt>
      <trkpt lat="50.729028" lon="7.056954">
      </trkpt>
      <trkpt lat="50.729159" lon="7.05943">
      </trkpt>
      <trkpt lat="50.729379" lon="7.060553">
      </trkpt>
      <trkpt lat="50.729669" lon="7.062495">
      </trkpt>
      <trkpt lat="50.729915" lon="7.065043">
      </trkpt>
      <trkpt lat="50.730066" lon="7.066368">
      </trkpt>
      <trkpt lat="50.730217" lon="7.06764">
      </trkpt>
      <trkpt lat="50.73036" lon="7.06864">
      </trkpt>
      <trkpt lat="50.730731" lon="7.06926">
      </trkpt>
      <trkpt lat="50.731189" lon="7.070033">
      </trkpt>
      <trkpt lat="50.730797" lon="7.070643">
      </trkpt>
      <trkpt lat="50.73037" lon="7.071307">
      </trkpt>
      <trkpt lat="50.729833" lon="7.072026">
      </trkpt>
      <trkpt lat="50.728973" lon="7.072902">
      </trkpt>
      <trkpt lat="50.728398" lon="7.073394">
      </trkpt>
      <trkpt lat="50.727839" lon="7.073882">
      </trkpt>
      <trkpt lat="50.727436" lon="7.074568">
      </trkpt>
      <trkpt lat="50.726949" lon="7.075002">
      </trkpt>
      <trkpt lat="50.726827" lon="7.075894">
      </trkpt>
      <trkpt lat="50.726919" lon="7.076842">
      </trkpt>
      <trkpt lat="50.727065" lon="7.077831">
      </trkpt>
      <trkpt lat="50.727187" lon="7.078748">
      </trkpt>
      <trkpt lat="50.727293" lon="7.079789">
      </trkpt>
      <trkpt lat="50.727427" lon="7.080799">
      </trkpt>
      <trkpt lat="50.727563" lon="7.081689">
      </trkpt>
      <trkpt lat="50.727602" lon="7.082938">
      </trkpt>
      <trkpt lat="50.727902" lon="7.083734">
      </trkpt>
      <trkpt lat="50.728257" lon="7.084544">
      </trkpt>
      <trkpt lat="50.728599" lon="7.085269">
      </trkpt>
      <trkpt lat="50.728929" lon="7.086038">
      </trkpt>
      <trkpt lat="50.729266" lon="7.086775">
      </trkpt>
      <trkpt lat="50.729719" lon="7.087774">
      </trkpt>
      <trkpt lat="50.730068" lon="7.088552">
      </trkpt>
      <trkpt lat="50.730423" lon="7.089284">
      </trkpt>
      <trkpt lat="50.730953" lon="7.089815">
      </trkpt>
      <trkpt lat="50.731689" lon="7.090279">
      </trkpt>
      <trkpt lat="50.732184" lon="7.090764">
      </trkpt>
      <trkpt lat="50.732642" lon="7.091918">
      </trkpt>
      <trkpt lat="50.732961" lon="7.09303">
      </trkpt>
      <trkpt lat="50.732647" lon="7.094429">
      </trkpt>
      <trkpt lat="50.732809" lon="7.095334">
      </trkpt>
      <trkpt lat="50.732601" lon="7.096185">
      </trkpt>
      <trkpt lat="50.732445" lon="7.09708">
      </trkpt>
      <trkpt lat="50.732275" lon="7.097932">
      </trkpt>
      <trkpt lat="50.732869" lon="7.098788">
      </trkpt>
      <trkpt lat="50.733054" lon="7.09991">
      </trkpt>
      <trkpt lat="50.733319" lon="7.100681">
      </trkpt>
      <trkpt lat="50.734056" lon="7.101758">
      </trkpt>
      <trkpt lat="50.734591" lon="7.102447">
      </trkpt>
      <trkpt lat="50.73457" lon="7.10348">
      </trkpt>
      <trkpt lat="50.734165" lon="7.104228">
      </trkpt>
    </trkseg>
  </trk>
</gpx>