<?xml version="1.0" encoding="UTF-8"?>
<gpx xmlns="http://www.topografix.com/GPX/1/1" xmlns:xsi="http://www.w3.org/2001/XMLSchema-instance" xsi:schemaLocation="http://www.topografix.com/GPX/1/1 http://www.topografix.com/GPX/1/1/gpx.xsd" version="1.1" creator="gpx.py -- https://github.com/tkrajina/gpxpy">
  <metadata>
    <name>044</name>
  </metadata>
  <trk>
    <name>044</name>
    <trkseg>
      <trkpt lat="50.734165" lon="7.104228">
      </trkpt>
      <trkpt lat="50.734714" lon="7.104128">
      </trkpt>
      <trkpt lat="50.735244" lon="7.10382">
      </trkpt>
      <trkpt lat="50.735681" lon="7.104889">
      </trkpt>
      <trkpt lat="50.735939" lon="7.105724">
      </trkpt>
      <trkpt lat="50.7366" lon="7.105918">
      </trkpt>
      <trkpt lat="50.737277" lon="7.105735">
      </trkpt>
      <trkpt lat="50.73765" lon="7.106707">
      </trkpt>
      <trkpt lat="50.738118" lon="7.110063">
      </trkpt>
      <trkpt lat="50.738574" lon="7.11341">
      </trkpt>
      <trkpt lat="50.738727" lon="7.114479">
      </trkpt>
      <trkpt lat="50.738828" lon="7.115368">
      </trkpt>
      <trkpt lat="50.738415" lon="7.116284">
      </trkpt>
      <trkpt lat="50.737111" lon="7.117111">
      </trkpt>
      <trkpt lat="50.736722" lon="7.11782">
      </trkpt>
      <trkpt lat="50.737155" lon="7.119944">
      </trkpt>
      <trkpt lat="50.737061" lon="7.121211">
      </trkpt>
      <trkpt lat="50.736535" lon="7.122273">
      </trkpt>
      <trkpt lat="50.736141" lon="7.122886">
      </trkpt>
      <trkpt lat="50.735661" lon="7.123398">
      </trkpt>
      <trkpt lat="50.734983" lon="7.124149">
      </trkpt>
      <trkpt lat="50.734353" lon="7.125184">
      </trkpt>
      <trkpt lat="50.733765" lon="7.126012">
      </trkpt>
      <trkpt lat="50.733289" lon="7.126661">
      </trkpt>
      <trkpt lat="50.7326" lon="7.127582">
      </trkpt>
      <trkpt lat="50.731836" lon="7.128619">
      </trkpt>
      <trkpt lat="50.731413" lon="7.129291">
      </trkpt>
      <trkpt lat="50.732048" lon="7.13029">
      </trkpt>
      <trkpt lat="50.732394" lon="7.13105">
      </trkpt>
      <trkpt lat="50.732731" lon="7.131948">
      </trkpt>
      <trkpt lat="50.733091" lon="7.132968">
      </trkpt>
      <trkpt lat="50.73174" lon="7.134637">
      </trkpt>
      <trkpt lat="50.731073" lon="7.135577">
      </trkpt>
      <trkpt lat="50.730707" lon="7.136284">
      </trkpt>
      <trkpt lat="50.730374" lon="7.137138">
      </trkpt>
      <trkpt lat="50.731041" lon="7.138188">
      </trkpt>
      <trkpt lat="50.731635" lon="7.138693">
      </trkpt>
      <trkpt lat="50.731813" lon="7.1396">
      </trkpt>
      <trkpt lat="50.731688" lon="7.140652">
      </trkpt>
      <trkpt lat="50.731919" lon="7.142109">
      </trkpt>
      <trkpt lat="50.732265" lon="7.143004">
      </trkpt>
      <trkpt lat="50.732693" lon="7.143865">
      </trkpt>
      <trkpt lat="50.733185" lon="7.144587">
      </trkpt>
      <trkpt lat="50.733586" lon="7.145183">
      </trkpt>
      <trkpt lat="50.734537" lon="7.145993">
      </trkpt>
      <trkpt lat="50.735426" lon="7.146625">
      </trkpt>
      <trkpt lat="50.735937" lon="7.147191">
      </trkpt>
      <trkpt lat="50.736407" lon="7.148633">
      </trkpt>
      <trkpt lat="50.735824" lon="7.148466">
      </trkpt>
      <trkpt lat="50.734954" lon="7.149335">
      </trkpt>
      <trkpt lat="50.73572" lon="7.15135">
      </trkpt>
      <trkpt lat="50.736103" lon="7.153031">
      </trkpt>
      <trkpt lat="50.736228" lon="7.154082">
      </trkpt>
      <trkpt lat="50.735345" lon="7.153838">
      </trkpt>
      <trkpt lat="50.734781" lon="7.154031">
      </trkpt>
      <trkpt lat="50.733799" lon="7.154121">
      </trkpt>
      <trkpt lat="50.732937" lon="7.154784">
      </trkpt>
      <trkpt lat="50.732272" lon="7.154943">
      </trkpt>
      <trkpt lat="50.732235" lon="7.156741">
      </trkpt>
      <trkpt lat="50.732833" lon="7.158403">
      </trkpt>
      <trkpt lat="50.733331" lon="7.159621">
      </trkpt>
      <trkpt lat="50.73382" lon="7.160727">
      </trkpt>
      <trkpt lat="50.73401" lon="7.16202">
      </trkpt>
      <trkpt lat="50.734291" lon="7.164247">
      </trkpt>
      <trkpt lat="50.734195" lon="7.165623">
      </trkpt>
      <trkpt lat="50.733966" lon="7.167255">
      </trkpt>
      <trkpt lat="50.733674" lon="7.168169">
      </trkpt>
      <trkpt lat="50.732895" lon="7.169348">
      </trkpt>
      <trkpt lat="50.732552" lon="7.170043">
      </trkpt>
      <trkpt lat="50.732467" lon="7.17208">
      </trkpt>
      <trkpt lat="50.732455" lon="7.173337">
      </trkpt>
      <trkpt lat="50.732239" lon="7.17639">
      </trkpt>
      <trkpt lat="50.731324" lon="7.177861">
      </trkpt>
      <trkpt lat="50.730666" lon="7.177556">
      </trkpt>
      <trkpt lat="50.730526" lon="7.176692">
      </trkpt>
      <trkpt lat="50.729749" lon="7.176276">
      </trkpt>
      <trkpt lat="50.728935" lon="7.176561">
      </trkpt>
      <trkpt lat="50.727602" lon="7.175835">
      </trkpt>
      <trkpt lat="50.726928" lon="7.175056">
      </trkpt>
      <trkpt lat="50.726518" lon="7.174451">
      </trkpt>
      <trkpt lat="50.726111" lon="7.175099">
      </trkpt>
      <trkpt lat="50.725698" lon="7.17607">
      </trkpt>
      <trkpt lat="50.725204" lon="7.180525">
      </trkpt>
      <trkpt lat="50.725036" lon="7.182245">
      </trkpt>
      <trkpt lat="50.724777" lon="7.183225">
      </trkpt>
      <trkpt lat="50.724643" lon="7.18438">
      </trkpt>
      <trkpt lat="50.724802" lon="7.185343">
      </trkpt>
      <trkpt lat="50.724372" lon="7.186161">
      </trkpt>
      <trkpt lat="50.723962" lon="7.18674">
      </trkpt>
      <trkpt lat="50.72336" lon="7.186829">
      </trkpt>
      <trkpt lat="50.72258" lon="7.186411">
      </trkpt>
      <trkpt lat="50.721811" lon="7.18653">
      </trkpt>
      <trkpt lat="50.720737" lon="7.186793">
      </trkpt>
      <trkpt lat="50.72013" lon="7.186844">
      </trkpt>
      <trkpt lat="50.719534" lon="7.186866">
      </trkpt>
      <trkpt lat="50.718986" lon="7.186604">
      </trkpt>
      <trkpt lat="50.718372" lon="7.186267">
      </trkpt>
      <trkpt lat="50.717434" lon="7.185815">
      </trkpt>
      <trkpt lat="50.717175" lon="7.187167">
      </trkpt>
      <trkpt lat="50.716739" lon="7.188314">
      </trkpt>
      <trkpt lat="50.716218" lon="7.188981">
      </trkpt>
      <trkpt lat="50.71571" lon="7.189627">
      </trkpt>
      <trkpt lat="50.715116" lon="7.191039">
      </trkpt>
      <trkpt lat="50.714738" lon="7.191856">
      </trkpt>
      <trkpt lat="50.71428" lon="7.193234">
      </trkpt>
      <trkpt lat="50.713515" lon="7.194997">
      </trkpt>
      <trkpt lat="50.713181" lon="7.195751">
      </trkpt>
      <trkpt lat="50.71312" lon="7.196643">
      </trkpt>
      <trkpt lat="50.712797" lon="7.197467">
      </trkpt>
      <trkpt lat="50.712306" lon="7.198467">
      </trkpt>
      <trkpt lat="50.711988" lon="7.199241">
      </trkpt>
      <trkpt lat="50.711487" lon="7.199562">
      </trkpt>
      <trkpt lat="50.711609" lon="7.200398">
      </trkpt>
      <trkpt lat="50.711264" lon="7.20134">
      </trkpt>
      <trkpt lat="50.710741" lon="7.201895">
      </trkpt>
      <trkpt lat="50.709723" lon="7.203013">
      </trkpt>
      <trkpt lat="50.708749" lon="7.202139">
      </trkpt>
      <trkpt lat="50.707982" lon="7.202695">
      </trkpt>
      <trkpt lat="50.707362" lon="7.203794">
      </trkpt>
      <trkpt lat="50.706755" lon="7.204196">
      </trkpt>
      <trkpt lat="50.707362" lon="7.203794">
      </trkpt>
      <trkpt lat="50.707761" lon="7.203118">
      </trkpt>
      <trkpt lat="50.708394" lon="7.202053">
      </trkpt>
      <trkpt lat="50.7092" lon="7.202836">
      </trkpt>
      <trkpt lat="50.710406" lon="7.202233">
      </trkpt>
      <trkpt lat="50.710972" lon="7.201598">
      </trkpt>
      <trkpt lat="50.711398" lon="7.201042">
      </trkpt>
      <trkpt lat="50.71196" lon="7.202126">
      </trkpt>
      <trkpt lat="50.712517" lon="7.203079">
      </trkpt>
      <trkpt lat="50.712811" lon="7.204075">
      </trkpt>
      <trkpt lat="50.713048" lon="7.20512">
      </trkpt>
      <trkpt lat="50.713796" lon="7.204683">
      </trkpt>
      <trkpt lat="50.71431" lon="7.204152">
      </trkpt>
      <trkpt lat="50.714954" lon="7.20338">
      </trkpt>
      <trkpt lat="50.715425" lon="7.202859">
      </trkpt>
      <trkpt lat="50.716046" lon="7.201597">
      </trkpt>
      <trkpt lat="50.716681" lon="7.20197">
      </trkpt>
      <trkpt lat="50.717192" lon="7.202291">
      </trkpt>
      <trkpt lat="50.718401" lon="7.202718">
      </trkpt>
      <trkpt lat="50.718911" lon="7.203225">
      </trkpt>
      <trkpt lat="50.719869" lon="7.203363">
      </trkpt>
      <trkpt lat="50.720395" lon="7.203647">
      </trkpt>
      <trkpt lat="50.720925" lon="7.204021">
      </trkpt>
      <trkpt lat="50.721374" lon="7.204539">
      </trkpt>
      <trkpt lat="50.722167" lon="7.203906">
      </trkpt>
      <trkpt lat="50.722897" lon="7.204934">
      </trkpt>
      <trkpt lat="50.723396" lon="7.205586">
      </trkpt>
      <trkpt lat="50.723792" lon="7.20618">
      </trkpt>
      <trkpt lat="50.72407" lon="7.207194">
      </trkpt>
      <trkpt lat="50.72514" lon="7.20893">
      </trkpt>
      <trkpt lat="50.725773" lon="7.209804">
      </trkpt>
      <trkpt lat="50.726909" lon="7.210635">
      </trkpt>
      <trkpt lat="50.728476" lon="7.211956">
      </trkpt>
      <trkpt lat="50.728927" lon="7.208263">
      </trkpt>
      <trkpt lat="50.729745" lon="7.2085">
      </trkpt>
      <trkpt lat="50.730324" lon="7.209207">
      </trkpt>
      <trkpt lat="50.731048" lon="7.210104">
      </trkpt>
      <trkpt lat="50.731818" lon="7.210941">
      </trkpt>
      <trkpt lat="50.732405" lon="7.211557">
      </trkpt>
      <trkpt lat="50.732979" lon="7.212128">
      </trkpt>
      <trkpt lat="50.734258" lon="7.211681">
      </trkpt>
      <trkpt lat="50.735585" lon="7.211767">
      </trkpt>
      <trkpt lat="50.735881" lon="7.209947">
      </trkpt>
      <trkpt lat="50.73683" lon="7.209066">
      </trkpt>
      <trkpt lat="50.738135" lon="7.207931">
      </trkpt>
      <trkpt lat="50.738805" lon="7.207267">
      </trkpt>
      <trkpt lat="50.739269" lon="7.206825">
      </trkpt>
      <trkpt lat="50.739984" lon="7.208427">
      </trkpt>
      <trkpt lat="50.740434" lon="7.209229">
      </trkpt>
      <trkpt lat="50.740587" lon="7.21047">
      </trkpt>
      <trkpt lat="50.741064" lon="7.21097">
      </trkpt>
      <trkpt lat="50.741597" lon="7.211348">
      </trkpt>
      <trkpt lat="50.741908" lon="7.212108">
      </trkpt>
      <trkpt lat="50.742752" lon="7.2128">
      </trkpt>
      <trkpt lat="50.742974" lon="7.213587">
      </trkpt>
      <trkpt lat="50.742789" lon="7.2147">
      </trkpt>
      <trkpt lat="50.742722" lon="7.216796">
      </trkpt>
      <trkpt lat="50.744377" lon="7.217198">
      </trkpt>
      <trkpt lat="50.745213" lon="7.217402">
      </trkpt>
      <trkpt lat="50.746195" lon="7.217732">
      </trkpt>
      <trkpt lat="50.746842" lon="7.21869">
      </trkpt>
      <trkpt lat="50.747416" lon="7.218542">
      </trkpt>
      <trkpt lat="50.747358" lon="7.217318">
      </trkpt>
      <trkpt lat="50.747387" lon="7.21446">
      </trkpt>
      <trkpt lat="50.74745" lon="7.213211">
      </trkpt>
      <trkpt lat="50.747468" lon="7.212311">
      </trkpt>
      <trkpt lat="50.74933" lon="7.212125">
      </trkpt>
      <trkpt lat="50.749916" lon="7.211936">
      </trkpt>
      <trkpt lat="50.751301" lon="7.210688">
      </trkpt>
      <trkpt lat="50.751891" lon="7.210159">
      </trkpt>
      <trkpt lat="50.752349" lon="7.209704">
      </trkpt>
      <trkpt lat="50.753098" lon="7.207421">
      </trkpt>
      <trkpt lat="50.753463" lon="7.206553">
      </trkpt>
      <trkpt lat="50.753821" lon="7.204881">
      </trkpt>
      <trkpt lat="50.753887" lon="7.203941">
      </trkpt>
      <trkpt lat="50.754282" lon="7.202067">
      </trkpt>
      <trkpt lat="50.755011" lon="7.201293">
      </trkpt>
      <trkpt lat="50.755059" lon="7.200126">
      </trkpt>
      <trkpt lat="50.755797" lon="7.200619">
      </trkpt>
      <trkpt lat="50.755821" lon="7.199641">
      </trkpt>
      <trkpt lat="50.755503" lon="7.198039">
      </trkpt>
      <trkpt lat="50.755333" lon="7.196986">
      </trkpt>
      <trkpt lat="50.755026" lon="7.195719">
      </trkpt>
      <trkpt lat="50.755115" lon="7.19474">
      </trkpt>
      <trkpt lat="50.755721" lon="7.192754">
      </trkpt>
      <trkpt lat="50.755846" lon="7.191805">
      </trkpt>
      <trkpt lat="50.755526" lon="7.190867">
      </trkpt>
      <trkpt lat="50.755476" lon="7.189288">
      </trkpt>
      <trkpt lat="50.755223" lon="7.187925">
      </trkpt>
      <trkpt lat="50.755215" lon="7.186203">
      </trkpt>
      <trkpt lat="50.755992" lon="7.186056">
      </trkpt>
      <trkpt lat="50.756567" lon="7.185617">
      </trkpt>
      <trkpt lat="50.756835" lon="7.184832">
      </trkpt>
      <trkpt lat="50.757511" lon="7.183147">
      </trkpt>
      <trkpt lat="50.757892" lon="7.1819">
      </trkpt>
      <trkpt lat="50.758037" lon="7.180835">
      </trkpt>
      <trkpt lat="50.757944" lon="7.179668">
      </trkpt>
      <trkpt lat="50.75726" lon="7.177434">
      </trkpt>
      <trkpt lat="50.756904" lon="7.176472">
      </trkpt>
      <trkpt lat="50.756338" lon="7.175643">
      </trkpt>
      <trkpt lat="50.756651" lon="7.173799">
      </trkpt>
      <trkpt lat="50.756936" lon="7.172827">
      </trkpt>
      <trkpt lat="50.757245" lon="7.17181">
      </trkpt>
      <trkpt lat="50.7576" lon="7.170643">
      </trkpt>
      <trkpt lat="50.758005" lon="7.169128">
      </trkpt>
      <trkpt lat="50.758326" lon="7.168435">
      </trkpt>
      <trkpt lat="50.757999" lon="7.16709">
      </trkpt>
      <trkpt lat="50.757806" lon="7.166091">
      </trkpt>
      <trkpt lat="50.758178" lon="7.165337">
      </trkpt>
      <trkpt lat="50.759285" lon="7.163754">
      </trkpt>
      <trkpt lat="50.758534" lon="7.160436">
      </trkpt>
      <trkpt lat="50.758294" lon="7.159442">
      </trkpt>
      <trkpt lat="50.758259" lon="7.158092">
      </trkpt>
      <trkpt lat="50.758684" lon="7.157205">
      </trkpt>
      <trkpt lat="50.758998" lon="7.155848">
      </trkpt>
      <trkpt lat="50.759498" lon="7.153639">
      </trkpt>
      <trkpt lat="50.759948" lon="7.152125">
      </trkpt>
      <trkpt lat="50.759858" lon="7.150882">
      </trkpt>
      <trkpt lat="50.759401" lon="7.149994">
      </trkpt>
      <trkpt lat="50.758991" lon="7.149434">
      </trkpt>
      <trkpt lat="50.758203" lon="7.147818">
      </trkpt>
      <trkpt lat="50.757725" lon="7.14712">
      </trkpt>
      <trkpt lat="50.758017" lon="7.146142">
      </trkpt>
      <trkpt lat="50.758532" lon="7.144994">
      </trkpt>
      <trkpt lat="50.759218" lon="7.143256">
      </trkpt>
      <trkpt lat="50.759485" lon="7.14246">
      </trkpt>
      <trkpt lat="50.759343" lon="7.141275">
      </trkpt>
      <trkpt lat="50.758703" lon="7.140294">
      </trkpt>
      <trkpt lat="50.758085" lon="7.139373">
      </trkpt>
      <trkpt lat="50.757003" lon="7.137633">
      </trkpt>
      <trkpt lat="50.756546" lon="7.136689">
      </trkpt>
      <trkpt lat="50.75686" lon="7.135743">
      </trkpt>
      <trkpt lat="50.757225" lon="7.134703">
      </trkpt>
      <trkpt lat="50.756955" lon="7.13553">
      </trkpt>
      <trkpt lat="50.755667" lon="7.13486">
      </trkpt>
      <trkpt lat="50.754782" lon="7.133231">
      </trkpt>
      <trkpt lat="50.755602" lon="7.129245">
      </trkpt>
      <trkpt lat="50.755736" lon="7.126906">
      </trkpt>
      <trkpt lat="50.755954" lon="7.125364">
      </trkpt>
      <trkpt lat="50.756042" lon="7.124318">
      </trkpt>
      <trkpt lat="50.755968" lon="7.123252">
      </trkpt>
      <trkpt lat="50.755935" lon="7.121989">
      </trkpt>
      <trkpt lat="50.755743" lon="7.121133">
      </trkpt>
      <trkpt lat="50.755554" lon="7.120259">
      </trkpt>
      <trkpt lat="50.755155" lon="7.118809">
      </trkpt>
      <trkpt lat="50.754414" lon="7.118632">
      </trkpt>
      <trkpt lat="50.754058" lon="7.117865">
      </trkpt>
      <trkpt lat="50.753714" lon="7.116363">
      </trkpt>
      <trkpt lat="50.753621" lon="7.11478">
      </trkpt>
      <trkpt lat="50.753823" lon="7.113453">
      </trkpt>
      <trkpt lat="50.753818" lon="7.112288">
      </trkpt>
      <trkpt lat="50.753947" lon="7.11128">
      </trkpt>
      <trkpt lat="50.754117" lon="7.110279">
      </trkpt>
      <trkpt lat="50.753639" lon="7.110791">
      </trkpt>
      <trkpt lat="50.75358" lon="7.109797">
      </trkpt>
      <trkpt lat="50.753447" lon="7.10883">
      </trkpt>
      <trkpt lat="50.753116" lon="7.108007">
      </trkpt>
      <trkpt lat="50.752848" lon="7.107208">
      </trkpt>
      <trkpt lat="50.75217" lon="7.107499">
      </trkpt>
      <trkpt lat="50.751478" lon="7.107739">
      </trkpt>
      <trkpt lat="50.75039" lon="7.108355">
      </trkpt>
      <trkpt lat="50.74921" lon="7.108519">
      </trkpt>
      <trkpt lat="50.747759" lon="7.109188">
      </trkpt>
      <trkpt lat="50.746471" lon="7.10968">
      </trkpt>
      <trkpt lat="50.745437" lon="7.110331">
      </trkpt>
      <trkpt lat="50.744846" lon="7.110763">
      </trkpt>
      <trkpt lat="50.744119" lon="7.111256">
      </trkpt>
      <trkpt lat="50.742769" lon="7.111862">
      </trkpt>
      <trkpt lat="50.742146" lon="7.112145">
      </trkpt>
      <trkpt lat="50.741425" lon="7.11272">
      </trkpt>
      <trkpt lat="50.740466" lon="7.113008">
      </trkpt>
      <trkpt lat="50.739778" lon="7.112939">
      </trkpt>
      <trkpt lat="50.738815" lon="7.113125">
      </trkpt>
      <trkpt lat="50.739012" lon="7.114687">
      </trkpt>
      <trkpt lat="50.739133" lon="7.115623">
      </trkpt>
      <trkpt lat="50.738756" lon="7.114711">
      </trkpt>
      <trkpt lat="50.738574" lon="7.11341">
      </trkpt>
      <trkpt lat="50.738118" lon="7.110063">
      </trkpt>
      <trkpt lat="50.73765" lon="7.106707">
      </trkpt>
      <trkpt lat="50.737447" lon="7.105809">
      </trkpt>
      <trkpt lat="50.736871" lon="7.10584">
      </trkpt>
      <trkpt lat="50.736138" lon="7.106072">
      </trkpt>
      <trkpt lat="50.735778" lon="7.105198">
      </trkpt>
      <trkpt lat="50.734693" lon="7.105412">
      </trkpt>
      <trkpt lat="50.73444" lon="7.104193">
      </trkpt>
    </trkseg>
  </trk>
</gpx>