<?xml version="1.0" encoding="UTF-8"?>
<gpx xmlns="http://www.topografix.com/GPX/1/1" xmlns:xsi="http://www.w3.org/2001/XMLSchema-instance" xsi:schemaLocation="http://www.topografix.com/GPX/1/1 http://www.topografix.com/GPX/1/1/gpx.xsd" version="1.1" creator="gpx.py -- https://github.com/tkrajina/gpxpy">
  <metadata>
    <name>045</name>
  </metadata>
  <trk>
    <name>045</name>
    <trkseg>
      <trkpt lat="50.734165" lon="7.104228">
      </trkpt>
      <trkpt lat="50.733665" lon="7.103773">
      </trkpt>
      <trkpt lat="50.733188" lon="7.103172">
      </trkpt>
      <trkpt lat="50.732619" lon="7.102447">
      </trkpt>
      <trkpt lat="50.732138" lon="7.101498">
      </trkpt>
      <trkpt lat="50.731709" lon="7.100973">
      </trkpt>
      <trkpt lat="50.731272" lon="7.102107">
      </trkpt>
      <trkpt lat="50.730687" lon="7.102675">
      </trkpt>
      <trkpt lat="50.729252" lon="7.103854">
      </trkpt>
      <trkpt lat="50.729885" lon="7.10325">
      </trkpt>
      <trkpt lat="50.729252" lon="7.103854">
      </trkpt>
      <trkpt lat="50.728403" lon="7.10455">
      </trkpt>
      <trkpt lat="50.727633" lon="7.105195">
      </trkpt>
      <trkpt lat="50.727043" lon="7.105751">
      </trkpt>
      <trkpt lat="50.726808" lon="7.104896">
      </trkpt>
      <trkpt lat="50.726282" lon="7.103307">
      </trkpt>
      <trkpt lat="50.726005" lon="7.102413">
      </trkpt>
      <trkpt lat="50.725762" lon="7.101628">
      </trkpt>
      <trkpt lat="50.7255" lon="7.100808">
      </trkpt>
      <trkpt lat="50.725035" lon="7.099306">
      </trkpt>
      <trkpt lat="50.725805" lon="7.098637">
      </trkpt>
      <trkpt lat="50.725272" lon="7.097795">
      </trkpt>
      <trkpt lat="50.724381" lon="7.096387">
      </trkpt>
      <trkpt lat="50.723674" lon="7.095591">
      </trkpt>
      <trkpt lat="50.722998" lon="7.094847">
      </trkpt>
      <trkpt lat="50.722521" lon="7.094336">
      </trkpt>
      <trkpt lat="50.721755" lon="7.093539">
      </trkpt>
      <trkpt lat="50.721002" lon="7.092764">
      </trkpt>
      <trkpt lat="50.720515" lon="7.092259">
      </trkpt>
      <trkpt lat="50.719774" lon="7.091731">
      </trkpt>
      <trkpt lat="50.719448" lon="7.092525">
      </trkpt>
      <trkpt lat="50.71908" lon="7.094313">
      </trkpt>
      <trkpt lat="50.718615" lon="7.095685">
      </trkpt>
      <trkpt lat="50.718184" lon="7.096325">
      </trkpt>
      <trkpt lat="50.717631" lon="7.096557">
      </trkpt>
      <trkpt lat="50.718184" lon="7.095824">
      </trkpt>
      <trkpt lat="50.718416" lon="7.094673">
      </trkpt>
      <trkpt lat="50.718239" lon="7.093452">
      </trkpt>
      <trkpt lat="50.718162" lon="7.094777">
      </trkpt>
      <trkpt lat="50.717317" lon="7.095453">
      </trkpt>
      <trkpt lat="50.716615" lon="7.096596">
      </trkpt>
      <trkpt lat="50.716117" lon="7.097062">
      </trkpt>
      <trkpt lat="50.715709" lon="7.097981">
      </trkpt>
      <trkpt lat="50.715141" lon="7.098324">
      </trkpt>
      <trkpt lat="50.7146" lon="7.098987">
      </trkpt>
      <trkpt lat="50.714271" lon="7.099759">
      </trkpt>
      <trkpt lat="50.713653" lon="7.09903">
      </trkpt>
      <trkpt lat="50.713121" lon="7.09835">
      </trkpt>
      <trkpt lat="50.712475" lon="7.098343">
      </trkpt>
      <trkpt lat="50.711655" lon="7.097787">
      </trkpt>
      <trkpt lat="50.711113" lon="7.097656">
      </trkpt>
      <trkpt lat="50.710161" lon="7.099145">
      </trkpt>
      <trkpt lat="50.709698" lon="7.100062">
      </trkpt>
      <trkpt lat="50.709346" lon="7.100813">
      </trkpt>
      <trkpt lat="50.708801" lon="7.100854">
      </trkpt>
      <trkpt lat="50.708145" lon="7.100771">
      </trkpt>
      <trkpt lat="50.707543" lon="7.100274">
      </trkpt>
      <trkpt lat="50.706819" lon="7.099519">
      </trkpt>
      <trkpt lat="50.706403" lon="7.098677">
      </trkpt>
      <trkpt lat="50.705967" lon="7.099236">
      </trkpt>
      <trkpt lat="50.705916" lon="7.1001">
      </trkpt>
      <trkpt lat="50.705851" lon="7.101521">
      </trkpt>
      <trkpt lat="50.705593" lon="7.102557">
      </trkpt>
      <trkpt lat="50.705145" lon="7.103426">
      </trkpt>
      <trkpt lat="50.704239" lon="7.103624">
      </trkpt>
      <trkpt lat="50.703672" lon="7.104058">
      </trkpt>
      <trkpt lat="50.703018" lon="7.104459">
      </trkpt>
      <trkpt lat="50.70252" lon="7.104884">
      </trkpt>
      <trkpt lat="50.702044" lon="7.105695">
      </trkpt>
      <trkpt lat="50.701615" lon="7.10658">
      </trkpt>
      <trkpt lat="50.701241" lon="7.107247">
      </trkpt>
      <trkpt lat="50.700575" lon="7.107553">
      </trkpt>
      <trkpt lat="50.699805" lon="7.107807">
      </trkpt>
      <trkpt lat="50.699244" lon="7.107649">
      </trkpt>
      <trkpt lat="50.697455" lon="7.10836">
      </trkpt>
      <trkpt lat="50.696903" lon="7.108707">
      </trkpt>
      <trkpt lat="50.696238" lon="7.108591">
      </trkpt>
      <trkpt lat="50.694492" lon="7.107933">
      </trkpt>
      <trkpt lat="50.693813" lon="7.10733">
      </trkpt>
      <trkpt lat="50.693307" lon="7.106932">
      </trkpt>
      <trkpt lat="50.692776" lon="7.106071">
      </trkpt>
      <trkpt lat="50.692026" lon="7.106154">
      </trkpt>
      <trkpt lat="50.691027" lon="7.106757">
      </trkpt>
      <trkpt lat="50.690496" lon="7.107407">
      </trkpt>
      <trkpt lat="50.689827" lon="7.107172">
      </trkpt>
      <trkpt lat="50.689176" lon="7.107457">
      </trkpt>
      <trkpt lat="50.688511" lon="7.107248">
      </trkpt>
      <trkpt lat="50.687946" lon="7.106969">
      </trkpt>
      <trkpt lat="50.687657" lon="7.107728">
      </trkpt>
      <trkpt lat="50.68611" lon="7.110248">
      </trkpt>
      <trkpt lat="50.683526" lon="7.114443">
      </trkpt>
      <trkpt lat="50.683151" lon="7.115345">
      </trkpt>
      <trkpt lat="50.682644" lon="7.116548">
      </trkpt>
      <trkpt lat="50.682065" lon="7.117767">
      </trkpt>
      <trkpt lat="50.681978" lon="7.118711">
      </trkpt>
      <trkpt lat="50.680126" lon="7.118024">
      </trkpt>
      <trkpt lat="50.677588" lon="7.117091">
      </trkpt>
      <trkpt lat="50.676525" lon="7.116115">
      </trkpt>
      <trkpt lat="50.675675" lon="7.115487">
      </trkpt>
      <trkpt lat="50.674106" lon="7.115095">
      </trkpt>
      <trkpt lat="50.673491" lon="7.114942">
      </trkpt>
      <trkpt lat="50.670997" lon="7.116083">
      </trkpt>
      <trkpt lat="50.670281" lon="7.116675">
      </trkpt>
      <trkpt lat="50.666203" lon="7.122138">
      </trkpt>
      <trkpt lat="50.665942" lon="7.12457">
      </trkpt>
      <trkpt lat="50.665847" lon="7.125524">
      </trkpt>
      <trkpt lat="50.665472" lon="7.126184">
      </trkpt>
      <trkpt lat="50.665496" lon="7.127493">
      </trkpt>
      <trkpt lat="50.665169" lon="7.128573">
      </trkpt>
      <trkpt lat="50.665778" lon="7.128614">
      </trkpt>
      <trkpt lat="50.665686" lon="7.129517">
      </trkpt>
      <trkpt lat="50.666218" lon="7.129781">
      </trkpt>
      <trkpt lat="50.666101" lon="7.130627">
      </trkpt>
      <trkpt lat="50.665518" lon="7.130733">
      </trkpt>
      <trkpt lat="50.66487" lon="7.13061">
      </trkpt>
      <trkpt lat="50.664314" lon="7.130773">
      </trkpt>
      <trkpt lat="50.664657" lon="7.131476">
      </trkpt>
      <trkpt lat="50.665064" lon="7.132456">
      </trkpt>
      <trkpt lat="50.664259" lon="7.132095">
      </trkpt>
      <trkpt lat="50.663496" lon="7.133495">
      </trkpt>
      <trkpt lat="50.663337" lon="7.134363">
      </trkpt>
      <trkpt lat="50.661729" lon="7.138125">
      </trkpt>
      <trkpt lat="50.661988" lon="7.139131">
      </trkpt>
      <trkpt lat="50.662659" lon="7.141328">
      </trkpt>
      <trkpt lat="50.662951" lon="7.142483">
      </trkpt>
      <trkpt lat="50.662466" lon="7.143183">
      </trkpt>
      <trkpt lat="50.661976" lon="7.143891">
      </trkpt>
      <trkpt lat="50.661239" lon="7.143909">
      </trkpt>
      <trkpt lat="50.660314" lon="7.143972">
      </trkpt>
      <trkpt lat="50.657992" lon="7.142883">
      </trkpt>
      <trkpt lat="50.657501" lon="7.14237">
      </trkpt>
      <trkpt lat="50.656436" lon="7.141782">
      </trkpt>
      <trkpt lat="50.656511" lon="7.143162">
      </trkpt>
      <trkpt lat="50.656694" lon="7.143988">
      </trkpt>
      <trkpt lat="50.65696" lon="7.144769">
      </trkpt>
      <trkpt lat="50.657004" lon="7.145644">
      </trkpt>
      <trkpt lat="50.65695" lon="7.146882">
      </trkpt>
      <trkpt lat="50.656295" lon="7.14815">
      </trkpt>
      <trkpt lat="50.65694" lon="7.149784">
      </trkpt>
      <trkpt lat="50.656545" lon="7.150428">
      </trkpt>
      <trkpt lat="50.656172" lon="7.151121">
      </trkpt>
      <trkpt lat="50.655584" lon="7.151292">
      </trkpt>
      <trkpt lat="50.655151" lon="7.151884">
      </trkpt>
      <trkpt lat="50.654567" lon="7.151864">
      </trkpt>
      <trkpt lat="50.654315" lon="7.151107">
      </trkpt>
      <trkpt lat="50.654488" lon="7.153073">
      </trkpt>
      <trkpt lat="50.654657" lon="7.153932">
      </trkpt>
      <trkpt lat="50.654858" lon="7.154853">
      </trkpt>
      <trkpt lat="50.655057" lon="7.156654">
      </trkpt>
      <trkpt lat="50.655148" lon="7.15776">
      </trkpt>
      <trkpt lat="50.655187" lon="7.159345">
      </trkpt>
      <trkpt lat="50.654672" lon="7.159857">
      </trkpt>
      <trkpt lat="50.654075" lon="7.159295">
      </trkpt>
      <trkpt lat="50.653398" lon="7.160895">
      </trkpt>
      <trkpt lat="50.653294" lon="7.1618">
      </trkpt>
      <trkpt lat="50.653324" lon="7.162857">
      </trkpt>
      <trkpt lat="50.652483" lon="7.163588">
      </trkpt>
      <trkpt lat="50.651544" lon="7.164224">
      </trkpt>
      <trkpt lat="50.650176" lon="7.165271">
      </trkpt>
      <trkpt lat="50.649287" lon="7.164389">
      </trkpt>
      <trkpt lat="50.649213" lon="7.165448">
      </trkpt>
      <trkpt lat="50.649665" lon="7.169645">
      </trkpt>
      <trkpt lat="50.650258" lon="7.170732">
      </trkpt>
      <trkpt lat="50.650792" lon="7.171424">
      </trkpt>
      <trkpt lat="50.65101" lon="7.173112">
      </trkpt>
      <trkpt lat="50.649244" lon="7.174227">
      </trkpt>
      <trkpt lat="50.64888" lon="7.17494">
      </trkpt>
      <trkpt lat="50.646775" lon="7.17365">
      </trkpt>
      <trkpt lat="50.646395" lon="7.174846">
      </trkpt>
      <trkpt lat="50.644961" lon="7.173992">
      </trkpt>
      <trkpt lat="50.644257" lon="7.172867">
      </trkpt>
      <trkpt lat="50.643884" lon="7.17175">
      </trkpt>
      <trkpt lat="50.64357" lon="7.170756">
      </trkpt>
      <trkpt lat="50.643108" lon="7.170173">
      </trkpt>
      <trkpt lat="50.642424" lon="7.170209">
      </trkpt>
      <trkpt lat="50.641891" lon="7.169826">
      </trkpt>
      <trkpt lat="50.64129" lon="7.169905">
      </trkpt>
      <trkpt lat="50.64058" lon="7.169318">
      </trkpt>
      <trkpt lat="50.639829" lon="7.168981">
      </trkpt>
      <trkpt lat="50.639409" lon="7.168356">
      </trkpt>
      <trkpt lat="50.639083" lon="7.167315">
      </trkpt>
      <trkpt lat="50.639654" lon="7.165214">
      </trkpt>
      <trkpt lat="50.640011" lon="7.164063">
      </trkpt>
      <trkpt lat="50.640233" lon="7.162874">
      </trkpt>
      <trkpt lat="50.639455" lon="7.161405">
      </trkpt>
      <trkpt lat="50.638692" lon="7.160963">
      </trkpt>
      <trkpt lat="50.637999" lon="7.160119">
      </trkpt>
      <trkpt lat="50.637383" lon="7.160008">
      </trkpt>
      <trkpt lat="50.636842" lon="7.159631">
      </trkpt>
      <trkpt lat="50.636241" lon="7.159398">
      </trkpt>
      <trkpt lat="50.63573" lon="7.158968">
      </trkpt>
      <trkpt lat="50.635025" lon="7.158652">
      </trkpt>
      <trkpt lat="50.633636" lon="7.158098">
      </trkpt>
      <trkpt lat="50.632408" lon="7.157621">
      </trkpt>
      <trkpt lat="50.63128" lon="7.157219">
      </trkpt>
      <trkpt lat="50.630831" lon="7.157932">
      </trkpt>
      <trkpt lat="50.629831" lon="7.158444">
      </trkpt>
      <trkpt lat="50.629217" lon="7.15833">
      </trkpt>
      <trkpt lat="50.628586" lon="7.158535">
      </trkpt>
      <trkpt lat="50.628674" lon="7.16088">
      </trkpt>
      <trkpt lat="50.627495" lon="7.164796">
      </trkpt>
      <trkpt lat="50.627872" lon="7.165515">
      </trkpt>
      <trkpt lat="50.628364" lon="7.166338">
      </trkpt>
      <trkpt lat="50.627872" lon="7.165515">
      </trkpt>
      <trkpt lat="50.627495" lon="7.164796">
      </trkpt>
      <trkpt lat="50.626813" lon="7.163116">
      </trkpt>
      <trkpt lat="50.626145" lon="7.163021">
      </trkpt>
      <trkpt lat="50.625024" lon="7.163957">
      </trkpt>
      <trkpt lat="50.624409" lon="7.16347">
      </trkpt>
      <trkpt lat="50.622876" lon="7.162971">
      </trkpt>
      <trkpt lat="50.622047" lon="7.162748">
      </trkpt>
      <trkpt lat="50.621504" lon="7.16236">
      </trkpt>
      <trkpt lat="50.620778" lon="7.161785">
      </trkpt>
      <trkpt lat="50.620236" lon="7.162263">
      </trkpt>
      <trkpt lat="50.619371" lon="7.162326">
      </trkpt>
      <trkpt lat="50.618663" lon="7.163213">
      </trkpt>
      <trkpt lat="50.618069" lon="7.163539">
      </trkpt>
      <trkpt lat="50.617551" lon="7.162737">
      </trkpt>
      <trkpt lat="50.617001" lon="7.162468">
      </trkpt>
      <trkpt lat="50.616268" lon="7.162647">
      </trkpt>
      <trkpt lat="50.615537" lon="7.163055">
      </trkpt>
      <trkpt lat="50.614504" lon="7.163371">
      </trkpt>
      <trkpt lat="50.613728" lon="7.162795">
      </trkpt>
      <trkpt lat="50.613029" lon="7.16479">
      </trkpt>
      <trkpt lat="50.612579" lon="7.165838">
      </trkpt>
      <trkpt lat="50.612328" lon="7.167249">
      </trkpt>
      <trkpt lat="50.611786" lon="7.168095">
      </trkpt>
      <trkpt lat="50.611626" lon="7.169257">
      </trkpt>
      <trkpt lat="50.611812" lon="7.170384">
      </trkpt>
      <trkpt lat="50.612473" lon="7.170943">
      </trkpt>
      <trkpt lat="50.61321" lon="7.171696">
      </trkpt>
      <trkpt lat="50.614019" lon="7.172327">
      </trkpt>
      <trkpt lat="50.614576" lon="7.17314">
      </trkpt>
      <trkpt lat="50.615083" lon="7.173483">
      </trkpt>
      <trkpt lat="50.615735" lon="7.173267">
      </trkpt>
      <trkpt lat="50.616022" lon="7.174054">
      </trkpt>
      <trkpt lat="50.616488" lon="7.175172">
      </trkpt>
      <trkpt lat="50.616419" lon="7.176244">
      </trkpt>
      <trkpt lat="50.617528" lon="7.176748">
      </trkpt>
      <trkpt lat="50.618282" lon="7.17687">
      </trkpt>
      <trkpt lat="50.619532" lon="7.177318">
      </trkpt>
      <trkpt lat="50.620334" lon="7.176899">
      </trkpt>
      <trkpt lat="50.620977" lon="7.176229">
      </trkpt>
      <trkpt lat="50.621285" lon="7.176939">
      </trkpt>
      <trkpt lat="50.621996" lon="7.177004">
      </trkpt>
      <trkpt lat="50.622578" lon="7.176939">
      </trkpt>
      <trkpt lat="50.625416" lon="7.177153">
      </trkpt>
      <trkpt lat="50.625937" lon="7.177396">
      </trkpt>
      <trkpt lat="50.626332" lon="7.179736">
      </trkpt>
      <trkpt lat="50.626856" lon="7.181749">
      </trkpt>
      <trkpt lat="50.627381" lon="7.184131">
      </trkpt>
      <trkpt lat="50.627083" lon="7.185619">
      </trkpt>
      <trkpt lat="50.627725" lon="7.18663">
      </trkpt>
      <trkpt lat="50.628506" lon="7.188156">
      </trkpt>
      <trkpt lat="50.629659" lon="7.188973">
      </trkpt>
      <trkpt lat="50.630576" lon="7.189359">
      </trkpt>
      <trkpt lat="50.631427" lon="7.189636">
      </trkpt>
      <trkpt lat="50.633906" lon="7.190146">
      </trkpt>
      <trkpt lat="50.63455" lon="7.19026">
      </trkpt>
      <trkpt lat="50.635492" lon="7.187264">
      </trkpt>
      <trkpt lat="50.636576" lon="7.188428">
      </trkpt>
      <trkpt lat="50.63802" lon="7.189973">
      </trkpt>
      <trkpt lat="50.639683" lon="7.191763">
      </trkpt>
      <trkpt lat="50.640708" lon="7.191339">
      </trkpt>
      <trkpt lat="50.641452" lon="7.190868">
      </trkpt>
      <trkpt lat="50.642105" lon="7.190019">
      </trkpt>
      <trkpt lat="50.642722" lon="7.189168">
      </trkpt>
      <trkpt lat="50.643331" lon="7.188661">
      </trkpt>
      <trkpt lat="50.644522" lon="7.188412">
      </trkpt>
      <trkpt lat="50.645545" lon="7.188632">
      </trkpt>
      <trkpt lat="50.646644" lon="7.188667">
      </trkpt>
      <trkpt lat="50.647998" lon="7.188682">
      </trkpt>
      <trkpt lat="50.648561" lon="7.18877">
      </trkpt>
      <trkpt lat="50.649286" lon="7.189097">
      </trkpt>
      <trkpt lat="50.649656" lon="7.189826">
      </trkpt>
      <trkpt lat="50.650102" lon="7.188978">
      </trkpt>
      <trkpt lat="50.650956" lon="7.189842">
      </trkpt>
      <trkpt lat="50.650491" lon="7.190881">
      </trkpt>
      <trkpt lat="50.650066" lon="7.191804">
      </trkpt>
      <trkpt lat="50.648959" lon="7.192906">
      </trkpt>
      <trkpt lat="50.648568" lon="7.193932">
      </trkpt>
      <trkpt lat="50.64904" lon="7.194614">
      </trkpt>
      <trkpt lat="50.649377" lon="7.195631">
      </trkpt>
      <trkpt lat="50.650194" lon="7.196686">
      </trkpt>
      <trkpt lat="50.649574" lon="7.197671">
      </trkpt>
      <trkpt lat="50.650291" lon="7.197584">
      </trkpt>
      <trkpt lat="50.650752" lon="7.198244">
      </trkpt>
      <trkpt lat="50.650109" lon="7.19905">
      </trkpt>
      <trkpt lat="50.650168" lon="7.20002">
      </trkpt>
      <trkpt lat="50.649489" lon="7.200737">
      </trkpt>
      <trkpt lat="50.64976" lon="7.202349">
      </trkpt>
      <trkpt lat="50.650195" lon="7.203967">
      </trkpt>
      <trkpt lat="50.651897" lon="7.202727">
      </trkpt>
      <trkpt lat="50.652747" lon="7.202097">
      </trkpt>
      <trkpt lat="50.653319" lon="7.201674">
      </trkpt>
      <trkpt lat="50.653921" lon="7.201241">
      </trkpt>
      <trkpt lat="50.655409" lon="7.200135">
      </trkpt>
      <trkpt lat="50.656508" lon="7.199327">
      </trkpt>
      <trkpt lat="50.657721" lon="7.198431">
      </trkpt>
      <trkpt lat="50.658346" lon="7.19802">
      </trkpt>
      <trkpt lat="50.659243" lon="7.197593">
      </trkpt>
      <trkpt lat="50.659889" lon="7.197064">
      </trkpt>
      <trkpt lat="50.660576" lon="7.196478">
      </trkpt>
      <trkpt lat="50.662026" lon="7.195095">
      </trkpt>
      <trkpt lat="50.662356" lon="7.195974">
      </trkpt>
      <trkpt lat="50.663318" lon="7.194989">
      </trkpt>
      <trkpt lat="50.664195" lon="7.194046">
      </trkpt>
      <trkpt lat="50.664679" lon="7.193569">
      </trkpt>
      <trkpt lat="50.665435" lon="7.192744">
      </trkpt>
      <trkpt lat="50.666313" lon="7.192151">
      </trkpt>
      <trkpt lat="50.666951" lon="7.191524">
      </trkpt>
      <trkpt lat="50.667567" lon="7.191139">
      </trkpt>
      <trkpt lat="50.668016" lon="7.190583">
      </trkpt>
      <trkpt lat="50.66857" lon="7.19021">
      </trkpt>
      <trkpt lat="50.669157" lon="7.189455">
      </trkpt>
      <trkpt lat="50.669691" lon="7.189021">
      </trkpt>
      <trkpt lat="50.670441" lon="7.188383">
      </trkpt>
      <trkpt lat="50.673441" lon="7.185979">
      </trkpt>
      <trkpt lat="50.677368" lon="7.182599">
      </trkpt>
      <trkpt lat="50.677982" lon="7.182027">
      </trkpt>
      <trkpt lat="50.678922" lon="7.181087">
      </trkpt>
      <trkpt lat="50.679729" lon="7.180219">
      </trkpt>
      <trkpt lat="50.680254" lon="7.179664">
      </trkpt>
      <trkpt lat="50.681225" lon="7.178726">
      </trkpt>
      <trkpt lat="50.682695" lon="7.177228">
      </trkpt>
      <trkpt lat="50.683874" lon="7.175762">
      </trkpt>
      <trkpt lat="50.684966" lon="7.174671">
      </trkpt>
      <trkpt lat="50.685663" lon="7.174115">
      </trkpt>
      <trkpt lat="50.688418" lon="7.172622">
      </trkpt>
      <trkpt lat="50.689074" lon="7.172311">
      </trkpt>
      <trkpt lat="50.689631" lon="7.172038">
      </trkpt>
      <trkpt lat="50.69025" lon="7.171733">
      </trkpt>
      <trkpt lat="50.690923" lon="7.171427">
      </trkpt>
      <trkpt lat="50.691487" lon="7.171102">
      </trkpt>
      <trkpt lat="50.692425" lon="7.170638">
      </trkpt>
      <trkpt lat="50.693219" lon="7.170225">
      </trkpt>
      <trkpt lat="50.693846" lon="7.169731">
      </trkpt>
      <trkpt lat="50.69466" lon="7.169534">
      </trkpt>
      <trkpt lat="50.696304" lon="7.169005">
      </trkpt>
      <trkpt lat="50.698153" lon="7.168176">
      </trkpt>
      <trkpt lat="50.698976" lon="7.167825">
      </trkpt>
      <trkpt lat="50.699791" lon="7.167468">
      </trkpt>
      <trkpt lat="50.700823" lon="7.166879">
      </trkpt>
      <trkpt lat="50.70167" lon="7.166327">
      </trkpt>
      <trkpt lat="50.70217" lon="7.165921">
      </trkpt>
      <trkpt lat="50.702676" lon="7.165454">
      </trkpt>
      <trkpt lat="50.703326" lon="7.16488">
      </trkpt>
      <trkpt lat="50.70409" lon="7.164194">
      </trkpt>
      <trkpt lat="50.704995" lon="7.163404">
      </trkpt>
      <trkpt lat="50.705986" lon="7.162434">
      </trkpt>
      <trkpt lat="50.706476" lon="7.161883">
      </trkpt>
      <trkpt lat="50.707754" lon="7.160382">
      </trkpt>
      <trkpt lat="50.708746" lon="7.159113">
      </trkpt>
      <trkpt lat="50.70928" lon="7.158308">
      </trkpt>
      <trkpt lat="50.710338" lon="7.156615">
      </trkpt>
      <trkpt lat="50.711708" lon="7.154154">
      </trkpt>
      <trkpt lat="50.711846" lon="7.15301">
      </trkpt>
      <trkpt lat="50.712011" lon="7.151675">
      </trkpt>
      <trkpt lat="50.712159" lon="7.150528">
      </trkpt>
      <trkpt lat="50.712438" lon="7.149742">
      </trkpt>
      <trkpt lat="50.713152" lon="7.148884">
      </trkpt>
      <trkpt lat="50.712865" lon="7.148069">
      </trkpt>
      <trkpt lat="50.712986" lon="7.147052">
      </trkpt>
      <trkpt lat="50.713516" lon="7.145677">
      </trkpt>
      <trkpt lat="50.713839" lon="7.144681">
      </trkpt>
      <trkpt lat="50.714081" lon="7.143892">
      </trkpt>
      <trkpt lat="50.71379" lon="7.142974">
      </trkpt>
      <trkpt lat="50.713374" lon="7.142345">
      </trkpt>
      <trkpt lat="50.713746" lon="7.141312">
      </trkpt>
      <trkpt lat="50.714075" lon="7.14013">
      </trkpt>
      <trkpt lat="50.714455" lon="7.139362">
      </trkpt>
      <trkpt lat="50.715084" lon="7.139316">
      </trkpt>
      <trkpt lat="50.71555" lon="7.137986">
      </trkpt>
      <trkpt lat="50.715687" lon="7.137016">
      </trkpt>
      <trkpt lat="50.715896" lon="7.136109">
      </trkpt>
      <trkpt lat="50.715628" lon="7.135147">
      </trkpt>
      <trkpt lat="50.715541" lon="7.134192">
      </trkpt>
      <trkpt lat="50.71597" lon="7.133599">
      </trkpt>
      <trkpt lat="50.71713" lon="7.133051">
      </trkpt>
      <trkpt lat="50.717575" lon="7.132348">
      </trkpt>
      <trkpt lat="50.717889" lon="7.131353">
      </trkpt>
      <trkpt lat="50.718154" lon="7.130528">
      </trkpt>
      <trkpt lat="50.718525" lon="7.129602">
      </trkpt>
      <trkpt lat="50.718882" lon="7.128744">
      </trkpt>
      <trkpt lat="50.719587" lon="7.126695">
      </trkpt>
      <trkpt lat="50.719859" lon="7.125743">
      </trkpt>
      <trkpt lat="50.720185" lon="7.124757">
      </trkpt>
      <trkpt lat="50.720912" lon="7.12284">
      </trkpt>
      <trkpt lat="50.721427" lon="7.121617">
      </trkpt>
      <trkpt lat="50.722446" lon="7.119719">
      </trkpt>
      <trkpt lat="50.723829" lon="7.117462">
      </trkpt>
      <trkpt lat="50.725152" lon="7.115492">
      </trkpt>
      <trkpt lat="50.725684" lon="7.11475">
      </trkpt>
      <trkpt lat="50.727075" lon="7.113114">
      </trkpt>
      <trkpt lat="50.727889" lon="7.112297">
      </trkpt>
      <trkpt lat="50.72845" lon="7.111791">
      </trkpt>
      <trkpt lat="50.729885" lon="7.110769">
      </trkpt>
      <trkpt lat="50.731859" lon="7.109381">
      </trkpt>
      <trkpt lat="50.731405" lon="7.109917">
      </trkpt>
    </trkseg>
  </trk>
</gpx>