<?xml version="1.0" encoding="UTF-8"?>
<gpx xmlns="http://www.topografix.com/GPX/1/1" xmlns:xsi="http://www.w3.org/2001/XMLSchema-instance" xsi:schemaLocation="http://www.topografix.com/GPX/1/1 http://www.topografix.com/GPX/1/1/gpx.xsd" version="1.1" creator="gpx.py -- https://github.com/tkrajina/gpxpy">
  <metadata>
    <name>046</name>
  </metadata>
  <trk>
    <name>046</name>
    <trkseg>
      <trkpt lat="50.734282" lon="7.104054">
      </trkpt>
      <trkpt lat="50.733422" lon="7.104426">
      </trkpt>
      <trkpt lat="50.732878" lon="7.105476">
      </trkpt>
      <trkpt lat="50.732366" lon="7.105861">
      </trkpt>
      <trkpt lat="50.731509" lon="7.105369">
      </trkpt>
      <trkpt lat="50.730753" lon="7.106007">
      </trkpt>
      <trkpt lat="50.730264" lon="7.105498">
      </trkpt>
      <trkpt lat="50.729425" lon="7.106153">
      </trkpt>
      <trkpt lat="50.727846" lon="7.107035">
      </trkpt>
      <trkpt lat="50.726822" lon="7.107796">
      </trkpt>
      <trkpt lat="50.726291" lon="7.108415">
      </trkpt>
      <trkpt lat="50.725383" lon="7.108594">
      </trkpt>
      <trkpt lat="50.724702" lon="7.108132">
      </trkpt>
      <trkpt lat="50.724226" lon="7.108597">
      </trkpt>
      <trkpt lat="50.723676" lon="7.109145">
      </trkpt>
      <trkpt lat="50.72243" lon="7.110384">
      </trkpt>
      <trkpt lat="50.721885" lon="7.110931">
      </trkpt>
      <trkpt lat="50.720438" lon="7.112376">
      </trkpt>
      <trkpt lat="50.719925" lon="7.112883">
      </trkpt>
      <trkpt lat="50.719391" lon="7.113449">
      </trkpt>
      <trkpt lat="50.718845" lon="7.113961">
      </trkpt>
      <trkpt lat="50.718075" lon="7.114755">
      </trkpt>
      <trkpt lat="50.717204" lon="7.115602">
      </trkpt>
      <trkpt lat="50.716344" lon="7.11647">
      </trkpt>
      <trkpt lat="50.715673" lon="7.117235">
      </trkpt>
      <trkpt lat="50.714806" lon="7.118098">
      </trkpt>
      <trkpt lat="50.714092" lon="7.118711">
      </trkpt>
      <trkpt lat="50.713374" lon="7.119377">
      </trkpt>
      <trkpt lat="50.712395" lon="7.120376">
      </trkpt>
      <trkpt lat="50.709102" lon="7.123652">
      </trkpt>
      <trkpt lat="50.708654" lon="7.124193">
      </trkpt>
      <trkpt lat="50.706065" lon="7.12679">
      </trkpt>
      <trkpt lat="50.705539" lon="7.127125">
      </trkpt>
      <trkpt lat="50.704757" lon="7.127175">
      </trkpt>
      <trkpt lat="50.703348" lon="7.12739">
      </trkpt>
      <trkpt lat="50.702663" lon="7.127401">
      </trkpt>
      <trkpt lat="50.701931" lon="7.1272">
      </trkpt>
      <trkpt lat="50.701171" lon="7.126912">
      </trkpt>
      <trkpt lat="50.700509" lon="7.126683">
      </trkpt>
      <trkpt lat="50.69981" lon="7.126523">
      </trkpt>
      <trkpt lat="50.69881" lon="7.126136">
      </trkpt>
      <trkpt lat="50.698298" lon="7.126676">
      </trkpt>
      <trkpt lat="50.69771" lon="7.127127">
      </trkpt>
      <trkpt lat="50.696933" lon="7.125893">
      </trkpt>
      <trkpt lat="50.696423" lon="7.125122">
      </trkpt>
      <trkpt lat="50.695697" lon="7.124079">
      </trkpt>
      <trkpt lat="50.695265" lon="7.123367">
      </trkpt>
      <trkpt lat="50.694748" lon="7.1226">
      </trkpt>
      <trkpt lat="50.694154" lon="7.121719">
      </trkpt>
      <trkpt lat="50.69387" lon="7.120769">
      </trkpt>
      <trkpt lat="50.693572" lon="7.119905">
      </trkpt>
      <trkpt lat="50.6931" lon="7.118931">
      </trkpt>
      <trkpt lat="50.69267" lon="7.117307">
      </trkpt>
      <trkpt lat="50.692403" lon="7.114712">
      </trkpt>
      <trkpt lat="50.692009" lon="7.113927">
      </trkpt>
      <trkpt lat="50.691844" lon="7.114832">
      </trkpt>
      <trkpt lat="50.691336" lon="7.115543">
      </trkpt>
      <trkpt lat="50.690662" lon="7.114104">
      </trkpt>
      <trkpt lat="50.690221" lon="7.113495">
      </trkpt>
      <trkpt lat="50.689602" lon="7.11372">
      </trkpt>
      <trkpt lat="50.689054" lon="7.113241">
      </trkpt>
      <trkpt lat="50.688749" lon="7.112379">
      </trkpt>
      <trkpt lat="50.687589" lon="7.112224">
      </trkpt>
      <trkpt lat="50.686393" lon="7.110664">
      </trkpt>
      <trkpt lat="50.683526" lon="7.114443">
      </trkpt>
      <trkpt lat="50.683151" lon="7.115345">
      </trkpt>
      <trkpt lat="50.682572" lon="7.115001">
      </trkpt>
      <trkpt lat="50.682128" lon="7.114356">
      </trkpt>
      <trkpt lat="50.681182" lon="7.114284">
      </trkpt>
      <trkpt lat="50.680627" lon="7.11421">
      </trkpt>
      <trkpt lat="50.679731" lon="7.114345">
      </trkpt>
      <trkpt lat="50.678985" lon="7.11457">
      </trkpt>
      <trkpt lat="50.677627" lon="7.110383">
      </trkpt>
      <trkpt lat="50.676801" lon="7.107836">
      </trkpt>
      <trkpt lat="50.677434" lon="7.103189">
      </trkpt>
      <trkpt lat="50.677614" lon="7.101657">
      </trkpt>
      <trkpt lat="50.678016" lon="7.098942">
      </trkpt>
      <trkpt lat="50.677848" lon="7.097407">
      </trkpt>
      <trkpt lat="50.677727" lon="7.094457">
      </trkpt>
      <trkpt lat="50.677544" lon="7.088061">
      </trkpt>
      <trkpt lat="50.677485" lon="7.085343">
      </trkpt>
      <trkpt lat="50.677045" lon="7.084835">
      </trkpt>
      <trkpt lat="50.67644" lon="7.084399">
      </trkpt>
      <trkpt lat="50.675827" lon="7.084133">
      </trkpt>
      <trkpt lat="50.674776" lon="7.083894">
      </trkpt>
      <trkpt lat="50.674091" lon="7.084173">
      </trkpt>
      <trkpt lat="50.673241" lon="7.083752">
      </trkpt>
      <trkpt lat="50.67271" lon="7.083114">
      </trkpt>
      <trkpt lat="50.672089" lon="7.082508">
      </trkpt>
      <trkpt lat="50.671639" lon="7.082021">
      </trkpt>
      <trkpt lat="50.671516" lon="7.080639">
      </trkpt>
      <trkpt lat="50.671917" lon="7.079813">
      </trkpt>
      <trkpt lat="50.671925" lon="7.078889">
      </trkpt>
      <trkpt lat="50.671552" lon="7.078219">
      </trkpt>
      <trkpt lat="50.671056" lon="7.077858">
      </trkpt>
      <trkpt lat="50.670547" lon="7.077334">
      </trkpt>
      <trkpt lat="50.67018" lon="7.076536">
      </trkpt>
      <trkpt lat="50.669842" lon="7.075352">
      </trkpt>
      <trkpt lat="50.66954" lon="7.074627">
      </trkpt>
      <trkpt lat="50.669074" lon="7.074141">
      </trkpt>
      <trkpt lat="50.668727" lon="7.073434">
      </trkpt>
      <trkpt lat="50.668101" lon="7.072761">
      </trkpt>
      <trkpt lat="50.66796" lon="7.07189">
      </trkpt>
      <trkpt lat="50.668196" lon="7.07112">
      </trkpt>
      <trkpt lat="50.6694" lon="7.067182">
      </trkpt>
      <trkpt lat="50.669686" lon="7.066404">
      </trkpt>
      <trkpt lat="50.670536" lon="7.064004">
      </trkpt>
      <trkpt lat="50.671127" lon="7.062628">
      </trkpt>
      <trkpt lat="50.671461" lon="7.061849">
      </trkpt>
      <trkpt lat="50.673252" lon="7.057829">
      </trkpt>
      <trkpt lat="50.673919" lon="7.056342">
      </trkpt>
      <trkpt lat="50.671823" lon="7.04922">
      </trkpt>
      <trkpt lat="50.669654" lon="7.041973">
      </trkpt>
      <trkpt lat="50.668559" lon="7.038361">
      </trkpt>
      <trkpt lat="50.66804" lon="7.036579">
      </trkpt>
      <trkpt lat="50.667764" lon="7.035711">
      </trkpt>
      <trkpt lat="50.668272" lon="7.034918">
      </trkpt>
      <trkpt lat="50.667764" lon="7.035711">
      </trkpt>
      <trkpt lat="50.665288" lon="7.027527">
      </trkpt>
      <trkpt lat="50.665028" lon="7.026637">
      </trkpt>
      <trkpt lat="50.664494" lon="7.024858">
      </trkpt>
      <trkpt lat="50.663986" lon="7.023397">
      </trkpt>
      <trkpt lat="50.663743" lon="7.022491">
      </trkpt>
      <trkpt lat="50.663452" lon="7.02168">
      </trkpt>
      <trkpt lat="50.662949" lon="7.020076">
      </trkpt>
      <trkpt lat="50.662127" lon="7.01738">
      </trkpt>
      <trkpt lat="50.662441" lon="7.016672">
      </trkpt>
      <trkpt lat="50.662728" lon="7.015811">
      </trkpt>
      <trkpt lat="50.6631" lon="7.014519">
      </trkpt>
      <trkpt lat="50.663624" lon="7.012939">
      </trkpt>
      <trkpt lat="50.665078" lon="7.01069">
      </trkpt>
      <trkpt lat="50.666184" lon="7.008896">
      </trkpt>
      <trkpt lat="50.666827" lon="7.007977">
      </trkpt>
      <trkpt lat="50.666415" lon="7.007417">
      </trkpt>
      <trkpt lat="50.664864" lon="7.006003">
      </trkpt>
      <trkpt lat="50.663861" lon="7.005124">
      </trkpt>
      <trkpt lat="50.663095" lon="7.004784">
      </trkpt>
      <trkpt lat="50.662566" lon="7.004333">
      </trkpt>
      <trkpt lat="50.66194" lon="7.003853">
      </trkpt>
      <trkpt lat="50.661757" lon="7.00301">
      </trkpt>
      <trkpt lat="50.66223" lon="7.001736">
      </trkpt>
      <trkpt lat="50.6625" lon="7.000899">
      </trkpt>
      <trkpt lat="50.663021" lon="6.999471">
      </trkpt>
      <trkpt lat="50.663322" lon="6.998625">
      </trkpt>
      <trkpt lat="50.664645" lon="6.99786">
      </trkpt>
      <trkpt lat="50.663528" lon="6.995395">
      </trkpt>
      <trkpt lat="50.662378" lon="6.996184">
      </trkpt>
      <trkpt lat="50.659865" lon="6.993839">
      </trkpt>
      <trkpt lat="50.660433" lon="6.992456">
      </trkpt>
      <trkpt lat="50.661418" lon="6.990157">
      </trkpt>
      <trkpt lat="50.662049" lon="6.987853">
      </trkpt>
      <trkpt lat="50.662776" lon="6.986293">
      </trkpt>
      <trkpt lat="50.663662" lon="6.984401">
      </trkpt>
      <trkpt lat="50.661492" lon="6.982316">
      </trkpt>
      <trkpt lat="50.662843" lon="6.979412">
      </trkpt>
      <trkpt lat="50.663562" lon="6.977861">
      </trkpt>
      <trkpt lat="50.664376" lon="6.975888">
      </trkpt>
      <trkpt lat="50.665055" lon="6.974454">
      </trkpt>
      <trkpt lat="50.66604" lon="6.971925">
      </trkpt>
      <trkpt lat="50.666399" lon="6.972753">
      </trkpt>
      <trkpt lat="50.667768" lon="6.97564">
      </trkpt>
      <trkpt lat="50.668807" lon="6.977855">
      </trkpt>
      <trkpt lat="50.670054" lon="6.980503">
      </trkpt>
      <trkpt lat="50.670619" lon="6.981725">
      </trkpt>
      <trkpt lat="50.671261" lon="6.981485">
      </trkpt>
      <trkpt lat="50.672271" lon="6.981267">
      </trkpt>
      <trkpt lat="50.672915" lon="6.981185">
      </trkpt>
      <trkpt lat="50.673769" lon="6.980481">
      </trkpt>
      <trkpt lat="50.674467" lon="6.980552">
      </trkpt>
      <trkpt lat="50.675295" lon="6.981045">
      </trkpt>
      <trkpt lat="50.67592" lon="6.980945">
      </trkpt>
      <trkpt lat="50.676711" lon="6.983467">
      </trkpt>
      <trkpt lat="50.677171" lon="6.98533">
      </trkpt>
      <trkpt lat="50.677635" lon="6.987271">
      </trkpt>
      <trkpt lat="50.679277" lon="6.990347">
      </trkpt>
      <trkpt lat="50.681806" lon="6.991903">
      </trkpt>
      <trkpt lat="50.682092" lon="6.99307">
      </trkpt>
      <trkpt lat="50.681997" lon="6.99407">
      </trkpt>
      <trkpt lat="50.682036" lon="6.994967">
      </trkpt>
      <trkpt lat="50.681853" lon="6.995799">
      </trkpt>
      <trkpt lat="50.681696" lon="6.997179">
      </trkpt>
      <trkpt lat="50.681167" lon="6.998466">
      </trkpt>
      <trkpt lat="50.680695" lon="6.999917">
      </trkpt>
      <trkpt lat="50.680257" lon="7.000524">
      </trkpt>
      <trkpt lat="50.681145" lon="7.00164">
      </trkpt>
      <trkpt lat="50.683096" lon="6.999622">
      </trkpt>
      <trkpt lat="50.683891" lon="6.998784">
      </trkpt>
      <trkpt lat="50.68468" lon="6.998004">
      </trkpt>
      <trkpt lat="50.68506" lon="6.999187">
      </trkpt>
      <trkpt lat="50.685776" lon="7.001421">
      </trkpt>
      <trkpt lat="50.686031" lon="7.002215">
      </trkpt>
      <trkpt lat="50.686988" lon="7.005204">
      </trkpt>
      <trkpt lat="50.687816" lon="7.006001">
      </trkpt>
      <trkpt lat="50.68829" lon="7.007348">
      </trkpt>
      <trkpt lat="50.689386" lon="7.009312">
      </trkpt>
      <trkpt lat="50.6909" lon="7.008348">
      </trkpt>
      <trkpt lat="50.692006" lon="7.008354">
      </trkpt>
      <trkpt lat="50.693128" lon="7.00836">
      </trkpt>
      <trkpt lat="50.693763" lon="7.009723">
      </trkpt>
      <trkpt lat="50.69524" lon="7.012424">
      </trkpt>
      <trkpt lat="50.694921" lon="7.013328">
      </trkpt>
      <trkpt lat="50.694716" lon="7.014387">
      </trkpt>
      <trkpt lat="50.694463" lon="7.015196">
      </trkpt>
      <trkpt lat="50.694145" lon="7.016499">
      </trkpt>
      <trkpt lat="50.693628" lon="7.018297">
      </trkpt>
      <trkpt lat="50.693807" lon="7.020178">
      </trkpt>
      <trkpt lat="50.693812" lon="7.02105">
      </trkpt>
      <trkpt lat="50.693437" lon="7.021756">
      </trkpt>
      <trkpt lat="50.693216" lon="7.023139">
      </trkpt>
      <trkpt lat="50.693097" lon="7.024052">
      </trkpt>
      <trkpt lat="50.693639" lon="7.024364">
      </trkpt>
      <trkpt lat="50.693158" lon="7.026064">
      </trkpt>
      <trkpt lat="50.692512" lon="7.027749">
      </trkpt>
      <trkpt lat="50.692197" lon="7.028714">
      </trkpt>
      <trkpt lat="50.692662" lon="7.029209">
      </trkpt>
      <trkpt lat="50.693225" lon="7.029582">
      </trkpt>
      <trkpt lat="50.693786" lon="7.030172">
      </trkpt>
      <trkpt lat="50.694476" lon="7.029875">
      </trkpt>
      <trkpt lat="50.695217" lon="7.03031">
      </trkpt>
      <trkpt lat="50.695771" lon="7.03075">
      </trkpt>
      <trkpt lat="50.696395" lon="7.031066">
      </trkpt>
      <trkpt lat="50.697221" lon="7.030617">
      </trkpt>
      <trkpt lat="50.698238" lon="7.03038">
      </trkpt>
      <trkpt lat="50.698662" lon="7.029781">
      </trkpt>
      <trkpt lat="50.6994" lon="7.029612">
      </trkpt>
      <trkpt lat="50.700137" lon="7.029376">
      </trkpt>
      <trkpt lat="50.700745" lon="7.029117">
      </trkpt>
      <trkpt lat="50.701887" lon="7.028287">
      </trkpt>
      <trkpt lat="50.702368" lon="7.027773">
      </trkpt>
      <trkpt lat="50.703053" lon="7.026977">
      </trkpt>
      <trkpt lat="50.703495" lon="7.026174">
      </trkpt>
      <trkpt lat="50.704228" lon="7.02561">
      </trkpt>
      <trkpt lat="50.704665" lon="7.024933">
      </trkpt>
      <trkpt lat="50.7051" lon="7.024303">
      </trkpt>
      <trkpt lat="50.704974" lon="7.023445">
      </trkpt>
      <trkpt lat="50.705992" lon="7.022852">
      </trkpt>
      <trkpt lat="50.706563" lon="7.022657">
      </trkpt>
      <trkpt lat="50.706933" lon="7.023359">
      </trkpt>
      <trkpt lat="50.707698" lon="7.024844">
      </trkpt>
      <trkpt lat="50.70816" lon="7.025413">
      </trkpt>
      <trkpt lat="50.708545" lon="7.026016">
      </trkpt>
      <trkpt lat="50.709071" lon="7.026441">
      </trkpt>
      <trkpt lat="50.7098" lon="7.026825">
      </trkpt>
      <trkpt lat="50.710536" lon="7.027354">
      </trkpt>
      <trkpt lat="50.711138" lon="7.027824">
      </trkpt>
      <trkpt lat="50.711714" lon="7.028691">
      </trkpt>
      <trkpt lat="50.711896" lon="7.029669">
      </trkpt>
      <trkpt lat="50.711254" lon="7.03018">
      </trkpt>
      <trkpt lat="50.711713" lon="7.030988">
      </trkpt>
      <trkpt lat="50.712468" lon="7.031848">
      </trkpt>
      <trkpt lat="50.713" lon="7.032341">
      </trkpt>
      <trkpt lat="50.713485" lon="7.033158">
      </trkpt>
      <trkpt lat="50.713685" lon="7.034441">
      </trkpt>
      <trkpt lat="50.714459" lon="7.034765">
      </trkpt>
      <trkpt lat="50.715154" lon="7.03507">
      </trkpt>
      <trkpt lat="50.715548" lon="7.0343">
      </trkpt>
      <trkpt lat="50.716171" lon="7.034594">
      </trkpt>
      <trkpt lat="50.716633" lon="7.036115">
      </trkpt>
      <trkpt lat="50.7172" lon="7.037576">
      </trkpt>
      <trkpt lat="50.717744" lon="7.038523">
      </trkpt>
      <trkpt lat="50.718217" lon="7.03928">
      </trkpt>
      <trkpt lat="50.718602" lon="7.039921">
      </trkpt>
      <trkpt lat="50.719027" lon="7.040821">
      </trkpt>
      <trkpt lat="50.719571" lon="7.042264">
      </trkpt>
      <trkpt lat="50.720006" lon="7.042812">
      </trkpt>
      <trkpt lat="50.7206" lon="7.042975">
      </trkpt>
      <trkpt lat="50.72111" lon="7.042463">
      </trkpt>
      <trkpt lat="50.721598" lon="7.042911">
      </trkpt>
      <trkpt lat="50.722184" lon="7.042411">
      </trkpt>
      <trkpt lat="50.722765" lon="7.042834">
      </trkpt>
      <trkpt lat="50.723275" lon="7.043655">
      </trkpt>
      <trkpt lat="50.723813" lon="7.04422">
      </trkpt>
      <trkpt lat="50.72459" lon="7.044962">
      </trkpt>
      <trkpt lat="50.725461" lon="7.045001">
      </trkpt>
      <trkpt lat="50.727453" lon="7.045478">
      </trkpt>
      <trkpt lat="50.72797" lon="7.046354">
      </trkpt>
      <trkpt lat="50.728929" lon="7.047182">
      </trkpt>
      <trkpt lat="50.728955" lon="7.04807">
      </trkpt>
      <trkpt lat="50.728997" lon="7.049054">
      </trkpt>
      <trkpt lat="50.729721" lon="7.048703">
      </trkpt>
      <trkpt lat="50.730265" lon="7.048631">
      </trkpt>
      <trkpt lat="50.73085" lon="7.048286">
      </trkpt>
      <trkpt lat="50.73128" lon="7.048986">
      </trkpt>
      <trkpt lat="50.732382" lon="7.048827">
      </trkpt>
      <trkpt lat="50.732993" lon="7.048696">
      </trkpt>
      <trkpt lat="50.733557" lon="7.048654">
      </trkpt>
      <trkpt lat="50.733162" lon="7.050733">
      </trkpt>
      <trkpt lat="50.732861" lon="7.052267">
      </trkpt>
      <trkpt lat="50.733069" lon="7.053245">
      </trkpt>
      <trkpt lat="50.733453" lon="7.054079">
      </trkpt>
      <trkpt lat="50.733897" lon="7.054576">
      </trkpt>
      <trkpt lat="50.733852" lon="7.055612">
      </trkpt>
      <trkpt lat="50.733821" lon="7.056778">
      </trkpt>
      <trkpt lat="50.733776" lon="7.057741">
      </trkpt>
      <trkpt lat="50.73365" lon="7.058821">
      </trkpt>
      <trkpt lat="50.733403" lon="7.059586">
      </trkpt>
      <trkpt lat="50.732704" lon="7.061009">
      </trkpt>
      <trkpt lat="50.732322" lon="7.061923">
      </trkpt>
      <trkpt lat="50.731893" lon="7.062864">
      </trkpt>
      <trkpt lat="50.732315" lon="7.063522">
      </trkpt>
      <trkpt lat="50.73283" lon="7.064127">
      </trkpt>
      <trkpt lat="50.733337" lon="7.064678">
      </trkpt>
      <trkpt lat="50.733159" lon="7.065644">
      </trkpt>
      <trkpt lat="50.732851" lon="7.066344">
      </trkpt>
      <trkpt lat="50.733533" lon="7.067067">
      </trkpt>
      <trkpt lat="50.733938" lon="7.067948">
      </trkpt>
      <trkpt lat="50.734134" lon="7.06899">
      </trkpt>
      <trkpt lat="50.734379" lon="7.070095">
      </trkpt>
      <trkpt lat="50.734883" lon="7.071139">
      </trkpt>
      <trkpt lat="50.735516" lon="7.071881">
      </trkpt>
      <trkpt lat="50.736016" lon="7.0723">
      </trkpt>
      <trkpt lat="50.736857" lon="7.07269">
      </trkpt>
      <trkpt lat="50.737444" lon="7.072827">
      </trkpt>
      <trkpt lat="50.738041" lon="7.073011">
      </trkpt>
      <trkpt lat="50.738727" lon="7.073376">
      </trkpt>
      <trkpt lat="50.739436" lon="7.074477">
      </trkpt>
      <trkpt lat="50.739159" lon="7.075271">
      </trkpt>
      <trkpt lat="50.738484" lon="7.076279">
      </trkpt>
      <trkpt lat="50.737962" lon="7.077293">
      </trkpt>
      <trkpt lat="50.73762" lon="7.078162">
      </trkpt>
      <trkpt lat="50.737235" lon="7.079007">
      </trkpt>
      <trkpt lat="50.737055" lon="7.079935">
      </trkpt>
      <trkpt lat="50.736751" lon="7.08098">
      </trkpt>
      <trkpt lat="50.7365" lon="7.082304">
      </trkpt>
      <trkpt lat="50.736245" lon="7.08337">
      </trkpt>
      <trkpt lat="50.735728" lon="7.085693">
      </trkpt>
      <trkpt lat="50.735521" lon="7.086692">
      </trkpt>
      <trkpt lat="50.735" lon="7.088108">
      </trkpt>
      <trkpt lat="50.734697" lon="7.089095">
      </trkpt>
    </trkseg>
  </trk>
</gpx>