<?xml version="1.0" encoding="UTF-8"?>
<gpx xmlns="http://www.topografix.com/GPX/1/1" xmlns:xsi="http://www.w3.org/2001/XMLSchema-instance" xsi:schemaLocation="http://www.topografix.com/GPX/1/1 http://www.topografix.com/GPX/1/1/gpx.xsd" version="1.1" creator="gpx.py -- https://github.com/tkrajina/gpxpy">
  <metadata>
    <name>047</name>
  </metadata>
  <trk>
    <name>047</name>
    <trkseg>
      <trkpt lat="50.734376" lon="7.103884">
      </trkpt>
      <trkpt lat="50.733769" lon="7.10391">
      </trkpt>
      <trkpt lat="50.733188" lon="7.103172">
      </trkpt>
      <trkpt lat="50.732619" lon="7.102447">
      </trkpt>
      <trkpt lat="50.732138" lon="7.101498">
      </trkpt>
      <trkpt lat="50.731709" lon="7.100973">
      </trkpt>
      <trkpt lat="50.731427" lon="7.100209">
      </trkpt>
      <trkpt lat="50.730755" lon="7.099361">
      </trkpt>
      <trkpt lat="50.729749" lon="7.097762">
      </trkpt>
      <trkpt lat="50.729201" lon="7.097077">
      </trkpt>
      <trkpt lat="50.7282" lon="7.095811">
      </trkpt>
      <trkpt lat="50.727562" lon="7.095">
      </trkpt>
      <trkpt lat="50.727031" lon="7.094314">
      </trkpt>
      <trkpt lat="50.72652" lon="7.093734">
      </trkpt>
      <trkpt lat="50.726503" lon="7.092808">
      </trkpt>
      <trkpt lat="50.725873" lon="7.091868">
      </trkpt>
      <trkpt lat="50.725137" lon="7.090956">
      </trkpt>
      <trkpt lat="50.724683" lon="7.090389">
      </trkpt>
      <trkpt lat="50.724217" lon="7.089909">
      </trkpt>
      <trkpt lat="50.723345" lon="7.089266">
      </trkpt>
      <trkpt lat="50.722603" lon="7.08873">
      </trkpt>
      <trkpt lat="50.722065" lon="7.088373">
      </trkpt>
      <trkpt lat="50.721421" lon="7.087932">
      </trkpt>
      <trkpt lat="50.720851" lon="7.087517">
      </trkpt>
      <trkpt lat="50.720145" lon="7.087193">
      </trkpt>
      <trkpt lat="50.71944" lon="7.086374">
      </trkpt>
      <trkpt lat="50.718858" lon="7.085769">
      </trkpt>
      <trkpt lat="50.718294" lon="7.085822">
      </trkpt>
      <trkpt lat="50.718416" lon="7.086771">
      </trkpt>
      <trkpt lat="50.718578" lon="7.087765">
      </trkpt>
      <trkpt lat="50.718175" lon="7.088932">
      </trkpt>
      <trkpt lat="50.717662" lon="7.089638">
      </trkpt>
      <trkpt lat="50.717472" lon="7.090631">
      </trkpt>
      <trkpt lat="50.716862" lon="7.091399">
      </trkpt>
      <trkpt lat="50.716332" lon="7.091934">
      </trkpt>
      <trkpt lat="50.715316" lon="7.092561">
      </trkpt>
      <trkpt lat="50.715656" lon="7.093572">
      </trkpt>
      <trkpt lat="50.715004" lon="7.094594">
      </trkpt>
      <trkpt lat="50.714324" lon="7.095159">
      </trkpt>
      <trkpt lat="50.71281" lon="7.096204">
      </trkpt>
      <trkpt lat="50.71157" lon="7.097153">
      </trkpt>
      <trkpt lat="50.711113" lon="7.097656">
      </trkpt>
      <trkpt lat="50.710161" lon="7.099145">
      </trkpt>
      <trkpt lat="50.709754" lon="7.099952">
      </trkpt>
      <trkpt lat="50.709346" lon="7.100813">
      </trkpt>
      <trkpt lat="50.708801" lon="7.100854">
      </trkpt>
      <trkpt lat="50.708145" lon="7.100771">
      </trkpt>
      <trkpt lat="50.707543" lon="7.100274">
      </trkpt>
      <trkpt lat="50.706819" lon="7.099519">
      </trkpt>
      <trkpt lat="50.706403" lon="7.098677">
      </trkpt>
      <trkpt lat="50.705967" lon="7.099236">
      </trkpt>
      <trkpt lat="50.706087" lon="7.100247">
      </trkpt>
      <trkpt lat="50.705925" lon="7.101405">
      </trkpt>
      <trkpt lat="50.705813" lon="7.102298">
      </trkpt>
      <trkpt lat="50.705578" lon="7.103227">
      </trkpt>
      <trkpt lat="50.704715" lon="7.103517">
      </trkpt>
      <trkpt lat="50.704128" lon="7.103639">
      </trkpt>
      <trkpt lat="50.70348" lon="7.104369">
      </trkpt>
      <trkpt lat="50.70279" lon="7.104363">
      </trkpt>
      <trkpt lat="50.702501" lon="7.105236">
      </trkpt>
      <trkpt lat="50.702044" lon="7.105695">
      </trkpt>
      <trkpt lat="50.701615" lon="7.10658">
      </trkpt>
      <trkpt lat="50.701241" lon="7.107247">
      </trkpt>
      <trkpt lat="50.700575" lon="7.107553">
      </trkpt>
      <trkpt lat="50.699805" lon="7.107807">
      </trkpt>
      <trkpt lat="50.699244" lon="7.107649">
      </trkpt>
      <trkpt lat="50.697455" lon="7.10836">
      </trkpt>
      <trkpt lat="50.696903" lon="7.108707">
      </trkpt>
      <trkpt lat="50.696166" lon="7.108604">
      </trkpt>
      <trkpt lat="50.695463" lon="7.10919">
      </trkpt>
      <trkpt lat="50.695006" lon="7.110092">
      </trkpt>
      <trkpt lat="50.694636" lon="7.110923">
      </trkpt>
      <trkpt lat="50.694284" lon="7.112426">
      </trkpt>
      <trkpt lat="50.694214" lon="7.113534">
      </trkpt>
      <trkpt lat="50.693459" lon="7.112772">
      </trkpt>
      <trkpt lat="50.693347" lon="7.11143">
      </trkpt>
      <trkpt lat="50.692976" lon="7.110581">
      </trkpt>
      <trkpt lat="50.692832" lon="7.109299">
      </trkpt>
      <trkpt lat="50.692649" lon="7.108363">
      </trkpt>
      <trkpt lat="50.692335" lon="7.1067">
      </trkpt>
      <trkpt lat="50.691871" lon="7.106156">
      </trkpt>
      <trkpt lat="50.691027" lon="7.106757">
      </trkpt>
      <trkpt lat="50.690496" lon="7.107407">
      </trkpt>
      <trkpt lat="50.689827" lon="7.107172">
      </trkpt>
      <trkpt lat="50.689176" lon="7.107457">
      </trkpt>
      <trkpt lat="50.688511" lon="7.107248">
      </trkpt>
      <trkpt lat="50.687946" lon="7.106969">
      </trkpt>
      <trkpt lat="50.687657" lon="7.107728">
      </trkpt>
      <trkpt lat="50.68611" lon="7.110248">
      </trkpt>
      <trkpt lat="50.683526" lon="7.114443">
      </trkpt>
      <trkpt lat="50.683151" lon="7.115345">
      </trkpt>
      <trkpt lat="50.682572" lon="7.115001">
      </trkpt>
      <trkpt lat="50.682128" lon="7.114356">
      </trkpt>
      <trkpt lat="50.681231" lon="7.114271">
      </trkpt>
      <trkpt lat="50.680502" lon="7.114211">
      </trkpt>
      <trkpt lat="50.679731" lon="7.114345">
      </trkpt>
      <trkpt lat="50.678985" lon="7.11457">
      </trkpt>
      <trkpt lat="50.680126" lon="7.118024">
      </trkpt>
      <trkpt lat="50.680486" lon="7.119154">
      </trkpt>
      <trkpt lat="50.68152" lon="7.122325">
      </trkpt>
      <trkpt lat="50.680772" lon="7.126093">
      </trkpt>
      <trkpt lat="50.680704" lon="7.127379">
      </trkpt>
      <trkpt lat="50.680083" lon="7.129291">
      </trkpt>
      <trkpt lat="50.679688" lon="7.129943">
      </trkpt>
      <trkpt lat="50.679029" lon="7.130532">
      </trkpt>
      <trkpt lat="50.678541" lon="7.13">
      </trkpt>
      <trkpt lat="50.677976" lon="7.129386">
      </trkpt>
      <trkpt lat="50.677539" lon="7.128772">
      </trkpt>
      <trkpt lat="50.677202" lon="7.127878">
      </trkpt>
      <trkpt lat="50.676961" lon="7.126712">
      </trkpt>
      <trkpt lat="50.676353" lon="7.126505">
      </trkpt>
      <trkpt lat="50.67627" lon="7.125593">
      </trkpt>
      <trkpt lat="50.67582" lon="7.123054">
      </trkpt>
      <trkpt lat="50.676001" lon="7.12209">
      </trkpt>
      <trkpt lat="50.675409" lon="7.121879">
      </trkpt>
      <trkpt lat="50.674363" lon="7.121327">
      </trkpt>
      <trkpt lat="50.67377" lon="7.121043">
      </trkpt>
      <trkpt lat="50.672452" lon="7.11945">
      </trkpt>
      <trkpt lat="50.671882" lon="7.119959">
      </trkpt>
      <trkpt lat="50.671403" lon="7.118858">
      </trkpt>
      <trkpt lat="50.671344" lon="7.11792">
      </trkpt>
      <trkpt lat="50.67109" lon="7.116907">
      </trkpt>
      <trkpt lat="50.670785" lon="7.116134">
      </trkpt>
      <trkpt lat="50.670281" lon="7.116675">
      </trkpt>
      <trkpt lat="50.669203" lon="7.11821">
      </trkpt>
      <trkpt lat="50.666203" lon="7.122138">
      </trkpt>
      <trkpt lat="50.664924" lon="7.120157">
      </trkpt>
      <trkpt lat="50.663103" lon="7.116852">
      </trkpt>
      <trkpt lat="50.66226" lon="7.11647">
      </trkpt>
      <trkpt lat="50.661663" lon="7.116113">
      </trkpt>
      <trkpt lat="50.660834" lon="7.114322">
      </trkpt>
      <trkpt lat="50.660277" lon="7.113464">
      </trkpt>
      <trkpt lat="50.659461" lon="7.111593">
      </trkpt>
      <trkpt lat="50.659582" lon="7.109951">
      </trkpt>
      <trkpt lat="50.659714" lon="7.108712">
      </trkpt>
      <trkpt lat="50.659755" lon="7.107544">
      </trkpt>
      <trkpt lat="50.659721" lon="7.10588">
      </trkpt>
      <trkpt lat="50.659253" lon="7.104985">
      </trkpt>
      <trkpt lat="50.658016" lon="7.104107">
      </trkpt>
      <trkpt lat="50.657038" lon="7.101978">
      </trkpt>
      <trkpt lat="50.656731" lon="7.101079">
      </trkpt>
      <trkpt lat="50.656221" lon="7.100073">
      </trkpt>
      <trkpt lat="50.655802" lon="7.09946">
      </trkpt>
      <trkpt lat="50.65505" lon="7.098402">
      </trkpt>
      <trkpt lat="50.653849" lon="7.097429">
      </trkpt>
      <trkpt lat="50.653033" lon="7.09647">
      </trkpt>
      <trkpt lat="50.652512" lon="7.095806">
      </trkpt>
      <trkpt lat="50.65163" lon="7.094382">
      </trkpt>
      <trkpt lat="50.651389" lon="7.093374">
      </trkpt>
      <trkpt lat="50.650896" lon="7.09215">
      </trkpt>
      <trkpt lat="50.650595" lon="7.091268">
      </trkpt>
      <trkpt lat="50.649662" lon="7.089308">
      </trkpt>
      <trkpt lat="50.649078" lon="7.08815">
      </trkpt>
      <trkpt lat="50.648825" lon="7.087077">
      </trkpt>
      <trkpt lat="50.648241" lon="7.087094">
      </trkpt>
      <trkpt lat="50.64751" lon="7.08553">
      </trkpt>
      <trkpt lat="50.646983" lon="7.084391">
      </trkpt>
      <trkpt lat="50.646606" lon="7.083628">
      </trkpt>
      <trkpt lat="50.645953" lon="7.082851">
      </trkpt>
      <trkpt lat="50.645449" lon="7.081983">
      </trkpt>
      <trkpt lat="50.644912" lon="7.081721">
      </trkpt>
      <trkpt lat="50.64507" lon="7.080077">
      </trkpt>
      <trkpt lat="50.644222" lon="7.079515">
      </trkpt>
      <trkpt lat="50.643707" lon="7.079136">
      </trkpt>
      <trkpt lat="50.642812" lon="7.076918">
      </trkpt>
      <trkpt lat="50.642155" lon="7.075998">
      </trkpt>
      <trkpt lat="50.64168" lon="7.075521">
      </trkpt>
      <trkpt lat="50.641088" lon="7.075124">
      </trkpt>
      <trkpt lat="50.640294" lon="7.073924">
      </trkpt>
      <trkpt lat="50.640501" lon="7.072116">
      </trkpt>
      <trkpt lat="50.640862" lon="7.069652">
      </trkpt>
      <trkpt lat="50.641275" lon="7.066626">
      </trkpt>
      <trkpt lat="50.641604" lon="7.062378">
      </trkpt>
      <trkpt lat="50.64175" lon="7.060795">
      </trkpt>
      <trkpt lat="50.650786" lon="7.062203">
      </trkpt>
      <trkpt lat="50.651698" lon="7.062358">
      </trkpt>
      <trkpt lat="50.654153" lon="7.062776">
      </trkpt>
      <trkpt lat="50.658552" lon="7.064078">
      </trkpt>
      <trkpt lat="50.662837" lon="7.065362">
      </trkpt>
      <trkpt lat="50.664633" lon="7.0708">
      </trkpt>
      <trkpt lat="50.666287" lon="7.075825">
      </trkpt>
      <trkpt lat="50.667244" lon="7.078728">
      </trkpt>
      <trkpt lat="50.66784" lon="7.080565">
      </trkpt>
      <trkpt lat="50.668508" lon="7.082625">
      </trkpt>
      <trkpt lat="50.66901" lon="7.084142">
      </trkpt>
      <trkpt lat="50.67153" lon="7.082027">
      </trkpt>
      <trkpt lat="50.672089" lon="7.082508">
      </trkpt>
      <trkpt lat="50.67271" lon="7.083114">
      </trkpt>
      <trkpt lat="50.673241" lon="7.083752">
      </trkpt>
      <trkpt lat="50.673799" lon="7.084071">
      </trkpt>
      <trkpt lat="50.674367" lon="7.083937">
      </trkpt>
      <trkpt lat="50.675326" lon="7.08407">
      </trkpt>
      <trkpt lat="50.676055" lon="7.084347">
      </trkpt>
      <trkpt lat="50.676662" lon="7.08449">
      </trkpt>
      <trkpt lat="50.677485" lon="7.085343">
      </trkpt>
      <trkpt lat="50.678314" lon="7.086035">
      </trkpt>
      <trkpt lat="50.678896" lon="7.086177">
      </trkpt>
      <trkpt lat="50.680036" lon="7.086061">
      </trkpt>
      <trkpt lat="50.680644" lon="7.085788">
      </trkpt>
      <trkpt lat="50.681184" lon="7.085897">
      </trkpt>
      <trkpt lat="50.681598" lon="7.085273">
      </trkpt>
      <trkpt lat="50.681979" lon="7.084536">
      </trkpt>
      <trkpt lat="50.682625" lon="7.084286">
      </trkpt>
      <trkpt lat="50.683396" lon="7.083953">
      </trkpt>
      <trkpt lat="50.683997" lon="7.083677">
      </trkpt>
      <trkpt lat="50.684871" lon="7.084251">
      </trkpt>
      <trkpt lat="50.685855" lon="7.086231">
      </trkpt>
      <trkpt lat="50.686365" lon="7.087247">
      </trkpt>
      <trkpt lat="50.687821" lon="7.09019">
      </trkpt>
      <trkpt lat="50.688104" lon="7.09108">
      </trkpt>
      <trkpt lat="50.688517" lon="7.09172">
      </trkpt>
      <trkpt lat="50.688921" lon="7.09281">
      </trkpt>
      <trkpt lat="50.689394" lon="7.093753">
      </trkpt>
      <trkpt lat="50.689968" lon="7.094712">
      </trkpt>
      <trkpt lat="50.690373" lon="7.095501">
      </trkpt>
      <trkpt lat="50.69101" lon="7.096832">
      </trkpt>
      <trkpt lat="50.69159" lon="7.098178">
      </trkpt>
      <trkpt lat="50.692031" lon="7.099056">
      </trkpt>
      <trkpt lat="50.692558" lon="7.099433">
      </trkpt>
      <trkpt lat="50.693108" lon="7.0991">
      </trkpt>
      <trkpt lat="50.693635" lon="7.099314">
      </trkpt>
      <trkpt lat="50.69414" lon="7.098922">
      </trkpt>
      <trkpt lat="50.694578" lon="7.098245">
      </trkpt>
      <trkpt lat="50.695188" lon="7.097164">
      </trkpt>
      <trkpt lat="50.695846" lon="7.096776">
      </trkpt>
      <trkpt lat="50.696602" lon="7.096857">
      </trkpt>
      <trkpt lat="50.697508" lon="7.097086">
      </trkpt>
      <trkpt lat="50.697943" lon="7.096439">
      </trkpt>
      <trkpt lat="50.698233" lon="7.095354">
      </trkpt>
      <trkpt lat="50.698608" lon="7.093926">
      </trkpt>
      <trkpt lat="50.699155" lon="7.092785">
      </trkpt>
      <trkpt lat="50.699691" lon="7.092342">
      </trkpt>
      <trkpt lat="50.700043" lon="7.091667">
      </trkpt>
      <trkpt lat="50.700358" lon="7.090706">
      </trkpt>
      <trkpt lat="50.700807" lon="7.090223">
      </trkpt>
      <trkpt lat="50.701411" lon="7.089882">
      </trkpt>
      <trkpt lat="50.702031" lon="7.08948">
      </trkpt>
      <trkpt lat="50.70267" lon="7.089018">
      </trkpt>
      <trkpt lat="50.702663" lon="7.087737">
      </trkpt>
      <trkpt lat="50.702643" lon="7.086253">
      </trkpt>
      <trkpt lat="50.70329" lon="7.085704">
      </trkpt>
      <trkpt lat="50.704107" lon="7.085427">
      </trkpt>
      <trkpt lat="50.704587" lon="7.084782">
      </trkpt>
      <trkpt lat="50.705126" lon="7.084664">
      </trkpt>
      <trkpt lat="50.705841" lon="7.084959">
      </trkpt>
      <trkpt lat="50.706355" lon="7.085376">
      </trkpt>
      <trkpt lat="50.707011" lon="7.086007">
      </trkpt>
      <trkpt lat="50.707497" lon="7.085431">
      </trkpt>
      <trkpt lat="50.708149" lon="7.086005">
      </trkpt>
      <trkpt lat="50.708741" lon="7.086568">
      </trkpt>
      <trkpt lat="50.709275" lon="7.086994">
      </trkpt>
      <trkpt lat="50.70999" lon="7.08711">
      </trkpt>
      <trkpt lat="50.710911" lon="7.087818">
      </trkpt>
      <trkpt lat="50.711483" lon="7.088014">
      </trkpt>
      <trkpt lat="50.711331" lon="7.088892">
      </trkpt>
      <trkpt lat="50.712272" lon="7.089594">
      </trkpt>
      <trkpt lat="50.712808" lon="7.090004">
      </trkpt>
      <trkpt lat="50.71344" lon="7.090007">
      </trkpt>
      <trkpt lat="50.714297" lon="7.090446">
      </trkpt>
      <trkpt lat="50.714551" lon="7.089693">
      </trkpt>
      <trkpt lat="50.715302" lon="7.08916">
      </trkpt>
      <trkpt lat="50.716289" lon="7.088519">
      </trkpt>
      <trkpt lat="50.716786" lon="7.087887">
      </trkpt>
      <trkpt lat="50.717528" lon="7.087433">
      </trkpt>
      <trkpt lat="50.718322" lon="7.08681">
      </trkpt>
    </trkseg>
  </trk>
</gpx>