<?xml version="1.0" encoding="UTF-8"?>
<gpx xmlns="http://www.topografix.com/GPX/1/1" xmlns:xsi="http://www.w3.org/2001/XMLSchema-instance" xsi:schemaLocation="http://www.topografix.com/GPX/1/1 http://www.topografix.com/GPX/1/1/gpx.xsd" version="1.1" creator="gpx.py -- https://github.com/tkrajina/gpxpy">
  <metadata>
    <name>048</name>
  </metadata>
  <trk>
    <name>048</name>
    <trkseg>
      <trkpt lat="50.734511" lon="7.103502">
      </trkpt>
      <trkpt lat="50.734998" lon="7.104011">
      </trkpt>
      <trkpt lat="50.73552" lon="7.104395">
      </trkpt>
      <trkpt lat="50.735778" lon="7.105198">
      </trkpt>
      <trkpt lat="50.736045" lon="7.106103">
      </trkpt>
      <trkpt lat="50.7366" lon="7.105918">
      </trkpt>
      <trkpt lat="50.737277" lon="7.105735">
      </trkpt>
      <trkpt lat="50.73765" lon="7.106707">
      </trkpt>
      <trkpt lat="50.738118" lon="7.110063">
      </trkpt>
      <trkpt lat="50.738574" lon="7.11341">
      </trkpt>
      <trkpt lat="50.738727" lon="7.114479">
      </trkpt>
      <trkpt lat="50.738828" lon="7.115368">
      </trkpt>
      <trkpt lat="50.738415" lon="7.116284">
      </trkpt>
      <trkpt lat="50.737111" lon="7.117111">
      </trkpt>
      <trkpt lat="50.736486" lon="7.117232">
      </trkpt>
      <trkpt lat="50.735438" lon="7.117791">
      </trkpt>
      <trkpt lat="50.734721" lon="7.118231">
      </trkpt>
      <trkpt lat="50.734033" lon="7.118656">
      </trkpt>
      <trkpt lat="50.733123" lon="7.119198">
      </trkpt>
      <trkpt lat="50.73245" lon="7.11959">
      </trkpt>
      <trkpt lat="50.731808" lon="7.12001">
      </trkpt>
      <trkpt lat="50.732156" lon="7.121681">
      </trkpt>
      <trkpt lat="50.732594" lon="7.122867">
      </trkpt>
      <trkpt lat="50.733093" lon="7.123715">
      </trkpt>
      <trkpt lat="50.734138" lon="7.125305">
      </trkpt>
      <trkpt lat="50.733765" lon="7.126012">
      </trkpt>
      <trkpt lat="50.733289" lon="7.126661">
      </trkpt>
      <trkpt lat="50.7326" lon="7.127582">
      </trkpt>
      <trkpt lat="50.731836" lon="7.128619">
      </trkpt>
      <trkpt lat="50.731413" lon="7.129291">
      </trkpt>
      <trkpt lat="50.732048" lon="7.13029">
      </trkpt>
      <trkpt lat="50.732394" lon="7.13105">
      </trkpt>
      <trkpt lat="50.732731" lon="7.131948">
      </trkpt>
      <trkpt lat="50.733091" lon="7.132968">
      </trkpt>
      <trkpt lat="50.734091" lon="7.132241">
      </trkpt>
      <trkpt lat="50.734656" lon="7.132332">
      </trkpt>
      <trkpt lat="50.73513" lon="7.13418">
      </trkpt>
      <trkpt lat="50.735356" lon="7.135048">
      </trkpt>
      <trkpt lat="50.735614" lon="7.13601">
      </trkpt>
      <trkpt lat="50.736172" lon="7.137569">
      </trkpt>
      <trkpt lat="50.736681" lon="7.138335">
      </trkpt>
      <trkpt lat="50.737172" lon="7.13912">
      </trkpt>
      <trkpt lat="50.736893" lon="7.140076">
      </trkpt>
      <trkpt lat="50.736414" lon="7.140724">
      </trkpt>
      <trkpt lat="50.736" lon="7.141281">
      </trkpt>
      <trkpt lat="50.735414" lon="7.142047">
      </trkpt>
      <trkpt lat="50.734758" lon="7.142609">
      </trkpt>
      <trkpt lat="50.733969" lon="7.143079">
      </trkpt>
      <trkpt lat="50.733485" lon="7.143458">
      </trkpt>
      <trkpt lat="50.732914" lon="7.143749">
      </trkpt>
      <trkpt lat="50.733185" lon="7.144587">
      </trkpt>
      <trkpt lat="50.733586" lon="7.145183">
      </trkpt>
      <trkpt lat="50.734537" lon="7.145993">
      </trkpt>
      <trkpt lat="50.735426" lon="7.146625">
      </trkpt>
      <trkpt lat="50.735937" lon="7.147191">
      </trkpt>
      <trkpt lat="50.736407" lon="7.148633">
      </trkpt>
      <trkpt lat="50.735824" lon="7.148466">
      </trkpt>
      <trkpt lat="50.734954" lon="7.149335">
      </trkpt>
      <trkpt lat="50.733693" lon="7.150533">
      </trkpt>
      <trkpt lat="50.733251" lon="7.151241">
      </trkpt>
      <trkpt lat="50.732692" lon="7.151796">
      </trkpt>
      <trkpt lat="50.732374" lon="7.152711">
      </trkpt>
      <trkpt lat="50.731796" lon="7.152974">
      </trkpt>
      <trkpt lat="50.731129" lon="7.153486">
      </trkpt>
      <trkpt lat="50.729692" lon="7.155638">
      </trkpt>
      <trkpt lat="50.729077" lon="7.156744">
      </trkpt>
      <trkpt lat="50.728343" lon="7.158023">
      </trkpt>
      <trkpt lat="50.728141" lon="7.159517">
      </trkpt>
      <trkpt lat="50.728137" lon="7.16054">
      </trkpt>
      <trkpt lat="50.72837" lon="7.161592">
      </trkpt>
      <trkpt lat="50.728636" lon="7.162815">
      </trkpt>
      <trkpt lat="50.728715" lon="7.163749">
      </trkpt>
      <trkpt lat="50.729052" lon="7.165168">
      </trkpt>
      <trkpt lat="50.728899" lon="7.166226">
      </trkpt>
      <trkpt lat="50.728398" lon="7.165859">
      </trkpt>
      <trkpt lat="50.727875" lon="7.165517">
      </trkpt>
      <trkpt lat="50.727538" lon="7.166541">
      </trkpt>
      <trkpt lat="50.727133" lon="7.167705">
      </trkpt>
      <trkpt lat="50.726772" lon="7.168419">
      </trkpt>
      <trkpt lat="50.726284" lon="7.16901">
      </trkpt>
      <trkpt lat="50.726393" lon="7.170077">
      </trkpt>
      <trkpt lat="50.726692" lon="7.171133">
      </trkpt>
      <trkpt lat="50.726484" lon="7.173008">
      </trkpt>
      <trkpt lat="50.726432" lon="7.17428">
      </trkpt>
      <trkpt lat="50.726111" lon="7.175099">
      </trkpt>
      <trkpt lat="50.725698" lon="7.17607">
      </trkpt>
      <trkpt lat="50.725204" lon="7.180525">
      </trkpt>
      <trkpt lat="50.725036" lon="7.182245">
      </trkpt>
      <trkpt lat="50.724777" lon="7.183225">
      </trkpt>
      <trkpt lat="50.724643" lon="7.18438">
      </trkpt>
      <trkpt lat="50.724802" lon="7.185343">
      </trkpt>
      <trkpt lat="50.724821" lon="7.186221">
      </trkpt>
      <trkpt lat="50.724846" lon="7.187274">
      </trkpt>
      <trkpt lat="50.725181" lon="7.188296">
      </trkpt>
      <trkpt lat="50.725763" lon="7.188734">
      </trkpt>
      <trkpt lat="50.726625" lon="7.189814">
      </trkpt>
      <trkpt lat="50.72718" lon="7.190564">
      </trkpt>
      <trkpt lat="50.72768" lon="7.19097">
      </trkpt>
      <trkpt lat="50.728147" lon="7.191417">
      </trkpt>
      <trkpt lat="50.72879" lon="7.192475">
      </trkpt>
      <trkpt lat="50.729324" lon="7.193488">
      </trkpt>
      <trkpt lat="50.730226" lon="7.195052">
      </trkpt>
      <trkpt lat="50.730924" lon="7.196179">
      </trkpt>
      <trkpt lat="50.731575" lon="7.197206">
      </trkpt>
      <trkpt lat="50.732429" lon="7.199075">
      </trkpt>
      <trkpt lat="50.733067" lon="7.200583">
      </trkpt>
      <trkpt lat="50.7347" lon="7.204442">
      </trkpt>
      <trkpt lat="50.735489" lon="7.205922">
      </trkpt>
      <trkpt lat="50.73683" lon="7.209066">
      </trkpt>
      <trkpt lat="50.738135" lon="7.207931">
      </trkpt>
      <trkpt lat="50.738653" lon="7.207405">
      </trkpt>
      <trkpt lat="50.739325" lon="7.206771">
      </trkpt>
      <trkpt lat="50.739984" lon="7.208427">
      </trkpt>
      <trkpt lat="50.740434" lon="7.209229">
      </trkpt>
      <trkpt lat="50.740587" lon="7.21047">
      </trkpt>
      <trkpt lat="50.741064" lon="7.21097">
      </trkpt>
      <trkpt lat="50.741597" lon="7.211348">
      </trkpt>
      <trkpt lat="50.741908" lon="7.212108">
      </trkpt>
      <trkpt lat="50.742752" lon="7.2128">
      </trkpt>
      <trkpt lat="50.742974" lon="7.213587">
      </trkpt>
      <trkpt lat="50.742789" lon="7.2147">
      </trkpt>
      <trkpt lat="50.742722" lon="7.216796">
      </trkpt>
      <trkpt lat="50.745213" lon="7.217402">
      </trkpt>
      <trkpt lat="50.746195" lon="7.217732">
      </trkpt>
      <trkpt lat="50.746842" lon="7.21869">
      </trkpt>
      <trkpt lat="50.746797" lon="7.219843">
      </trkpt>
      <trkpt lat="50.74778" lon="7.22057">
      </trkpt>
      <trkpt lat="50.748737" lon="7.221365">
      </trkpt>
      <trkpt lat="50.748516" lon="7.222697">
      </trkpt>
      <trkpt lat="50.748467" lon="7.223694">
      </trkpt>
      <trkpt lat="50.748482" lon="7.22462">
      </trkpt>
      <trkpt lat="50.748551" lon="7.225655">
      </trkpt>
      <trkpt lat="50.749551" lon="7.225962">
      </trkpt>
      <trkpt lat="50.750637" lon="7.225715">
      </trkpt>
      <trkpt lat="50.751877" lon="7.226402">
      </trkpt>
      <trkpt lat="50.752348" lon="7.22701">
      </trkpt>
      <trkpt lat="50.753166" lon="7.227383">
      </trkpt>
      <trkpt lat="50.753704" lon="7.227572">
      </trkpt>
      <trkpt lat="50.754641" lon="7.229535">
      </trkpt>
      <trkpt lat="50.755178" lon="7.230724">
      </trkpt>
      <trkpt lat="50.756093" lon="7.232562">
      </trkpt>
      <trkpt lat="50.756539" lon="7.233137">
      </trkpt>
      <trkpt lat="50.757376" lon="7.233464">
      </trkpt>
      <trkpt lat="50.757995" lon="7.232932">
      </trkpt>
      <trkpt lat="50.758518" lon="7.234346">
      </trkpt>
      <trkpt lat="50.758773" lon="7.235258">
      </trkpt>
      <trkpt lat="50.759069" lon="7.236167">
      </trkpt>
      <trkpt lat="50.75939" lon="7.237264">
      </trkpt>
      <trkpt lat="50.759748" lon="7.238492">
      </trkpt>
      <trkpt lat="50.760357" lon="7.240527">
      </trkpt>
      <trkpt lat="50.760597" lon="7.241835">
      </trkpt>
      <trkpt lat="50.760498" lon="7.243761">
      </trkpt>
      <trkpt lat="50.760768" lon="7.245763">
      </trkpt>
      <trkpt lat="50.76089" lon="7.246848">
      </trkpt>
      <trkpt lat="50.760563" lon="7.247902">
      </trkpt>
      <trkpt lat="50.759793" lon="7.249762">
      </trkpt>
      <trkpt lat="50.759367" lon="7.25079">
      </trkpt>
      <trkpt lat="50.758939" lon="7.25186">
      </trkpt>
      <trkpt lat="50.7588" lon="7.252914">
      </trkpt>
      <trkpt lat="50.758227" lon="7.254224">
      </trkpt>
      <trkpt lat="50.757829" lon="7.255566">
      </trkpt>
      <trkpt lat="50.757398" lon="7.258162">
      </trkpt>
      <trkpt lat="50.755527" lon="7.261852">
      </trkpt>
      <trkpt lat="50.755685" lon="7.263643">
      </trkpt>
      <trkpt lat="50.75597" lon="7.265315">
      </trkpt>
      <trkpt lat="50.755634" lon="7.267143">
      </trkpt>
      <trkpt lat="50.755547" lon="7.268439">
      </trkpt>
      <trkpt lat="50.755731" lon="7.269546">
      </trkpt>
      <trkpt lat="50.7547" lon="7.269314">
      </trkpt>
      <trkpt lat="50.75401" lon="7.269843">
      </trkpt>
      <trkpt lat="50.753358" lon="7.268954">
      </trkpt>
      <trkpt lat="50.753116" lon="7.26675">
      </trkpt>
      <trkpt lat="50.752585" lon="7.266292">
      </trkpt>
      <trkpt lat="50.751918" lon="7.266366">
      </trkpt>
      <trkpt lat="50.75119" lon="7.265329">
      </trkpt>
      <trkpt lat="50.750328" lon="7.265204">
      </trkpt>
      <trkpt lat="50.749369" lon="7.265299">
      </trkpt>
      <trkpt lat="50.74812" lon="7.26543">
      </trkpt>
      <trkpt lat="50.74683" lon="7.2656">
      </trkpt>
      <trkpt lat="50.74621" lon="7.264771">
      </trkpt>
      <trkpt lat="50.745686" lon="7.265032">
      </trkpt>
      <trkpt lat="50.745033" lon="7.264735">
      </trkpt>
      <trkpt lat="50.744583" lon="7.263692">
      </trkpt>
      <trkpt lat="50.743934" lon="7.262285">
      </trkpt>
      <trkpt lat="50.743162" lon="7.261883">
      </trkpt>
      <trkpt lat="50.741599" lon="7.261848">
      </trkpt>
      <trkpt lat="50.740736" lon="7.2596">
      </trkpt>
      <trkpt lat="50.740111" lon="7.257446">
      </trkpt>
      <trkpt lat="50.739758" lon="7.256278">
      </trkpt>
      <trkpt lat="50.738866" lon="7.253325">
      </trkpt>
      <trkpt lat="50.738169" lon="7.253534">
      </trkpt>
      <trkpt lat="50.737955" lon="7.252424">
      </trkpt>
      <trkpt lat="50.73775" lon="7.251469">
      </trkpt>
      <trkpt lat="50.737623" lon="7.250238">
      </trkpt>
      <trkpt lat="50.737764" lon="7.249201">
      </trkpt>
      <trkpt lat="50.737797" lon="7.248055">
      </trkpt>
      <trkpt lat="50.736902" lon="7.245267">
      </trkpt>
      <trkpt lat="50.73634" lon="7.245059">
      </trkpt>
      <trkpt lat="50.735786" lon="7.243712">
      </trkpt>
      <trkpt lat="50.734648" lon="7.243764">
      </trkpt>
      <trkpt lat="50.733405" lon="7.243056">
      </trkpt>
      <trkpt lat="50.733021" lon="7.243688">
      </trkpt>
      <trkpt lat="50.731384" lon="7.243081">
      </trkpt>
      <trkpt lat="50.730922" lon="7.242231">
      </trkpt>
      <trkpt lat="50.730221" lon="7.242471">
      </trkpt>
      <trkpt lat="50.728608" lon="7.243141">
      </trkpt>
      <trkpt lat="50.727777" lon="7.24297">
      </trkpt>
      <trkpt lat="50.72781" lon="7.241584">
      </trkpt>
      <trkpt lat="50.727388" lon="7.240634">
      </trkpt>
      <trkpt lat="50.727557" lon="7.239454">
      </trkpt>
      <trkpt lat="50.727545" lon="7.238424">
      </trkpt>
      <trkpt lat="50.727698" lon="7.236497">
      </trkpt>
      <trkpt lat="50.727177" lon="7.232008">
      </trkpt>
      <trkpt lat="50.7268" lon="7.230313">
      </trkpt>
      <trkpt lat="50.726314" lon="7.229643">
      </trkpt>
      <trkpt lat="50.72576" lon="7.229493">
      </trkpt>
      <trkpt lat="50.725015" lon="7.22995">
      </trkpt>
      <trkpt lat="50.72427" lon="7.229608">
      </trkpt>
      <trkpt lat="50.723375" lon="7.227225">
      </trkpt>
      <trkpt lat="50.723244" lon="7.226281">
      </trkpt>
      <trkpt lat="50.722447" lon="7.225792">
      </trkpt>
      <trkpt lat="50.721894" lon="7.224815">
      </trkpt>
      <trkpt lat="50.721277" lon="7.224183">
      </trkpt>
      <trkpt lat="50.718594" lon="7.224524">
      </trkpt>
      <trkpt lat="50.717625" lon="7.225301">
      </trkpt>
      <trkpt lat="50.717101" lon="7.225642">
      </trkpt>
      <trkpt lat="50.715759" lon="7.226319">
      </trkpt>
      <trkpt lat="50.714655" lon="7.227121">
      </trkpt>
      <trkpt lat="50.7135" lon="7.228099">
      </trkpt>
      <trkpt lat="50.712682" lon="7.228847">
      </trkpt>
      <trkpt lat="50.712071" lon="7.229087">
      </trkpt>
      <trkpt lat="50.711272" lon="7.230482">
      </trkpt>
      <trkpt lat="50.710686" lon="7.230468">
      </trkpt>
      <trkpt lat="50.709543" lon="7.229294">
      </trkpt>
      <trkpt lat="50.709089" lon="7.22984">
      </trkpt>
      <trkpt lat="50.70841" lon="7.229754">
      </trkpt>
      <trkpt lat="50.708001" lon="7.229135">
      </trkpt>
      <trkpt lat="50.708171" lon="7.22769">
      </trkpt>
      <trkpt lat="50.707552" lon="7.226995">
      </trkpt>
      <trkpt lat="50.707006" lon="7.225589">
      </trkpt>
      <trkpt lat="50.706339" lon="7.223991">
      </trkpt>
      <trkpt lat="50.705942" lon="7.223275">
      </trkpt>
      <trkpt lat="50.705249" lon="7.222368">
      </trkpt>
      <trkpt lat="50.704811" lon="7.221584">
      </trkpt>
      <trkpt lat="50.703964" lon="7.220615">
      </trkpt>
      <trkpt lat="50.703596" lon="7.219843">
      </trkpt>
      <trkpt lat="50.703067" lon="7.219362">
      </trkpt>
      <trkpt lat="50.703113" lon="7.217592">
      </trkpt>
      <trkpt lat="50.703148" lon="7.216738">
      </trkpt>
      <trkpt lat="50.702973" lon="7.215878">
      </trkpt>
      <trkpt lat="50.702587" lon="7.214907">
      </trkpt>
      <trkpt lat="50.702105" lon="7.214072">
      </trkpt>
      <trkpt lat="50.701779" lon="7.213251">
      </trkpt>
      <trkpt lat="50.701652" lon="7.212153">
      </trkpt>
      <trkpt lat="50.7011" lon="7.210745">
      </trkpt>
      <trkpt lat="50.700207" lon="7.209493">
      </trkpt>
      <trkpt lat="50.700131" lon="7.208565">
      </trkpt>
      <trkpt lat="50.698974" lon="7.206788">
      </trkpt>
      <trkpt lat="50.699588" lon="7.206085">
      </trkpt>
      <trkpt lat="50.699688" lon="7.20483">
      </trkpt>
      <trkpt lat="50.699333" lon="7.203808">
      </trkpt>
      <trkpt lat="50.699221" lon="7.202946">
      </trkpt>
      <trkpt lat="50.699256" lon="7.201889">
      </trkpt>
      <trkpt lat="50.698975" lon="7.20109">
      </trkpt>
      <trkpt lat="50.698687" lon="7.199568">
      </trkpt>
      <trkpt lat="50.698392" lon="7.198796">
      </trkpt>
      <trkpt lat="50.698101" lon="7.19773">
      </trkpt>
      <trkpt lat="50.697657" lon="7.197118">
      </trkpt>
      <trkpt lat="50.697744" lon="7.19588">
      </trkpt>
      <trkpt lat="50.698172" lon="7.195068">
      </trkpt>
      <trkpt lat="50.698788" lon="7.194592">
      </trkpt>
      <trkpt lat="50.699204" lon="7.193658">
      </trkpt>
      <trkpt lat="50.699568" lon="7.192688">
      </trkpt>
      <trkpt lat="50.699663" lon="7.191774">
      </trkpt>
      <trkpt lat="50.69931" lon="7.191079">
      </trkpt>
      <trkpt lat="50.698769" lon="7.190737">
      </trkpt>
      <trkpt lat="50.698583" lon="7.189878">
      </trkpt>
      <trkpt lat="50.698446" lon="7.189038">
      </trkpt>
      <trkpt lat="50.698186" lon="7.188246">
      </trkpt>
      <trkpt lat="50.69756" lon="7.187683">
      </trkpt>
      <trkpt lat="50.697054" lon="7.187359">
      </trkpt>
      <trkpt lat="50.696462" lon="7.186575">
      </trkpt>
      <trkpt lat="50.696139" lon="7.185717">
      </trkpt>
      <trkpt lat="50.695749" lon="7.18466">
      </trkpt>
      <trkpt lat="50.695376" lon="7.183492">
      </trkpt>
      <trkpt lat="50.695121" lon="7.182639">
      </trkpt>
      <trkpt lat="50.69484" lon="7.181683">
      </trkpt>
      <trkpt lat="50.695493" lon="7.180216">
      </trkpt>
      <trkpt lat="50.69516" lon="7.178927">
      </trkpt>
      <trkpt lat="50.695641" lon="7.178402">
      </trkpt>
      <trkpt lat="50.696193" lon="7.177817">
      </trkpt>
      <trkpt lat="50.696047" lon="7.176973">
      </trkpt>
      <trkpt lat="50.6969" lon="7.176291">
      </trkpt>
      <trkpt lat="50.69742" lon="7.175906">
      </trkpt>
      <trkpt lat="50.697986" lon="7.175603">
      </trkpt>
      <trkpt lat="50.697885" lon="7.174751">
      </trkpt>
      <trkpt lat="50.69868" lon="7.174174">
      </trkpt>
      <trkpt lat="50.700503" lon="7.173516">
      </trkpt>
      <trkpt lat="50.70207" lon="7.173042">
      </trkpt>
      <trkpt lat="50.702887" lon="7.172789">
      </trkpt>
      <trkpt lat="50.703528" lon="7.172447">
      </trkpt>
      <trkpt lat="50.704507" lon="7.17161">
      </trkpt>
      <trkpt lat="50.705977" lon="7.170048">
      </trkpt>
      <trkpt lat="50.707263" lon="7.168646">
      </trkpt>
      <trkpt lat="50.708536" lon="7.167239">
      </trkpt>
      <trkpt lat="50.709003" lon="7.166521">
      </trkpt>
      <trkpt lat="50.709432" lon="7.165934">
      </trkpt>
      <trkpt lat="50.710042" lon="7.165197">
      </trkpt>
      <trkpt lat="50.710448" lon="7.164621">
      </trkpt>
      <trkpt lat="50.710981" lon="7.163973">
      </trkpt>
      <trkpt lat="50.711591" lon="7.163231">
      </trkpt>
      <trkpt lat="50.712279" lon="7.162275">
      </trkpt>
      <trkpt lat="50.712756" lon="7.161333">
      </trkpt>
      <trkpt lat="50.713872" lon="7.159659">
      </trkpt>
      <trkpt lat="50.714795" lon="7.158024">
      </trkpt>
      <trkpt lat="50.715313" lon="7.156938">
      </trkpt>
      <trkpt lat="50.715704" lon="7.156112">
      </trkpt>
      <trkpt lat="50.716052" lon="7.154962">
      </trkpt>
      <trkpt lat="50.716469" lon="7.153393">
      </trkpt>
      <trkpt lat="50.716837" lon="7.15237">
      </trkpt>
      <trkpt lat="50.717219" lon="7.151346">
      </trkpt>
      <trkpt lat="50.717815" lon="7.150457">
      </trkpt>
      <trkpt lat="50.718086" lon="7.14965">
      </trkpt>
      <trkpt lat="50.71887" lon="7.14724">
      </trkpt>
      <trkpt lat="50.719424" lon="7.146999">
      </trkpt>
      <trkpt lat="50.719545" lon="7.145798">
      </trkpt>
      <trkpt lat="50.719569" lon="7.144439">
      </trkpt>
      <trkpt lat="50.720087" lon="7.142744">
      </trkpt>
      <trkpt lat="50.720365" lon="7.141542">
      </trkpt>
      <trkpt lat="50.720644" lon="7.140029">
      </trkpt>
      <trkpt lat="50.72092" lon="7.139027">
      </trkpt>
      <trkpt lat="50.7213" lon="7.137843">
      </trkpt>
      <trkpt lat="50.721602" lon="7.13623">
      </trkpt>
      <trkpt lat="50.721818" lon="7.13526">
      </trkpt>
      <trkpt lat="50.722207" lon="7.13395">
      </trkpt>
      <trkpt lat="50.722616" lon="7.132389">
      </trkpt>
      <trkpt lat="50.722805" lon="7.131554">
      </trkpt>
      <trkpt lat="50.723474" lon="7.130675">
      </trkpt>
      <trkpt lat="50.723776" lon="7.129941">
      </trkpt>
      <trkpt lat="50.724122" lon="7.128739">
      </trkpt>
      <trkpt lat="50.724311" lon="7.127783">
      </trkpt>
      <trkpt lat="50.724686" lon="7.127102">
      </trkpt>
      <trkpt lat="50.724915" lon="7.126289">
      </trkpt>
      <trkpt lat="50.72524" lon="7.125419">
      </trkpt>
      <trkpt lat="50.725556" lon="7.124623">
      </trkpt>
      <trkpt lat="50.726112" lon="7.12367">
      </trkpt>
      <trkpt lat="50.726669" lon="7.12226">
      </trkpt>
      <trkpt lat="50.727042" lon="7.121631">
      </trkpt>
      <trkpt lat="50.727925" lon="7.120168">
      </trkpt>
      <trkpt lat="50.728578" lon="7.119298">
      </trkpt>
      <trkpt lat="50.728937" lon="7.118421">
      </trkpt>
      <trkpt lat="50.730021" lon="7.117238">
      </trkpt>
      <trkpt lat="50.730581" lon="7.116749">
      </trkpt>
      <trkpt lat="50.731727" lon="7.115921">
      </trkpt>
      <trkpt lat="50.73256" lon="7.115431">
      </trkpt>
      <trkpt lat="50.733203" lon="7.115158">
      </trkpt>
      <trkpt lat="50.732664" lon="7.115132">
      </trkpt>
    </trkseg>
  </trk>
</gpx>