<?xml version="1.0" encoding="UTF-8"?>
<gpx xmlns="http://www.topografix.com/GPX/1/1" xmlns:xsi="http://www.w3.org/2001/XMLSchema-instance" xsi:schemaLocation="http://www.topografix.com/GPX/1/1 http://www.topografix.com/GPX/1/1/gpx.xsd" version="1.1" creator="gpx.py -- https://github.com/tkrajina/gpxpy">
  <metadata>
    <name>049</name>
  </metadata>
  <trk>
    <name>049</name>
    <trkseg>
      <trkpt lat="50.734282" lon="7.104054">
      </trkpt>
      <trkpt lat="50.734998" lon="7.104011">
      </trkpt>
      <trkpt lat="50.73552" lon="7.104395">
      </trkpt>
      <trkpt lat="50.736176" lon="7.104756">
      </trkpt>
      <trkpt lat="50.736801" lon="7.10427">
      </trkpt>
      <trkpt lat="50.737358" lon="7.104709">
      </trkpt>
      <trkpt lat="50.737469" lon="7.105598">
      </trkpt>
      <trkpt lat="50.73765" lon="7.106707">
      </trkpt>
      <trkpt lat="50.738118" lon="7.110063">
      </trkpt>
      <trkpt lat="50.738574" lon="7.11341">
      </trkpt>
      <trkpt lat="50.739778" lon="7.112939">
      </trkpt>
      <trkpt lat="50.740466" lon="7.113008">
      </trkpt>
      <trkpt lat="50.741032" lon="7.112915">
      </trkpt>
      <trkpt lat="50.741752" lon="7.112603">
      </trkpt>
      <trkpt lat="50.742769" lon="7.111862">
      </trkpt>
      <trkpt lat="50.744119" lon="7.111256">
      </trkpt>
      <trkpt lat="50.744665" lon="7.110809">
      </trkpt>
      <trkpt lat="50.745221" lon="7.110447">
      </trkpt>
      <trkpt lat="50.746058" lon="7.109909">
      </trkpt>
      <trkpt lat="50.747759" lon="7.109188">
      </trkpt>
      <trkpt lat="50.74921" lon="7.108519">
      </trkpt>
      <trkpt lat="50.749941" lon="7.108176">
      </trkpt>
      <trkpt lat="50.751478" lon="7.107739">
      </trkpt>
      <trkpt lat="50.75217" lon="7.107499">
      </trkpt>
      <trkpt lat="50.75272" lon="7.10708">
      </trkpt>
      <trkpt lat="50.753116" lon="7.108007">
      </trkpt>
      <trkpt lat="50.753447" lon="7.10883">
      </trkpt>
      <trkpt lat="50.75387" lon="7.107927">
      </trkpt>
      <trkpt lat="50.753596" lon="7.106636">
      </trkpt>
      <trkpt lat="50.754464" lon="7.105569">
      </trkpt>
      <trkpt lat="50.755543" lon="7.104533">
      </trkpt>
      <trkpt lat="50.75622" lon="7.103747">
      </trkpt>
      <trkpt lat="50.757274" lon="7.102322">
      </trkpt>
      <trkpt lat="50.757932" lon="7.102908">
      </trkpt>
      <trkpt lat="50.758248" lon="7.103693">
      </trkpt>
      <trkpt lat="50.758912" lon="7.103463">
      </trkpt>
      <trkpt lat="50.759388" lon="7.104131">
      </trkpt>
      <trkpt lat="50.759705" lon="7.104939">
      </trkpt>
      <trkpt lat="50.76047" lon="7.105709">
      </trkpt>
      <trkpt lat="50.760975" lon="7.106715">
      </trkpt>
      <trkpt lat="50.76162" lon="7.106631">
      </trkpt>
      <trkpt lat="50.762224" lon="7.106453">
      </trkpt>
      <trkpt lat="50.763187" lon="7.107094">
      </trkpt>
      <trkpt lat="50.763767" lon="7.107597">
      </trkpt>
      <trkpt lat="50.764426" lon="7.108005">
      </trkpt>
      <trkpt lat="50.76498" lon="7.10855">
      </trkpt>
      <trkpt lat="50.76486" lon="7.110108">
      </trkpt>
      <trkpt lat="50.764338" lon="7.110807">
      </trkpt>
      <trkpt lat="50.763667" lon="7.111376">
      </trkpt>
      <trkpt lat="50.764237" lon="7.110204">
      </trkpt>
      <trkpt lat="50.765044" lon="7.108875">
      </trkpt>
      <trkpt lat="50.765901" lon="7.107332">
      </trkpt>
      <trkpt lat="50.766711" lon="7.10571">
      </trkpt>
      <trkpt lat="50.767351" lon="7.104306">
      </trkpt>
      <trkpt lat="50.766665" lon="7.104867">
      </trkpt>
      <trkpt lat="50.76617" lon="7.103425">
      </trkpt>
      <trkpt lat="50.765672" lon="7.101109">
      </trkpt>
      <trkpt lat="50.764682" lon="7.098585">
      </trkpt>
      <trkpt lat="50.764193" lon="7.097904">
      </trkpt>
      <trkpt lat="50.763655" lon="7.096995">
      </trkpt>
      <trkpt lat="50.763241" lon="7.096035">
      </trkpt>
      <trkpt lat="50.763335" lon="7.095036">
      </trkpt>
      <trkpt lat="50.763651" lon="7.094094">
      </trkpt>
      <trkpt lat="50.764311" lon="7.092309">
      </trkpt>
      <trkpt lat="50.764818" lon="7.091303">
      </trkpt>
      <trkpt lat="50.765217" lon="7.09049">
      </trkpt>
      <trkpt lat="50.765762" lon="7.089277">
      </trkpt>
      <trkpt lat="50.766107" lon="7.088498">
      </trkpt>
      <trkpt lat="50.766466" lon="7.087817">
      </trkpt>
      <trkpt lat="50.767053" lon="7.087015">
      </trkpt>
      <trkpt lat="50.767509" lon="7.086394">
      </trkpt>
      <trkpt lat="50.768372" lon="7.087591">
      </trkpt>
      <trkpt lat="50.76912" lon="7.0885">
      </trkpt>
      <trkpt lat="50.768229" lon="7.089747">
      </trkpt>
      <trkpt lat="50.769228" lon="7.08942">
      </trkpt>
      <trkpt lat="50.769387" lon="7.09055">
      </trkpt>
      <trkpt lat="50.76967" lon="7.091335">
      </trkpt>
      <trkpt lat="50.769554" lon="7.092591">
      </trkpt>
      <trkpt lat="50.769647" lon="7.09347">
      </trkpt>
      <trkpt lat="50.770139" lon="7.093972">
      </trkpt>
      <trkpt lat="50.770837" lon="7.093734">
      </trkpt>
      <trkpt lat="50.771487" lon="7.093793">
      </trkpt>
      <trkpt lat="50.772064" lon="7.0945">
      </trkpt>
      <trkpt lat="50.772111" lon="7.095804">
      </trkpt>
      <trkpt lat="50.771673" lon="7.097434">
      </trkpt>
      <trkpt lat="50.772215" lon="7.097818">
      </trkpt>
      <trkpt lat="50.772923" lon="7.099166">
      </trkpt>
      <trkpt lat="50.773434" lon="7.100012">
      </trkpt>
      <trkpt lat="50.773601" lon="7.101599">
      </trkpt>
      <trkpt lat="50.773469" lon="7.102478">
      </trkpt>
      <trkpt lat="50.773334" lon="7.103415">
      </trkpt>
      <trkpt lat="50.773329" lon="7.104293">
      </trkpt>
      <trkpt lat="50.773198" lon="7.105303">
      </trkpt>
      <trkpt lat="50.773491" lon="7.106926">
      </trkpt>
      <trkpt lat="50.77424" lon="7.10917">
      </trkpt>
      <trkpt lat="50.774857" lon="7.110437">
      </trkpt>
      <trkpt lat="50.775841" lon="7.111471">
      </trkpt>
      <trkpt lat="50.775922" lon="7.112446">
      </trkpt>
      <trkpt lat="50.776366" lon="7.115305">
      </trkpt>
      <trkpt lat="50.776296" lon="7.117826">
      </trkpt>
      <trkpt lat="50.777561" lon="7.119711">
      </trkpt>
      <trkpt lat="50.776117" lon="7.122271">
      </trkpt>
      <trkpt lat="50.774675" lon="7.124856">
      </trkpt>
      <trkpt lat="50.775193" lon="7.125271">
      </trkpt>
      <trkpt lat="50.776356" lon="7.126159">
      </trkpt>
      <trkpt lat="50.776916" lon="7.126453">
      </trkpt>
      <trkpt lat="50.778408" lon="7.126942">
      </trkpt>
      <trkpt lat="50.780199" lon="7.127715">
      </trkpt>
      <trkpt lat="50.781567" lon="7.128564">
      </trkpt>
      <trkpt lat="50.782624" lon="7.129636">
      </trkpt>
      <trkpt lat="50.783211" lon="7.130247">
      </trkpt>
      <trkpt lat="50.784365" lon="7.132019">
      </trkpt>
      <trkpt lat="50.785083" lon="7.13388">
      </trkpt>
      <trkpt lat="50.785808" lon="7.136761">
      </trkpt>
      <trkpt lat="50.786037" lon="7.137866">
      </trkpt>
      <trkpt lat="50.786473" lon="7.139206">
      </trkpt>
      <trkpt lat="50.78694" lon="7.140365">
      </trkpt>
      <trkpt lat="50.78822" lon="7.141532">
      </trkpt>
      <trkpt lat="50.789397" lon="7.143129">
      </trkpt>
      <trkpt lat="50.790144" lon="7.143461">
      </trkpt>
      <trkpt lat="50.79032" lon="7.144388">
      </trkpt>
      <trkpt lat="50.790436" lon="7.143358">
      </trkpt>
      <trkpt lat="50.790994" lon="7.14303">
      </trkpt>
      <trkpt lat="50.791815" lon="7.142856">
      </trkpt>
      <trkpt lat="50.792354" lon="7.142302">
      </trkpt>
      <trkpt lat="50.792602" lon="7.141538">
      </trkpt>
      <trkpt lat="50.79331" lon="7.141543">
      </trkpt>
      <trkpt lat="50.794107" lon="7.141817">
      </trkpt>
      <trkpt lat="50.794929" lon="7.142735">
      </trkpt>
      <trkpt lat="50.795998" lon="7.144826">
      </trkpt>
      <trkpt lat="50.796854" lon="7.147361">
      </trkpt>
      <trkpt lat="50.796982" lon="7.148505">
      </trkpt>
      <trkpt lat="50.797196" lon="7.149555">
      </trkpt>
      <trkpt lat="50.797947" lon="7.15266">
      </trkpt>
      <trkpt lat="50.798229" lon="7.154113">
      </trkpt>
      <trkpt lat="50.798256" lon="7.156182">
      </trkpt>
      <trkpt lat="50.798135" lon="7.157057">
      </trkpt>
      <trkpt lat="50.798005" lon="7.158592">
      </trkpt>
      <trkpt lat="50.798024" lon="7.159725">
      </trkpt>
      <trkpt lat="50.798114" lon="7.160919">
      </trkpt>
      <trkpt lat="50.7982" lon="7.162022">
      </trkpt>
      <trkpt lat="50.7984" lon="7.163339">
      </trkpt>
      <trkpt lat="50.798467" lon="7.164689">
      </trkpt>
      <trkpt lat="50.798653" lon="7.165625">
      </trkpt>
      <trkpt lat="50.799035" lon="7.166446">
      </trkpt>
      <trkpt lat="50.797988" lon="7.166506">
      </trkpt>
      <trkpt lat="50.796744" lon="7.166385">
      </trkpt>
      <trkpt lat="50.7967" lon="7.165111">
      </trkpt>
      <trkpt lat="50.796171" lon="7.158747">
      </trkpt>
      <trkpt lat="50.796251" lon="7.157385">
      </trkpt>
      <trkpt lat="50.796478" lon="7.156561">
      </trkpt>
      <trkpt lat="50.796572" lon="7.154602">
      </trkpt>
      <trkpt lat="50.795338" lon="7.154559">
      </trkpt>
      <trkpt lat="50.794783" lon="7.153278">
      </trkpt>
      <trkpt lat="50.794266" lon="7.152127">
      </trkpt>
      <trkpt lat="50.794021" lon="7.151227">
      </trkpt>
      <trkpt lat="50.793815" lon="7.149758">
      </trkpt>
      <trkpt lat="50.793825" lon="7.148698">
      </trkpt>
      <trkpt lat="50.793653" lon="7.147684">
      </trkpt>
      <trkpt lat="50.793602" lon="7.146608">
      </trkpt>
      <trkpt lat="50.792885" lon="7.147091">
      </trkpt>
      <trkpt lat="50.792211" lon="7.147082">
      </trkpt>
      <trkpt lat="50.791678" lon="7.146878">
      </trkpt>
      <trkpt lat="50.79051" lon="7.146599">
      </trkpt>
      <trkpt lat="50.789971" lon="7.146235">
      </trkpt>
      <trkpt lat="50.788868" lon="7.145833">
      </trkpt>
      <trkpt lat="50.787994" lon="7.145335">
      </trkpt>
      <trkpt lat="50.787572" lon="7.146643">
      </trkpt>
      <trkpt lat="50.787186" lon="7.147568">
      </trkpt>
      <trkpt lat="50.787432" lon="7.148628">
      </trkpt>
      <trkpt lat="50.787657" lon="7.149556">
      </trkpt>
      <trkpt lat="50.787136" lon="7.149932">
      </trkpt>
      <trkpt lat="50.786425" lon="7.149921">
      </trkpt>
      <trkpt lat="50.785635" lon="7.150254">
      </trkpt>
      <trkpt lat="50.784533" lon="7.150256">
      </trkpt>
      <trkpt lat="50.783583" lon="7.150083">
      </trkpt>
      <trkpt lat="50.781267" lon="7.149373">
      </trkpt>
      <trkpt lat="50.780662" lon="7.148825">
      </trkpt>
      <trkpt lat="50.779647" lon="7.148648">
      </trkpt>
      <trkpt lat="50.779202" lon="7.147624">
      </trkpt>
      <trkpt lat="50.77807" lon="7.147576">
      </trkpt>
      <trkpt lat="50.772953" lon="7.1446">
      </trkpt>
      <trkpt lat="50.77229" lon="7.144223">
      </trkpt>
      <trkpt lat="50.770614" lon="7.143108">
      </trkpt>
      <trkpt lat="50.769115" lon="7.141899">
      </trkpt>
      <trkpt lat="50.769055" lon="7.140994">
      </trkpt>
      <trkpt lat="50.76863" lon="7.142521">
      </trkpt>
      <trkpt lat="50.768331" lon="7.143893">
      </trkpt>
      <trkpt lat="50.767799" lon="7.142666">
      </trkpt>
      <trkpt lat="50.767012" lon="7.142277">
      </trkpt>
      <trkpt lat="50.764543" lon="7.140931">
      </trkpt>
      <trkpt lat="50.763263" lon="7.14021">
      </trkpt>
      <trkpt lat="50.761891" lon="7.139425">
      </trkpt>
      <trkpt lat="50.760465" lon="7.138696">
      </trkpt>
      <trkpt lat="50.759651" lon="7.140913">
      </trkpt>
      <trkpt lat="50.758703" lon="7.140294">
      </trkpt>
      <trkpt lat="50.758085" lon="7.139373">
      </trkpt>
      <trkpt lat="50.757003" lon="7.137633">
      </trkpt>
      <trkpt lat="50.756546" lon="7.136689">
      </trkpt>
      <trkpt lat="50.75686" lon="7.135743">
      </trkpt>
      <trkpt lat="50.755667" lon="7.13486">
      </trkpt>
      <trkpt lat="50.754782" lon="7.133231">
      </trkpt>
      <trkpt lat="50.755142" lon="7.130958">
      </trkpt>
      <trkpt lat="50.755602" lon="7.129245">
      </trkpt>
      <trkpt lat="50.755736" lon="7.126906">
      </trkpt>
      <trkpt lat="50.755954" lon="7.125364">
      </trkpt>
      <trkpt lat="50.756042" lon="7.124318">
      </trkpt>
      <trkpt lat="50.755968" lon="7.123252">
      </trkpt>
      <trkpt lat="50.755935" lon="7.121989">
      </trkpt>
      <trkpt lat="50.755743" lon="7.121133">
      </trkpt>
      <trkpt lat="50.755554" lon="7.120259">
      </trkpt>
      <trkpt lat="50.755155" lon="7.118809">
      </trkpt>
      <trkpt lat="50.754414" lon="7.118632">
      </trkpt>
      <trkpt lat="50.754058" lon="7.117865">
      </trkpt>
      <trkpt lat="50.753714" lon="7.116363">
      </trkpt>
      <trkpt lat="50.753621" lon="7.11478">
      </trkpt>
      <trkpt lat="50.752758" lon="7.114608">
      </trkpt>
      <trkpt lat="50.751926" lon="7.114897">
      </trkpt>
      <trkpt lat="50.751304" lon="7.114476">
      </trkpt>
      <trkpt lat="50.750674" lon="7.113679">
      </trkpt>
      <trkpt lat="50.750117" lon="7.112874">
      </trkpt>
      <trkpt lat="50.749635" lon="7.111867">
      </trkpt>
      <trkpt lat="50.74881" lon="7.112486">
      </trkpt>
      <trkpt lat="50.747951" lon="7.113169">
      </trkpt>
      <trkpt lat="50.747324" lon="7.113644">
      </trkpt>
      <trkpt lat="50.746705" lon="7.114088">
      </trkpt>
      <trkpt lat="50.745998" lon="7.114403">
      </trkpt>
      <trkpt lat="50.745332" lon="7.114499">
      </trkpt>
      <trkpt lat="50.744031" lon="7.114546">
      </trkpt>
      <trkpt lat="50.743466" lon="7.114614">
      </trkpt>
      <trkpt lat="50.742729" lon="7.114626">
      </trkpt>
      <trkpt lat="50.742114" lon="7.114799">
      </trkpt>
      <trkpt lat="50.741478" lon="7.114919">
      </trkpt>
      <trkpt lat="50.740418" lon="7.115133">
      </trkpt>
      <trkpt lat="50.739264" lon="7.115683">
      </trkpt>
    </trkseg>
  </trk>
</gpx>