<?xml version="1.0" encoding="UTF-8"?>
<gpx xmlns="http://www.topografix.com/GPX/1/1" xmlns:xsi="http://www.w3.org/2001/XMLSchema-instance" xsi:schemaLocation="http://www.topografix.com/GPX/1/1 http://www.topografix.com/GPX/1/1/gpx.xsd" version="1.1" creator="gpx.py -- https://github.com/tkrajina/gpxpy">
  <metadata>
    <name>050</name>
  </metadata>
  <trk>
    <name>050</name>
    <trkseg>
      <trkpt lat="50.733735" lon="7.103826">
      </trkpt>
      <trkpt lat="50.733188" lon="7.103172">
      </trkpt>
      <trkpt lat="50.732619" lon="7.102447">
      </trkpt>
      <trkpt lat="50.732138" lon="7.101498">
      </trkpt>
      <trkpt lat="50.731709" lon="7.100973">
      </trkpt>
      <trkpt lat="50.731715" lon="7.100055">
      </trkpt>
      <trkpt lat="50.731871" lon="7.098896">
      </trkpt>
      <trkpt lat="50.731528" lon="7.099675">
      </trkpt>
      <trkpt lat="50.73115" lon="7.099024">
      </trkpt>
      <trkpt lat="50.729749" lon="7.097762">
      </trkpt>
      <trkpt lat="50.730029" lon="7.096901">
      </trkpt>
      <trkpt lat="50.730372" lon="7.09518">
      </trkpt>
      <trkpt lat="50.731158" lon="7.091257">
      </trkpt>
      <trkpt lat="50.731331" lon="7.090159">
      </trkpt>
      <trkpt lat="50.730791" lon="7.089761">
      </trkpt>
      <trkpt lat="50.730349" lon="7.089154">
      </trkpt>
      <trkpt lat="50.729957" lon="7.088306">
      </trkpt>
      <trkpt lat="50.729478" lon="7.087243">
      </trkpt>
      <trkpt lat="50.72915" lon="7.08652">
      </trkpt>
      <trkpt lat="50.728634" lon="7.085387">
      </trkpt>
      <trkpt lat="50.728362" lon="7.084538">
      </trkpt>
      <trkpt lat="50.728039" lon="7.083813">
      </trkpt>
      <trkpt lat="50.727733" lon="7.082919">
      </trkpt>
      <trkpt lat="50.727485" lon="7.081997">
      </trkpt>
      <trkpt lat="50.727446" lon="7.08093">
      </trkpt>
      <trkpt lat="50.727315" lon="7.079974">
      </trkpt>
      <trkpt lat="50.727187" lon="7.078748">
      </trkpt>
      <trkpt lat="50.727073" lon="7.077889">
      </trkpt>
      <trkpt lat="50.72696" lon="7.077035">
      </trkpt>
      <trkpt lat="50.726569" lon="7.076192">
      </trkpt>
      <trkpt lat="50.727056" lon="7.07554">
      </trkpt>
      <trkpt lat="50.727308" lon="7.074738">
      </trkpt>
      <trkpt lat="50.727764" lon="7.0741">
      </trkpt>
      <trkpt lat="50.728246" lon="7.073506">
      </trkpt>
      <trkpt lat="50.728731" lon="7.073123">
      </trkpt>
      <trkpt lat="50.729703" lon="7.072156">
      </trkpt>
      <trkpt lat="50.730294" lon="7.071425">
      </trkpt>
      <trkpt lat="50.730797" lon="7.070643">
      </trkpt>
      <trkpt lat="50.731189" lon="7.070033">
      </trkpt>
      <trkpt lat="50.730731" lon="7.06926">
      </trkpt>
      <trkpt lat="50.73036" lon="7.06864">
      </trkpt>
      <trkpt lat="50.730217" lon="7.06764">
      </trkpt>
      <trkpt lat="50.730066" lon="7.066368">
      </trkpt>
      <trkpt lat="50.729965" lon="7.065503">
      </trkpt>
      <trkpt lat="50.729669" lon="7.062495">
      </trkpt>
      <trkpt lat="50.729379" lon="7.060553">
      </trkpt>
      <trkpt lat="50.729159" lon="7.05943">
      </trkpt>
      <trkpt lat="50.729037" lon="7.057268">
      </trkpt>
      <trkpt lat="50.728956" lon="7.054797">
      </trkpt>
      <trkpt lat="50.728923" lon="7.051328">
      </trkpt>
      <trkpt lat="50.728977" lon="7.049666">
      </trkpt>
      <trkpt lat="50.728936" lon="7.048384">
      </trkpt>
      <trkpt lat="50.728937" lon="7.047526">
      </trkpt>
      <trkpt lat="50.728417" lon="7.046615">
      </trkpt>
      <trkpt lat="50.728336" lon="7.044582">
      </trkpt>
      <trkpt lat="50.728566" lon="7.042969">
      </trkpt>
      <trkpt lat="50.727935" lon="7.041853">
      </trkpt>
      <trkpt lat="50.727471" lon="7.040162">
      </trkpt>
      <trkpt lat="50.727111" lon="7.039116">
      </trkpt>
      <trkpt lat="50.726774" lon="7.037907">
      </trkpt>
      <trkpt lat="50.726603" lon="7.036672">
      </trkpt>
      <trkpt lat="50.726352" lon="7.035724">
      </trkpt>
      <trkpt lat="50.725848" lon="7.034459">
      </trkpt>
      <trkpt lat="50.726212" lon="7.033722">
      </trkpt>
      <trkpt lat="50.727071" lon="7.032173">
      </trkpt>
      <trkpt lat="50.727683" lon="7.030622">
      </trkpt>
      <trkpt lat="50.727" lon="7.030116">
      </trkpt>
      <trkpt lat="50.726077" lon="7.029603">
      </trkpt>
      <trkpt lat="50.726208" lon="7.027984">
      </trkpt>
      <trkpt lat="50.72625" lon="7.027069">
      </trkpt>
      <trkpt lat="50.726222" lon="7.026129">
      </trkpt>
      <trkpt lat="50.726336" lon="7.024397">
      </trkpt>
      <trkpt lat="50.726595" lon="7.023501">
      </trkpt>
      <trkpt lat="50.726286" lon="7.022693">
      </trkpt>
      <trkpt lat="50.72612" lon="7.021569">
      </trkpt>
      <trkpt lat="50.7259" lon="7.019925">
      </trkpt>
      <trkpt lat="50.7255" lon="7.019241">
      </trkpt>
      <trkpt lat="50.725436" lon="7.018266">
      </trkpt>
      <trkpt lat="50.725162" lon="7.016957">
      </trkpt>
      <trkpt lat="50.725019" lon="7.016091">
      </trkpt>
      <trkpt lat="50.725416" lon="7.015351">
      </trkpt>
      <trkpt lat="50.725874" lon="7.013973">
      </trkpt>
      <trkpt lat="50.725766" lon="7.013056">
      </trkpt>
      <trkpt lat="50.725146" lon="7.012158">
      </trkpt>
      <trkpt lat="50.724649" lon="7.01164">
      </trkpt>
      <trkpt lat="50.724071" lon="7.010837">
      </trkpt>
      <trkpt lat="50.723779" lon="7.010075">
      </trkpt>
      <trkpt lat="50.723337" lon="7.008745">
      </trkpt>
      <trkpt lat="50.722772" lon="7.008151">
      </trkpt>
      <trkpt lat="50.722077" lon="7.007932">
      </trkpt>
      <trkpt lat="50.721319" lon="7.007946">
      </trkpt>
      <trkpt lat="50.720639" lon="7.008132">
      </trkpt>
      <trkpt lat="50.720087" lon="7.008738">
      </trkpt>
      <trkpt lat="50.719442" lon="7.008884">
      </trkpt>
      <trkpt lat="50.719083" lon="7.009886">
      </trkpt>
      <trkpt lat="50.718609" lon="7.009266">
      </trkpt>
      <trkpt lat="50.718133" lon="7.007835">
      </trkpt>
      <trkpt lat="50.717821" lon="7.00671">
      </trkpt>
      <trkpt lat="50.716865" lon="7.006049">
      </trkpt>
      <trkpt lat="50.716339" lon="7.005214">
      </trkpt>
      <trkpt lat="50.716381" lon="7.004275">
      </trkpt>
      <trkpt lat="50.715854" lon="7.003462">
      </trkpt>
      <trkpt lat="50.715191" lon="7.003251">
      </trkpt>
      <trkpt lat="50.71457" lon="7.003777">
      </trkpt>
      <trkpt lat="50.71407" lon="7.00333">
      </trkpt>
      <trkpt lat="50.713861" lon="7.002194">
      </trkpt>
      <trkpt lat="50.713887" lon="7.001088">
      </trkpt>
      <trkpt lat="50.713418" lon="6.999531">
      </trkpt>
      <trkpt lat="50.713032" lon="6.998139">
      </trkpt>
      <trkpt lat="50.712747" lon="6.997184">
      </trkpt>
      <trkpt lat="50.712036" lon="6.995671">
      </trkpt>
      <trkpt lat="50.711641" lon="6.994243">
      </trkpt>
      <trkpt lat="50.711813" lon="6.993428">
      </trkpt>
      <trkpt lat="50.711598" lon="6.992468">
      </trkpt>
      <trkpt lat="50.711771" lon="6.991406">
      </trkpt>
      <trkpt lat="50.71231" lon="6.991259">
      </trkpt>
      <trkpt lat="50.712837" lon="6.990861">
      </trkpt>
      <trkpt lat="50.712925" lon="6.989998">
      </trkpt>
      <trkpt lat="50.712797" lon="6.989153">
      </trkpt>
      <trkpt lat="50.712807" lon="6.988093">
      </trkpt>
      <trkpt lat="50.712754" lon="6.987087">
      </trkpt>
      <trkpt lat="50.712621" lon="6.98527">
      </trkpt>
      <trkpt lat="50.713055" lon="6.984597">
      </trkpt>
      <trkpt lat="50.713205" lon="6.983719">
      </trkpt>
      <trkpt lat="50.712886" lon="6.982926">
      </trkpt>
      <trkpt lat="50.712573" lon="6.981763">
      </trkpt>
      <trkpt lat="50.712159" lon="6.980395">
      </trkpt>
      <trkpt lat="50.714849" lon="6.97193">
      </trkpt>
      <trkpt lat="50.715904" lon="6.969089">
      </trkpt>
      <trkpt lat="50.715369" lon="6.968257">
      </trkpt>
      <trkpt lat="50.714724" lon="6.967446">
      </trkpt>
      <trkpt lat="50.714251" lon="6.967034">
      </trkpt>
      <trkpt lat="50.71369" lon="6.966618">
      </trkpt>
      <trkpt lat="50.713175" lon="6.966181">
      </trkpt>
      <trkpt lat="50.712209" lon="6.965648">
      </trkpt>
      <trkpt lat="50.711648" lon="6.965688">
      </trkpt>
      <trkpt lat="50.711104" lon="6.9654">
      </trkpt>
      <trkpt lat="50.710371" lon="6.965084">
      </trkpt>
      <trkpt lat="50.709685" lon="6.964487">
      </trkpt>
      <trkpt lat="50.708673" lon="6.963223">
      </trkpt>
      <trkpt lat="50.708386" lon="6.962385">
      </trkpt>
      <trkpt lat="50.70753" lon="6.96131">
      </trkpt>
      <trkpt lat="50.70844" lon="6.958838">
      </trkpt>
      <trkpt lat="50.709782" lon="6.959496">
      </trkpt>
      <trkpt lat="50.71139" lon="6.959604">
      </trkpt>
      <trkpt lat="50.711692" lon="6.958381">
      </trkpt>
      <trkpt lat="50.710959" lon="6.956932">
      </trkpt>
      <trkpt lat="50.710375" lon="6.956481">
      </trkpt>
      <trkpt lat="50.70835" lon="6.953726">
      </trkpt>
      <trkpt lat="50.70917" lon="6.946788">
      </trkpt>
      <trkpt lat="50.712016" lon="6.950517">
      </trkpt>
      <trkpt lat="50.71242" lon="6.949841">
      </trkpt>
      <trkpt lat="50.712506" lon="6.947991">
      </trkpt>
      <trkpt lat="50.713527" lon="6.946186">
      </trkpt>
      <trkpt lat="50.714255" lon="6.944981">
      </trkpt>
      <trkpt lat="50.714082" lon="6.945923">
      </trkpt>
      <trkpt lat="50.714695" lon="6.947148">
      </trkpt>
      <trkpt lat="50.715105" lon="6.947856">
      </trkpt>
      <trkpt lat="50.716142" lon="6.948539">
      </trkpt>
      <trkpt lat="50.716648" lon="6.948854">
      </trkpt>
      <trkpt lat="50.717208" lon="6.949649">
      </trkpt>
      <trkpt lat="50.717791" lon="6.950264">
      </trkpt>
      <trkpt lat="50.718252" lon="6.950832">
      </trkpt>
      <trkpt lat="50.720013" lon="6.946354">
      </trkpt>
      <trkpt lat="50.721666" lon="6.941723">
      </trkpt>
      <trkpt lat="50.721919" lon="6.943935">
      </trkpt>
      <trkpt lat="50.722023" lon="6.944957">
      </trkpt>
      <trkpt lat="50.722697" lon="6.950512">
      </trkpt>
      <trkpt lat="50.721077" lon="6.954975">
      </trkpt>
      <trkpt lat="50.72073" lon="6.955833">
      </trkpt>
      <trkpt lat="50.72417" lon="6.959992">
      </trkpt>
      <trkpt lat="50.724836" lon="6.960807">
      </trkpt>
      <trkpt lat="50.725625" lon="6.961809">
      </trkpt>
      <trkpt lat="50.726284" lon="6.961641">
      </trkpt>
      <trkpt lat="50.726919" lon="6.962589">
      </trkpt>
      <trkpt lat="50.727567" lon="6.963113">
      </trkpt>
      <trkpt lat="50.727431" lon="6.964581">
      </trkpt>
      <trkpt lat="50.727266" lon="6.965428">
      </trkpt>
      <trkpt lat="50.727854" lon="6.966268">
      </trkpt>
      <trkpt lat="50.728772" lon="6.967095">
      </trkpt>
      <trkpt lat="50.72921" lon="6.967814">
      </trkpt>
      <trkpt lat="50.729647" lon="6.968313">
      </trkpt>
      <trkpt lat="50.730053" lon="6.968973">
      </trkpt>
      <trkpt lat="50.730551" lon="6.96972">
      </trkpt>
      <trkpt lat="50.730068" lon="6.970828">
      </trkpt>
      <trkpt lat="50.729902" lon="6.971684">
      </trkpt>
      <trkpt lat="50.730295" lon="6.972344">
      </trkpt>
      <trkpt lat="50.730637" lon="6.973246">
      </trkpt>
      <trkpt lat="50.731261" lon="6.974118">
      </trkpt>
      <trkpt lat="50.731647" lon="6.975097">
      </trkpt>
      <trkpt lat="50.732144" lon="6.976005">
      </trkpt>
      <trkpt lat="50.732727" lon="6.976844">
      </trkpt>
      <trkpt lat="50.733715" lon="6.977493">
      </trkpt>
      <trkpt lat="50.734376" lon="6.97753">
      </trkpt>
      <trkpt lat="50.735442" lon="6.977077">
      </trkpt>
      <trkpt lat="50.736158" lon="6.97785">
      </trkpt>
      <trkpt lat="50.736688" lon="6.979014">
      </trkpt>
      <trkpt lat="50.737302" lon="6.979447">
      </trkpt>
      <trkpt lat="50.738256" lon="6.979956">
      </trkpt>
      <trkpt lat="50.740014" lon="6.981085">
      </trkpt>
      <trkpt lat="50.740771" lon="6.981502">
      </trkpt>
      <trkpt lat="50.740637" lon="6.98332">
      </trkpt>
      <trkpt lat="50.74009" lon="6.984627">
      </trkpt>
      <trkpt lat="50.740237" lon="6.985964">
      </trkpt>
      <trkpt lat="50.739841" lon="6.987097">
      </trkpt>
      <trkpt lat="50.740418" lon="6.988245">
      </trkpt>
      <trkpt lat="50.74099" lon="6.988736">
      </trkpt>
      <trkpt lat="50.741468" lon="6.989162">
      </trkpt>
      <trkpt lat="50.742259" lon="6.989707">
      </trkpt>
      <trkpt lat="50.74274" lon="6.990156">
      </trkpt>
      <trkpt lat="50.742516" lon="6.991205">
      </trkpt>
      <trkpt lat="50.74196" lon="6.99388">
      </trkpt>
      <trkpt lat="50.741488" lon="6.99587">
      </trkpt>
      <trkpt lat="50.741099" lon="6.996542">
      </trkpt>
      <trkpt lat="50.740943" lon="6.997409">
      </trkpt>
      <trkpt lat="50.740614" lon="6.996612">
      </trkpt>
      <trkpt lat="50.740492" lon="6.995775">
      </trkpt>
      <trkpt lat="50.740914" lon="6.994295">
      </trkpt>
      <trkpt lat="50.740256" lon="6.994663">
      </trkpt>
      <trkpt lat="50.739439" lon="6.995812">
      </trkpt>
      <trkpt lat="50.739414" lon="6.997039">
      </trkpt>
      <trkpt lat="50.7393" lon="6.997973">
      </trkpt>
      <trkpt lat="50.739021" lon="6.999422">
      </trkpt>
      <trkpt lat="50.738733" lon="7.000344">
      </trkpt>
      <trkpt lat="50.73838" lon="7.001754">
      </trkpt>
      <trkpt lat="50.737987" lon="7.002859">
      </trkpt>
      <trkpt lat="50.737849" lon="7.003821">
      </trkpt>
      <trkpt lat="50.738048" lon="7.00621">
      </trkpt>
      <trkpt lat="50.737673" lon="7.00704">
      </trkpt>
      <trkpt lat="50.737771" lon="7.007957">
      </trkpt>
      <trkpt lat="50.738216" lon="7.008586">
      </trkpt>
      <trkpt lat="50.738671" lon="7.009145">
      </trkpt>
      <trkpt lat="50.73932" lon="7.010092">
      </trkpt>
      <trkpt lat="50.739196" lon="7.011289">
      </trkpt>
      <trkpt lat="50.73851" lon="7.011562">
      </trkpt>
      <trkpt lat="50.737789" lon="7.011716">
      </trkpt>
      <trkpt lat="50.737382" lon="7.012482">
      </trkpt>
      <trkpt lat="50.736808" lon="7.013605">
      </trkpt>
      <trkpt lat="50.736418" lon="7.014318">
      </trkpt>
      <trkpt lat="50.736723" lon="7.015701">
      </trkpt>
      <trkpt lat="50.737684" lon="7.01708">
      </trkpt>
      <trkpt lat="50.738192" lon="7.018344">
      </trkpt>
      <trkpt lat="50.738414" lon="7.019149">
      </trkpt>
      <trkpt lat="50.738429" lon="7.020404">
      </trkpt>
      <trkpt lat="50.738336" lon="7.022461">
      </trkpt>
      <trkpt lat="50.73825" lon="7.024658">
      </trkpt>
      <trkpt lat="50.738324" lon="7.025707">
      </trkpt>
      <trkpt lat="50.738818" lon="7.026644">
      </trkpt>
      <trkpt lat="50.738358" lon="7.02801">
      </trkpt>
      <trkpt lat="50.737807" lon="7.02991">
      </trkpt>
      <trkpt lat="50.737457" lon="7.031226">
      </trkpt>
      <trkpt lat="50.737009" lon="7.032803">
      </trkpt>
      <trkpt lat="50.736789" lon="7.033731">
      </trkpt>
      <trkpt lat="50.736694" lon="7.035004">
      </trkpt>
      <trkpt lat="50.73652" lon="7.035975">
      </trkpt>
      <trkpt lat="50.736264" lon="7.038263">
      </trkpt>
      <trkpt lat="50.736296" lon="7.039941">
      </trkpt>
      <trkpt lat="50.736023" lon="7.040756">
      </trkpt>
      <trkpt lat="50.736079" lon="7.041774">
      </trkpt>
      <trkpt lat="50.736118" lon="7.043422">
      </trkpt>
      <trkpt lat="50.736051" lon="7.044586">
      </trkpt>
      <trkpt lat="50.735911" lon="7.045695">
      </trkpt>
      <trkpt lat="50.735804" lon="7.046717">
      </trkpt>
      <trkpt lat="50.736068" lon="7.047499">
      </trkpt>
      <trkpt lat="50.735299" lon="7.047541">
      </trkpt>
      <trkpt lat="50.734169" lon="7.047601">
      </trkpt>
      <trkpt lat="50.733627" lon="7.048024">
      </trkpt>
      <trkpt lat="50.733162" lon="7.050733">
      </trkpt>
      <trkpt lat="50.732861" lon="7.052267">
      </trkpt>
      <trkpt lat="50.733069" lon="7.053245">
      </trkpt>
      <trkpt lat="50.733453" lon="7.054079">
      </trkpt>
      <trkpt lat="50.733897" lon="7.054576">
      </trkpt>
      <trkpt lat="50.733852" lon="7.055612">
      </trkpt>
      <trkpt lat="50.733821" lon="7.056778">
      </trkpt>
      <trkpt lat="50.733776" lon="7.057741">
      </trkpt>
      <trkpt lat="50.73365" lon="7.058821">
      </trkpt>
      <trkpt lat="50.733403" lon="7.059586">
      </trkpt>
      <trkpt lat="50.732704" lon="7.061009">
      </trkpt>
      <trkpt lat="50.732322" lon="7.061923">
      </trkpt>
      <trkpt lat="50.731893" lon="7.062864">
      </trkpt>
      <trkpt lat="50.731543" lon="7.063628">
      </trkpt>
      <trkpt lat="50.730704" lon="7.064159">
      </trkpt>
      <trkpt lat="50.730286" lon="7.064997">
      </trkpt>
      <trkpt lat="50.730066" lon="7.066368">
      </trkpt>
      <trkpt lat="50.730217" lon="7.06764">
      </trkpt>
      <trkpt lat="50.73036" lon="7.06864">
      </trkpt>
      <trkpt lat="50.730731" lon="7.06926">
      </trkpt>
      <trkpt lat="50.731189" lon="7.070033">
      </trkpt>
      <trkpt lat="50.730797" lon="7.070643">
      </trkpt>
      <trkpt lat="50.73037" lon="7.071307">
      </trkpt>
      <trkpt lat="50.729833" lon="7.072026">
      </trkpt>
      <trkpt lat="50.728973" lon="7.072902">
      </trkpt>
      <trkpt lat="50.728398" lon="7.073394">
      </trkpt>
      <trkpt lat="50.727839" lon="7.073882">
      </trkpt>
      <trkpt lat="50.727436" lon="7.074568">
      </trkpt>
      <trkpt lat="50.726949" lon="7.075002">
      </trkpt>
      <trkpt lat="50.726827" lon="7.075894">
      </trkpt>
      <trkpt lat="50.726087" lon="7.076776">
      </trkpt>
      <trkpt lat="50.725353" lon="7.077694">
      </trkpt>
      <trkpt lat="50.725777" lon="7.078685">
      </trkpt>
      <trkpt lat="50.726118" lon="7.079367">
      </trkpt>
      <trkpt lat="50.72701" lon="7.081094">
      </trkpt>
      <trkpt lat="50.727429" lon="7.08185">
      </trkpt>
      <trkpt lat="50.727006" lon="7.082668">
      </trkpt>
    </trkseg>
  </trk>
</gpx>