<?xml version="1.0" encoding="UTF-8"?>
<gpx xmlns="http://www.topografix.com/GPX/1/1" xmlns:xsi="http://www.w3.org/2001/XMLSchema-instance" xsi:schemaLocation="http://www.topografix.com/GPX/1/1 http://www.topografix.com/GPX/1/1/gpx.xsd" version="1.1" creator="gpx.py -- https://github.com/tkrajina/gpxpy">
  <metadata>
    <name>051</name>
  </metadata>
  <trk>
    <name>051</name>
    <trkseg>
      <trkpt lat="50.73418" lon="7.104347">
      </trkpt>
      <trkpt lat="50.733665" lon="7.103773">
      </trkpt>
      <trkpt lat="50.733188" lon="7.103172">
      </trkpt>
      <trkpt lat="50.732619" lon="7.102447">
      </trkpt>
      <trkpt lat="50.732138" lon="7.101498">
      </trkpt>
      <trkpt lat="50.731709" lon="7.100973">
      </trkpt>
      <trkpt lat="50.731935" lon="7.10005">
      </trkpt>
      <trkpt lat="50.732145" lon="7.099024">
      </trkpt>
      <trkpt lat="50.731609" lon="7.099425">
      </trkpt>
      <trkpt lat="50.731073" lon="7.098836">
      </trkpt>
      <trkpt lat="50.729749" lon="7.097762">
      </trkpt>
      <trkpt lat="50.7282" lon="7.095811">
      </trkpt>
      <trkpt lat="50.727562" lon="7.095">
      </trkpt>
      <trkpt lat="50.727031" lon="7.094314">
      </trkpt>
      <trkpt lat="50.72652" lon="7.093734">
      </trkpt>
      <trkpt lat="50.726503" lon="7.092808">
      </trkpt>
      <trkpt lat="50.725873" lon="7.091868">
      </trkpt>
      <trkpt lat="50.725137" lon="7.090956">
      </trkpt>
      <trkpt lat="50.724683" lon="7.090389">
      </trkpt>
      <trkpt lat="50.724612" lon="7.089274">
      </trkpt>
      <trkpt lat="50.72509" lon="7.088301">
      </trkpt>
      <trkpt lat="50.725717" lon="7.087075">
      </trkpt>
      <trkpt lat="50.726105" lon="7.086315">
      </trkpt>
      <trkpt lat="50.726616" lon="7.085644">
      </trkpt>
      <trkpt lat="50.726437" lon="7.084519">
      </trkpt>
      <trkpt lat="50.726528" lon="7.083645">
      </trkpt>
      <trkpt lat="50.727006" lon="7.082668">
      </trkpt>
      <trkpt lat="50.727529" lon="7.082245">
      </trkpt>
      <trkpt lat="50.727446" lon="7.08093">
      </trkpt>
      <trkpt lat="50.727315" lon="7.079974">
      </trkpt>
      <trkpt lat="50.727187" lon="7.078748">
      </trkpt>
      <trkpt lat="50.727073" lon="7.077889">
      </trkpt>
      <trkpt lat="50.72696" lon="7.077035">
      </trkpt>
      <trkpt lat="50.726569" lon="7.076192">
      </trkpt>
      <trkpt lat="50.727056" lon="7.07554">
      </trkpt>
      <trkpt lat="50.726707" lon="7.074874">
      </trkpt>
      <trkpt lat="50.72624" lon="7.074364">
      </trkpt>
      <trkpt lat="50.725837" lon="7.073639">
      </trkpt>
      <trkpt lat="50.725756" lon="7.072692">
      </trkpt>
      <trkpt lat="50.725953" lon="7.07156">
      </trkpt>
      <trkpt lat="50.725739" lon="7.070756">
      </trkpt>
      <trkpt lat="50.725331" lon="7.070161">
      </trkpt>
      <trkpt lat="50.725219" lon="7.069245">
      </trkpt>
      <trkpt lat="50.724995" lon="7.067643">
      </trkpt>
      <trkpt lat="50.725133" lon="7.066728">
      </trkpt>
      <trkpt lat="50.724803" lon="7.066052">
      </trkpt>
      <trkpt lat="50.725369" lon="7.065527">
      </trkpt>
      <trkpt lat="50.725121" lon="7.064736">
      </trkpt>
      <trkpt lat="50.724461" lon="7.063874">
      </trkpt>
      <trkpt lat="50.724537" lon="7.061728">
      </trkpt>
      <trkpt lat="50.724483" lon="7.060398">
      </trkpt>
      <trkpt lat="50.724327" lon="7.058938">
      </trkpt>
      <trkpt lat="50.724311" lon="7.057615">
      </trkpt>
      <trkpt lat="50.724398" lon="7.056246">
      </trkpt>
      <trkpt lat="50.724397" lon="7.055226">
      </trkpt>
      <trkpt lat="50.724312" lon="7.053997">
      </trkpt>
      <trkpt lat="50.724153" lon="7.052656">
      </trkpt>
      <trkpt lat="50.723777" lon="7.051689">
      </trkpt>
      <trkpt lat="50.72379" lon="7.050693">
      </trkpt>
      <trkpt lat="50.723964" lon="7.049771">
      </trkpt>
      <trkpt lat="50.724257" lon="7.048969">
      </trkpt>
      <trkpt lat="50.72438" lon="7.048136">
      </trkpt>
      <trkpt lat="50.724206" lon="7.047319">
      </trkpt>
      <trkpt lat="50.723725" lon="7.046554">
      </trkpt>
      <trkpt lat="50.723155" lon="7.045757">
      </trkpt>
      <trkpt lat="50.722652" lon="7.045044">
      </trkpt>
      <trkpt lat="50.722098" lon="7.044259">
      </trkpt>
      <trkpt lat="50.722608" lon="7.043239">
      </trkpt>
      <trkpt lat="50.723055" lon="7.042077">
      </trkpt>
      <trkpt lat="50.722573" lon="7.041293">
      </trkpt>
      <trkpt lat="50.722054" lon="7.040529">
      </trkpt>
      <trkpt lat="50.722071" lon="7.039671">
      </trkpt>
      <trkpt lat="50.721593" lon="7.037996">
      </trkpt>
      <trkpt lat="50.72123" lon="7.037086">
      </trkpt>
      <trkpt lat="50.720709" lon="7.036092">
      </trkpt>
      <trkpt lat="50.72024" lon="7.035168">
      </trkpt>
      <trkpt lat="50.719725" lon="7.034238">
      </trkpt>
      <trkpt lat="50.719191" lon="7.033228">
      </trkpt>
      <trkpt lat="50.718396" lon="7.032137">
      </trkpt>
      <trkpt lat="50.717641" lon="7.031084">
      </trkpt>
      <trkpt lat="50.717244" lon="7.030402">
      </trkpt>
      <trkpt lat="50.716837" lon="7.029745">
      </trkpt>
      <trkpt lat="50.716337" lon="7.029276">
      </trkpt>
      <trkpt lat="50.715622" lon="7.028325">
      </trkpt>
      <trkpt lat="50.71507" lon="7.028165">
      </trkpt>
      <trkpt lat="50.714875" lon="7.027311">
      </trkpt>
      <trkpt lat="50.714604" lon="7.02652">
      </trkpt>
      <trkpt lat="50.714337" lon="7.025413">
      </trkpt>
      <trkpt lat="50.714148" lon="7.024566">
      </trkpt>
      <trkpt lat="50.714355" lon="7.023763">
      </trkpt>
      <trkpt lat="50.714011" lon="7.02252">
      </trkpt>
      <trkpt lat="50.713561" lon="7.021938">
      </trkpt>
      <trkpt lat="50.712764" lon="7.021479">
      </trkpt>
      <trkpt lat="50.711865" lon="7.020367">
      </trkpt>
      <trkpt lat="50.711179" lon="7.019788">
      </trkpt>
      <trkpt lat="50.710592" lon="7.019369">
      </trkpt>
      <trkpt lat="50.709553" lon="7.019489">
      </trkpt>
      <trkpt lat="50.708934" lon="7.01948">
      </trkpt>
      <trkpt lat="50.70743" lon="7.019423">
      </trkpt>
      <trkpt lat="50.706965" lon="7.018857">
      </trkpt>
      <trkpt lat="50.706564" lon="7.018244">
      </trkpt>
      <trkpt lat="50.705889" lon="7.01805">
      </trkpt>
      <trkpt lat="50.705303" lon="7.017276">
      </trkpt>
      <trkpt lat="50.704639" lon="7.016061">
      </trkpt>
      <trkpt lat="50.703973" lon="7.015237">
      </trkpt>
      <trkpt lat="50.703573" lon="7.014424">
      </trkpt>
      <trkpt lat="50.703821" lon="7.013661">
      </trkpt>
      <trkpt lat="50.703967" lon="7.012496">
      </trkpt>
      <trkpt lat="50.703821" lon="7.011259">
      </trkpt>
      <trkpt lat="50.703503" lon="7.010535">
      </trkpt>
      <trkpt lat="50.702788" lon="7.010011">
      </trkpt>
      <trkpt lat="50.702018" lon="7.008539">
      </trkpt>
      <trkpt lat="50.701899" lon="7.007561">
      </trkpt>
      <trkpt lat="50.701668" lon="7.006745">
      </trkpt>
      <trkpt lat="50.70104" lon="7.00618">
      </trkpt>
      <trkpt lat="50.700491" lon="7.006477">
      </trkpt>
      <trkpt lat="50.699827" lon="7.006246">
      </trkpt>
      <trkpt lat="50.699387" lon="7.005092">
      </trkpt>
      <trkpt lat="50.699032" lon="7.004366">
      </trkpt>
      <trkpt lat="50.698421" lon="7.003831">
      </trkpt>
      <trkpt lat="50.697827" lon="7.0031">
      </trkpt>
      <trkpt lat="50.697659" lon="7.001934">
      </trkpt>
      <trkpt lat="50.696873" lon="7.001741">
      </trkpt>
      <trkpt lat="50.696339" lon="7.001879">
      </trkpt>
      <trkpt lat="50.695825" lon="7.001476">
      </trkpt>
      <trkpt lat="50.694443" lon="7.000467">
      </trkpt>
      <trkpt lat="50.693798" lon="7.000218">
      </trkpt>
      <trkpt lat="50.693284" lon="6.99975">
      </trkpt>
      <trkpt lat="50.692907" lon="6.998927">
      </trkpt>
      <trkpt lat="50.692462" lon="6.99833">
      </trkpt>
      <trkpt lat="50.692064" lon="6.997528">
      </trkpt>
      <trkpt lat="50.691539" lon="6.997139">
      </trkpt>
      <trkpt lat="50.691092" lon="6.99624">
      </trkpt>
      <trkpt lat="50.690765" lon="6.995537">
      </trkpt>
      <trkpt lat="50.690296" lon="6.994025">
      </trkpt>
      <trkpt lat="50.690103" lon="6.993122">
      </trkpt>
      <trkpt lat="50.689504" lon="6.993032">
      </trkpt>
      <trkpt lat="50.688993" lon="6.993532">
      </trkpt>
      <trkpt lat="50.687311" lon="6.995287">
      </trkpt>
      <trkpt lat="50.686689" lon="6.995924">
      </trkpt>
      <trkpt lat="50.685552" lon="6.997094">
      </trkpt>
      <trkpt lat="50.68468" lon="6.998004">
      </trkpt>
      <trkpt lat="50.683891" lon="6.998784">
      </trkpt>
      <trkpt lat="50.683188" lon="6.999527">
      </trkpt>
      <trkpt lat="50.681145" lon="7.00164">
      </trkpt>
      <trkpt lat="50.679698" lon="7.003103">
      </trkpt>
      <trkpt lat="50.679202" lon="7.003596">
      </trkpt>
      <trkpt lat="50.677448" lon="7.005379">
      </trkpt>
      <trkpt lat="50.675798" lon="7.007083">
      </trkpt>
      <trkpt lat="50.675037" lon="7.007815">
      </trkpt>
      <trkpt lat="50.673259" lon="7.009612">
      </trkpt>
      <trkpt lat="50.672166" lon="7.01079">
      </trkpt>
      <trkpt lat="50.671126" lon="7.011812">
      </trkpt>
      <trkpt lat="50.668774" lon="7.014211">
      </trkpt>
      <trkpt lat="50.666754" lon="7.020947">
      </trkpt>
      <trkpt lat="50.666472" lon="7.021964">
      </trkpt>
      <trkpt lat="50.665254" lon="7.022557">
      </trkpt>
      <trkpt lat="50.663857" lon="7.022969">
      </trkpt>
      <trkpt lat="50.664287" lon="7.024243">
      </trkpt>
      <trkpt lat="50.66498" lon="7.026475">
      </trkpt>
      <trkpt lat="50.664527" lon="7.027672">
      </trkpt>
      <trkpt lat="50.663634" lon="7.028939">
      </trkpt>
      <trkpt lat="50.66209" lon="7.032347">
      </trkpt>
      <trkpt lat="50.661802" lon="7.033096">
      </trkpt>
      <trkpt lat="50.661465" lon="7.034056">
      </trkpt>
      <trkpt lat="50.661405" lon="7.036577">
      </trkpt>
      <trkpt lat="50.660454" lon="7.039016">
      </trkpt>
      <trkpt lat="50.658611" lon="7.043523">
      </trkpt>
      <trkpt lat="50.656633" lon="7.048348">
      </trkpt>
      <trkpt lat="50.656256" lon="7.049268">
      </trkpt>
      <trkpt lat="50.655923" lon="7.050122">
      </trkpt>
      <trkpt lat="50.655706" lon="7.051622">
      </trkpt>
      <trkpt lat="50.655087" lon="7.056757">
      </trkpt>
      <trkpt lat="50.65437" lon="7.062802">
      </trkpt>
      <trkpt lat="50.654075" lon="7.063683">
      </trkpt>
      <trkpt lat="50.648966" lon="7.070919">
      </trkpt>
      <trkpt lat="50.646237" lon="7.082268">
      </trkpt>
      <trkpt lat="50.64626" lon="7.083285">
      </trkpt>
      <trkpt lat="50.646983" lon="7.084391">
      </trkpt>
      <trkpt lat="50.64751" lon="7.08553">
      </trkpt>
      <trkpt lat="50.648241" lon="7.087094">
      </trkpt>
      <trkpt lat="50.648825" lon="7.087077">
      </trkpt>
      <trkpt lat="50.649078" lon="7.08815">
      </trkpt>
      <trkpt lat="50.649662" lon="7.089308">
      </trkpt>
      <trkpt lat="50.650595" lon="7.091268">
      </trkpt>
      <trkpt lat="50.650896" lon="7.09215">
      </trkpt>
      <trkpt lat="50.651356" lon="7.093243">
      </trkpt>
      <trkpt lat="50.651561" lon="7.09423">
      </trkpt>
      <trkpt lat="50.652512" lon="7.095806">
      </trkpt>
      <trkpt lat="50.653033" lon="7.09647">
      </trkpt>
      <trkpt lat="50.653849" lon="7.097429">
      </trkpt>
      <trkpt lat="50.65505" lon="7.098402">
      </trkpt>
      <trkpt lat="50.655802" lon="7.09946">
      </trkpt>
      <trkpt lat="50.656221" lon="7.100073">
      </trkpt>
      <trkpt lat="50.656731" lon="7.101079">
      </trkpt>
      <trkpt lat="50.657038" lon="7.101978">
      </trkpt>
      <trkpt lat="50.657646" lon="7.103627">
      </trkpt>
      <trkpt lat="50.659253" lon="7.104985">
      </trkpt>
      <trkpt lat="50.65967" lon="7.10559">
      </trkpt>
      <trkpt lat="50.659582" lon="7.107119">
      </trkpt>
      <trkpt lat="50.659656" lon="7.108386">
      </trkpt>
      <trkpt lat="50.6597" lon="7.109266">
      </trkpt>
      <trkpt lat="50.659537" lon="7.110773">
      </trkpt>
      <trkpt lat="50.659981" lon="7.112973">
      </trkpt>
      <trkpt lat="50.660606" lon="7.11401">
      </trkpt>
      <trkpt lat="50.661428" lon="7.115677">
      </trkpt>
      <trkpt lat="50.661774" lon="7.11633">
      </trkpt>
      <trkpt lat="50.663103" lon="7.116852">
      </trkpt>
      <trkpt lat="50.664924" lon="7.120157">
      </trkpt>
      <trkpt lat="50.666132" lon="7.122094">
      </trkpt>
      <trkpt lat="50.669993" lon="7.117175">
      </trkpt>
      <trkpt lat="50.670478" lon="7.116181">
      </trkpt>
      <trkpt lat="50.67109" lon="7.116907">
      </trkpt>
      <trkpt lat="50.671344" lon="7.11792">
      </trkpt>
      <trkpt lat="50.671152" lon="7.119442">
      </trkpt>
      <trkpt lat="50.671882" lon="7.119959">
      </trkpt>
      <trkpt lat="50.672452" lon="7.11945">
      </trkpt>
      <trkpt lat="50.67377" lon="7.121043">
      </trkpt>
      <trkpt lat="50.674342" lon="7.121317">
      </trkpt>
      <trkpt lat="50.675122" lon="7.121462">
      </trkpt>
      <trkpt lat="50.675639" lon="7.12196">
      </trkpt>
      <trkpt lat="50.67677" lon="7.121322">
      </trkpt>
      <trkpt lat="50.677021" lon="7.122189">
      </trkpt>
      <trkpt lat="50.677332" lon="7.121276">
      </trkpt>
      <trkpt lat="50.677819" lon="7.120526">
      </trkpt>
      <trkpt lat="50.678373" lon="7.120386">
      </trkpt>
      <trkpt lat="50.678944" lon="7.119986">
      </trkpt>
      <trkpt lat="50.68002" lon="7.119226">
      </trkpt>
      <trkpt lat="50.680126" lon="7.118024">
      </trkpt>
      <trkpt lat="50.681978" lon="7.118711">
      </trkpt>
      <trkpt lat="50.682065" lon="7.117767">
      </trkpt>
      <trkpt lat="50.682644" lon="7.116548">
      </trkpt>
      <trkpt lat="50.683151" lon="7.115345">
      </trkpt>
      <trkpt lat="50.683526" lon="7.114443">
      </trkpt>
      <trkpt lat="50.68611" lon="7.110248">
      </trkpt>
      <trkpt lat="50.6874" lon="7.108148">
      </trkpt>
      <trkpt lat="50.687606" lon="7.107234">
      </trkpt>
      <trkpt lat="50.688511" lon="7.107248">
      </trkpt>
      <trkpt lat="50.689176" lon="7.107457">
      </trkpt>
      <trkpt lat="50.689827" lon="7.107172">
      </trkpt>
      <trkpt lat="50.690496" lon="7.107407">
      </trkpt>
      <trkpt lat="50.690942" lon="7.106879">
      </trkpt>
      <trkpt lat="50.691871" lon="7.106156">
      </trkpt>
      <trkpt lat="50.692515" lon="7.105945">
      </trkpt>
      <trkpt lat="50.693307" lon="7.106932">
      </trkpt>
      <trkpt lat="50.693813" lon="7.10733">
      </trkpt>
      <trkpt lat="50.694492" lon="7.107933">
      </trkpt>
      <trkpt lat="50.695831" lon="7.108615">
      </trkpt>
      <trkpt lat="50.69651" lon="7.10913">
      </trkpt>
      <trkpt lat="50.697046" lon="7.109237">
      </trkpt>
      <trkpt lat="50.697939" lon="7.10909">
      </trkpt>
      <trkpt lat="50.698488" lon="7.108919">
      </trkpt>
      <trkpt lat="50.698942" lon="7.108235">
      </trkpt>
      <trkpt lat="50.69948" lon="7.108482">
      </trkpt>
      <trkpt lat="50.700096" lon="7.108813">
      </trkpt>
      <trkpt lat="50.700665" lon="7.10852">
      </trkpt>
      <trkpt lat="50.701427" lon="7.108169">
      </trkpt>
      <trkpt lat="50.70224" lon="7.108329">
      </trkpt>
      <trkpt lat="50.702596" lon="7.107444">
      </trkpt>
      <trkpt lat="50.703384" lon="7.107151">
      </trkpt>
      <trkpt lat="50.703449" lon="7.106088">
      </trkpt>
      <trkpt lat="50.704139" lon="7.105683">
      </trkpt>
      <trkpt lat="50.704705" lon="7.105331">
      </trkpt>
      <trkpt lat="50.70553" lon="7.105474">
      </trkpt>
      <trkpt lat="50.705976" lon="7.104826">
      </trkpt>
      <trkpt lat="50.706445" lon="7.104255">
      </trkpt>
      <trkpt lat="50.707034" lon="7.102976">
      </trkpt>
      <trkpt lat="50.707406" lon="7.102342">
      </trkpt>
      <trkpt lat="50.707935" lon="7.102536">
      </trkpt>
      <trkpt lat="50.708428" lon="7.102146">
      </trkpt>
      <trkpt lat="50.709262" lon="7.101783">
      </trkpt>
      <trkpt lat="50.709824" lon="7.101802">
      </trkpt>
      <trkpt lat="50.710271" lon="7.101278">
      </trkpt>
      <trkpt lat="50.710521" lon="7.100384">
      </trkpt>
      <trkpt lat="50.711188" lon="7.099484">
      </trkpt>
      <trkpt lat="50.71168" lon="7.098486">
      </trkpt>
      <trkpt lat="50.712249" lon="7.098264">
      </trkpt>
      <trkpt lat="50.712927" lon="7.098267">
      </trkpt>
      <trkpt lat="50.713653" lon="7.09903">
      </trkpt>
      <trkpt lat="50.714193" lon="7.09934">
      </trkpt>
      <trkpt lat="50.714902" lon="7.098613">
      </trkpt>
      <trkpt lat="50.715524" lon="7.09818">
      </trkpt>
      <trkpt lat="50.715981" lon="7.097331">
      </trkpt>
      <trkpt lat="50.715885" lon="7.09823">
      </trkpt>
      <trkpt lat="50.715613" lon="7.099132">
      </trkpt>
      <trkpt lat="50.716252" lon="7.098751">
      </trkpt>
      <trkpt lat="50.716959" lon="7.09744">
      </trkpt>
      <trkpt lat="50.717344" lon="7.096524">
      </trkpt>
      <trkpt lat="50.717956" lon="7.096544">
      </trkpt>
      <trkpt lat="50.718453" lon="7.095957">
      </trkpt>
      <trkpt lat="50.718897" lon="7.094961">
      </trkpt>
      <trkpt lat="50.719333" lon="7.093075">
      </trkpt>
      <trkpt lat="50.720366" lon="7.092511">
      </trkpt>
      <trkpt lat="50.720739" lon="7.091766">
      </trkpt>
      <trkpt lat="50.721394" lon="7.090391">
      </trkpt>
      <trkpt lat="50.721725" lon="7.089528">
      </trkpt>
      <trkpt lat="50.721988" lon="7.088658">
      </trkpt>
      <trkpt lat="50.722571" lon="7.088856">
      </trkpt>
      <trkpt lat="50.723135" lon="7.089231">
      </trkpt>
      <trkpt lat="50.723681" lon="7.089626">
      </trkpt>
      <trkpt lat="50.724237" lon="7.09003">
      </trkpt>
      <trkpt lat="50.724873" lon="7.090617">
      </trkpt>
      <trkpt lat="50.72546" lon="7.091361">
      </trkpt>
      <trkpt lat="50.726209" lon="7.092264">
      </trkpt>
      <trkpt lat="50.726468" lon="7.093178">
      </trkpt>
      <trkpt lat="50.726406" lon="7.094121">
      </trkpt>
      <trkpt lat="50.727381" lon="7.095372">
      </trkpt>
    </trkseg>
  </trk>
</gpx>