<?xml version="1.0" encoding="UTF-8"?>
<gpx xmlns="http://www.topografix.com/GPX/1/1" xmlns:xsi="http://www.w3.org/2001/XMLSchema-instance" xsi:schemaLocation="http://www.topografix.com/GPX/1/1 http://www.topografix.com/GPX/1/1/gpx.xsd" version="1.1" creator="gpx.py -- https://github.com/tkrajina/gpxpy">
  <metadata>
    <name>052</name>
  </metadata>
  <trk>
    <name>052</name>
    <trkseg>
      <trkpt lat="50.733926" lon="7.104399">
      </trkpt>
      <trkpt lat="50.733521" lon="7.105465">
      </trkpt>
      <trkpt lat="50.733015" lon="7.106478">
      </trkpt>
      <trkpt lat="50.732198" lon="7.106972">
      </trkpt>
      <trkpt lat="50.731523" lon="7.107415">
      </trkpt>
      <trkpt lat="50.731014" lon="7.107749">
      </trkpt>
      <trkpt lat="50.730468" lon="7.108127">
      </trkpt>
      <trkpt lat="50.729918" lon="7.108518">
      </trkpt>
      <trkpt lat="50.729267" lon="7.108942">
      </trkpt>
      <trkpt lat="50.728362" lon="7.109568">
      </trkpt>
      <trkpt lat="50.728719" lon="7.110951">
      </trkpt>
      <trkpt lat="50.728414" lon="7.111689">
      </trkpt>
      <trkpt lat="50.727889" lon="7.112297">
      </trkpt>
      <trkpt lat="50.727075" lon="7.113114">
      </trkpt>
      <trkpt lat="50.725852" lon="7.114551">
      </trkpt>
      <trkpt lat="50.725152" lon="7.115492">
      </trkpt>
      <trkpt lat="50.724103" lon="7.117062">
      </trkpt>
      <trkpt lat="50.722446" lon="7.119719">
      </trkpt>
      <trkpt lat="50.721702" lon="7.121041">
      </trkpt>
      <trkpt lat="50.720912" lon="7.12284">
      </trkpt>
      <trkpt lat="50.720328" lon="7.124354">
      </trkpt>
      <trkpt lat="50.719859" lon="7.125743">
      </trkpt>
      <trkpt lat="50.719587" lon="7.126695">
      </trkpt>
      <trkpt lat="50.719158" lon="7.128439">
      </trkpt>
      <trkpt lat="50.718938" lon="7.129399">
      </trkpt>
      <trkpt lat="50.718676" lon="7.130738">
      </trkpt>
      <trkpt lat="50.718401" lon="7.132125">
      </trkpt>
      <trkpt lat="50.718168" lon="7.133254">
      </trkpt>
      <trkpt lat="50.717937" lon="7.134393">
      </trkpt>
      <trkpt lat="50.717621" lon="7.135722">
      </trkpt>
      <trkpt lat="50.717318" lon="7.13643">
      </trkpt>
      <trkpt lat="50.716912" lon="7.137357">
      </trkpt>
      <trkpt lat="50.716524" lon="7.138345">
      </trkpt>
      <trkpt lat="50.716277" lon="7.13954">
      </trkpt>
      <trkpt lat="50.715691" lon="7.139551">
      </trkpt>
      <trkpt lat="50.715137" lon="7.139341">
      </trkpt>
      <trkpt lat="50.714549" lon="7.138875">
      </trkpt>
      <trkpt lat="50.714145" lon="7.138192">
      </trkpt>
      <trkpt lat="50.713506" lon="7.138626">
      </trkpt>
      <trkpt lat="50.712946" lon="7.139039">
      </trkpt>
      <trkpt lat="50.712712" lon="7.139945">
      </trkpt>
      <trkpt lat="50.712385" lon="7.140622">
      </trkpt>
      <trkpt lat="50.711725" lon="7.140416">
      </trkpt>
      <trkpt lat="50.711306" lon="7.139813">
      </trkpt>
      <trkpt lat="50.710762" lon="7.139674">
      </trkpt>
      <trkpt lat="50.710028" lon="7.139005">
      </trkpt>
      <trkpt lat="50.709554" lon="7.138152">
      </trkpt>
      <trkpt lat="50.708976" lon="7.13746">
      </trkpt>
      <trkpt lat="50.70831" lon="7.136504">
      </trkpt>
      <trkpt lat="50.707742" lon="7.135937">
      </trkpt>
      <trkpt lat="50.70729" lon="7.13523">
      </trkpt>
      <trkpt lat="50.706716" lon="7.134708">
      </trkpt>
      <trkpt lat="50.706163" lon="7.133935">
      </trkpt>
      <trkpt lat="50.70566" lon="7.133236">
      </trkpt>
      <trkpt lat="50.705308" lon="7.13254">
      </trkpt>
      <trkpt lat="50.704713" lon="7.13244">
      </trkpt>
      <trkpt lat="50.704113" lon="7.131476">
      </trkpt>
      <trkpt lat="50.703416" lon="7.130243">
      </trkpt>
      <trkpt lat="50.702571" lon="7.130851">
      </trkpt>
      <trkpt lat="50.701775" lon="7.131919">
      </trkpt>
      <trkpt lat="50.701351" lon="7.130867">
      </trkpt>
      <trkpt lat="50.700894" lon="7.130412">
      </trkpt>
      <trkpt lat="50.700452" lon="7.131074">
      </trkpt>
      <trkpt lat="50.69983" lon="7.13178">
      </trkpt>
      <trkpt lat="50.699376" lon="7.132458">
      </trkpt>
      <trkpt lat="50.699043" lon="7.13141">
      </trkpt>
      <trkpt lat="50.69828" lon="7.13209">
      </trkpt>
      <trkpt lat="50.697235" lon="7.133084">
      </trkpt>
      <trkpt lat="50.696387" lon="7.13326">
      </trkpt>
      <trkpt lat="50.695806" lon="7.133305">
      </trkpt>
      <trkpt lat="50.695211" lon="7.133316">
      </trkpt>
      <trkpt lat="50.694552" lon="7.13369">
      </trkpt>
      <trkpt lat="50.693638" lon="7.133066">
      </trkpt>
      <trkpt lat="50.692886" lon="7.132135">
      </trkpt>
      <trkpt lat="50.692095" lon="7.131173">
      </trkpt>
      <trkpt lat="50.691359" lon="7.130952">
      </trkpt>
      <trkpt lat="50.690846" lon="7.130509">
      </trkpt>
      <trkpt lat="50.690067" lon="7.130033">
      </trkpt>
      <trkpt lat="50.689424" lon="7.129634">
      </trkpt>
      <trkpt lat="50.688608" lon="7.12924">
      </trkpt>
      <trkpt lat="50.687968" lon="7.128535">
      </trkpt>
      <trkpt lat="50.687124" lon="7.127561">
      </trkpt>
      <trkpt lat="50.687469" lon="7.126868">
      </trkpt>
      <trkpt lat="50.688289" lon="7.12658">
      </trkpt>
      <trkpt lat="50.688925" lon="7.126541">
      </trkpt>
      <trkpt lat="50.688305" lon="7.12557">
      </trkpt>
      <trkpt lat="50.687864" lon="7.124835">
      </trkpt>
      <trkpt lat="50.687455" lon="7.12425">
      </trkpt>
      <trkpt lat="50.686577" lon="7.123253">
      </trkpt>
      <trkpt lat="50.685449" lon="7.121326">
      </trkpt>
      <trkpt lat="50.684697" lon="7.120471">
      </trkpt>
      <trkpt lat="50.682707" lon="7.119232">
      </trkpt>
      <trkpt lat="50.681978" lon="7.118711">
      </trkpt>
      <trkpt lat="50.680126" lon="7.118024">
      </trkpt>
      <trkpt lat="50.680486" lon="7.119154">
      </trkpt>
      <trkpt lat="50.679349" lon="7.119764">
      </trkpt>
      <trkpt lat="50.678834" lon="7.120047">
      </trkpt>
      <trkpt lat="50.677819" lon="7.120526">
      </trkpt>
      <trkpt lat="50.677332" lon="7.121276">
      </trkpt>
      <trkpt lat="50.677124" lon="7.12212">
      </trkpt>
      <trkpt lat="50.67677" lon="7.121322">
      </trkpt>
      <trkpt lat="50.67487" lon="7.11968">
      </trkpt>
      <trkpt lat="50.673961" lon="7.119199">
      </trkpt>
      <trkpt lat="50.673413" lon="7.117945">
      </trkpt>
      <trkpt lat="50.672689" lon="7.11902">
      </trkpt>
      <trkpt lat="50.671882" lon="7.119959">
      </trkpt>
      <trkpt lat="50.671403" lon="7.118858">
      </trkpt>
      <trkpt lat="50.671344" lon="7.11792">
      </trkpt>
      <trkpt lat="50.67109" lon="7.116907">
      </trkpt>
      <trkpt lat="50.670785" lon="7.116134">
      </trkpt>
      <trkpt lat="50.670281" lon="7.116675">
      </trkpt>
      <trkpt lat="50.66713" lon="7.120924">
      </trkpt>
      <trkpt lat="50.666203" lon="7.122138">
      </trkpt>
      <trkpt lat="50.665942" lon="7.12457">
      </trkpt>
      <trkpt lat="50.665847" lon="7.125524">
      </trkpt>
      <trkpt lat="50.665472" lon="7.126184">
      </trkpt>
      <trkpt lat="50.665496" lon="7.127493">
      </trkpt>
      <trkpt lat="50.665169" lon="7.128573">
      </trkpt>
      <trkpt lat="50.665778" lon="7.128614">
      </trkpt>
      <trkpt lat="50.665686" lon="7.129517">
      </trkpt>
      <trkpt lat="50.666218" lon="7.129781">
      </trkpt>
      <trkpt lat="50.666101" lon="7.130627">
      </trkpt>
      <trkpt lat="50.665518" lon="7.130733">
      </trkpt>
      <trkpt lat="50.66487" lon="7.13061">
      </trkpt>
      <trkpt lat="50.664314" lon="7.130773">
      </trkpt>
      <trkpt lat="50.664657" lon="7.131476">
      </trkpt>
      <trkpt lat="50.665064" lon="7.132456">
      </trkpt>
      <trkpt lat="50.664259" lon="7.132095">
      </trkpt>
      <trkpt lat="50.662908" lon="7.13168">
      </trkpt>
      <trkpt lat="50.662092" lon="7.131203">
      </trkpt>
      <trkpt lat="50.661369" lon="7.130384">
      </trkpt>
      <trkpt lat="50.660452" lon="7.128694">
      </trkpt>
      <trkpt lat="50.660082" lon="7.127883">
      </trkpt>
      <trkpt lat="50.659773" lon="7.127008">
      </trkpt>
      <trkpt lat="50.659485" lon="7.126194">
      </trkpt>
      <trkpt lat="50.659104" lon="7.125401">
      </trkpt>
      <trkpt lat="50.658624" lon="7.124813">
      </trkpt>
      <trkpt lat="50.657333" lon="7.123568">
      </trkpt>
      <trkpt lat="50.656805" lon="7.12295">
      </trkpt>
      <trkpt lat="50.656319" lon="7.122133">
      </trkpt>
      <trkpt lat="50.655499" lon="7.120452">
      </trkpt>
      <trkpt lat="50.655042" lon="7.11964">
      </trkpt>
      <trkpt lat="50.653424" lon="7.11793">
      </trkpt>
      <trkpt lat="50.652952" lon="7.117392">
      </trkpt>
      <trkpt lat="50.65311" lon="7.118317">
      </trkpt>
      <trkpt lat="50.653074" lon="7.119258">
      </trkpt>
      <trkpt lat="50.652654" lon="7.12024">
      </trkpt>
      <trkpt lat="50.652149" lon="7.121071">
      </trkpt>
      <trkpt lat="50.651609" lon="7.121718">
      </trkpt>
      <trkpt lat="50.650039" lon="7.122831">
      </trkpt>
      <trkpt lat="50.649693" lon="7.121758">
      </trkpt>
      <trkpt lat="50.649061" lon="7.11973">
      </trkpt>
      <trkpt lat="50.648377" lon="7.117627">
      </trkpt>
      <trkpt lat="50.647533" lon="7.118103">
      </trkpt>
      <trkpt lat="50.646948" lon="7.116525">
      </trkpt>
      <trkpt lat="50.646475" lon="7.116986">
      </trkpt>
      <trkpt lat="50.644938" lon="7.119349">
      </trkpt>
      <trkpt lat="50.644337" lon="7.119418">
      </trkpt>
      <trkpt lat="50.642792" lon="7.11945">
      </trkpt>
      <trkpt lat="50.641527" lon="7.119482">
      </trkpt>
      <trkpt lat="50.639427" lon="7.11938">
      </trkpt>
      <trkpt lat="50.638909" lon="7.118985">
      </trkpt>
      <trkpt lat="50.638052" lon="7.119212">
      </trkpt>
      <trkpt lat="50.635273" lon="7.119947">
      </trkpt>
      <trkpt lat="50.634479" lon="7.120149">
      </trkpt>
      <trkpt lat="50.633617" lon="7.120372">
      </trkpt>
      <trkpt lat="50.633039" lon="7.114576">
      </trkpt>
      <trkpt lat="50.632953" lon="7.110161">
      </trkpt>
      <trkpt lat="50.632861" lon="7.108767">
      </trkpt>
      <trkpt lat="50.632744" lon="7.106908">
      </trkpt>
      <trkpt lat="50.632631" lon="7.105268">
      </trkpt>
      <trkpt lat="50.633898" lon="7.104315">
      </trkpt>
      <trkpt lat="50.633646" lon="7.102673">
      </trkpt>
      <trkpt lat="50.633356" lon="7.100895">
      </trkpt>
      <trkpt lat="50.633079" lon="7.099205">
      </trkpt>
      <trkpt lat="50.632694" lon="7.096851">
      </trkpt>
      <trkpt lat="50.633812" lon="7.095834">
      </trkpt>
      <trkpt lat="50.633284" lon="7.095269">
      </trkpt>
      <trkpt lat="50.632698" lon="7.094678">
      </trkpt>
      <trkpt lat="50.632684" lon="7.093651">
      </trkpt>
      <trkpt lat="50.632863" lon="7.092796">
      </trkpt>
      <trkpt lat="50.633485" lon="7.090211">
      </trkpt>
      <trkpt lat="50.632476" lon="7.089041">
      </trkpt>
      <trkpt lat="50.631834" lon="7.087519">
      </trkpt>
      <trkpt lat="50.631521" lon="7.086729">
      </trkpt>
      <trkpt lat="50.631023" lon="7.084841">
      </trkpt>
      <trkpt lat="50.629968" lon="7.082783">
      </trkpt>
      <trkpt lat="50.629421" lon="7.082326">
      </trkpt>
      <trkpt lat="50.62939" lon="7.080483">
      </trkpt>
      <trkpt lat="50.629847" lon="7.0799">
      </trkpt>
      <trkpt lat="50.629479" lon="7.079127">
      </trkpt>
      <trkpt lat="50.629092" lon="7.078474">
      </trkpt>
      <trkpt lat="50.628822" lon="7.07757">
      </trkpt>
      <trkpt lat="50.628101" lon="7.075329">
      </trkpt>
      <trkpt lat="50.627317" lon="7.073317">
      </trkpt>
      <trkpt lat="50.626918" lon="7.072356">
      </trkpt>
      <trkpt lat="50.626482" lon="7.07291">
      </trkpt>
      <trkpt lat="50.626128" lon="7.073632">
      </trkpt>
      <trkpt lat="50.625645" lon="7.074309">
      </trkpt>
      <trkpt lat="50.625088" lon="7.075465">
      </trkpt>
      <trkpt lat="50.624692" lon="7.07622">
      </trkpt>
      <trkpt lat="50.624944" lon="7.077063">
      </trkpt>
      <trkpt lat="50.624721" lon="7.078006">
      </trkpt>
      <trkpt lat="50.6241" lon="7.078828">
      </trkpt>
      <trkpt lat="50.62336" lon="7.080895">
      </trkpt>
      <trkpt lat="50.623127" lon="7.082014">
      </trkpt>
      <trkpt lat="50.623018" lon="7.083596">
      </trkpt>
      <trkpt lat="50.622208" lon="7.08424">
      </trkpt>
      <trkpt lat="50.621347" lon="7.084267">
      </trkpt>
      <trkpt lat="50.620578" lon="7.084929">
      </trkpt>
      <trkpt lat="50.620017" lon="7.085362">
      </trkpt>
      <trkpt lat="50.619061" lon="7.085744">
      </trkpt>
      <trkpt lat="50.618479" lon="7.085837">
      </trkpt>
      <trkpt lat="50.617922" lon="7.0857">
      </trkpt>
      <trkpt lat="50.617384" lon="7.085931">
      </trkpt>
      <trkpt lat="50.616635" lon="7.085968">
      </trkpt>
      <trkpt lat="50.616095" lon="7.086685">
      </trkpt>
      <trkpt lat="50.61523" lon="7.087727">
      </trkpt>
      <trkpt lat="50.614488" lon="7.087384">
      </trkpt>
      <trkpt lat="50.613929" lon="7.08799">
      </trkpt>
      <trkpt lat="50.613222" lon="7.088903">
      </trkpt>
      <trkpt lat="50.613157" lon="7.087848">
      </trkpt>
      <trkpt lat="50.613773" lon="7.087489">
      </trkpt>
      <trkpt lat="50.614484" lon="7.086619">
      </trkpt>
      <trkpt lat="50.615055" lon="7.085915">
      </trkpt>
      <trkpt lat="50.615454" lon="7.085138">
      </trkpt>
      <trkpt lat="50.616334" lon="7.083416">
      </trkpt>
      <trkpt lat="50.614632" lon="7.079336">
      </trkpt>
      <trkpt lat="50.615452" lon="7.077224">
      </trkpt>
      <trkpt lat="50.616157" lon="7.075672">
      </trkpt>
      <trkpt lat="50.616891" lon="7.074054">
      </trkpt>
      <trkpt lat="50.617843" lon="7.071958">
      </trkpt>
      <trkpt lat="50.618801" lon="7.069848">
      </trkpt>
      <trkpt lat="50.620253" lon="7.068094">
      </trkpt>
      <trkpt lat="50.620914" lon="7.067288">
      </trkpt>
      <trkpt lat="50.621895" lon="7.066478">
      </trkpt>
      <trkpt lat="50.622513" lon="7.06572">
      </trkpt>
      <trkpt lat="50.62351" lon="7.065667">
      </trkpt>
      <trkpt lat="50.624753" lon="7.064948">
      </trkpt>
      <trkpt lat="50.625502" lon="7.065463">
      </trkpt>
      <trkpt lat="50.627841" lon="7.066689">
      </trkpt>
      <trkpt lat="50.631531" lon="7.068563">
      </trkpt>
      <trkpt lat="50.632326" lon="7.068555">
      </trkpt>
      <trkpt lat="50.634387" lon="7.068535">
      </trkpt>
      <trkpt lat="50.637178" lon="7.068948">
      </trkpt>
      <trkpt lat="50.640862" lon="7.069652">
      </trkpt>
      <trkpt lat="50.648626" lon="7.07116">
      </trkpt>
      <trkpt lat="50.653761" lon="7.064154">
      </trkpt>
      <trkpt lat="50.654225" lon="7.063264">
      </trkpt>
      <trkpt lat="50.658552" lon="7.064078">
      </trkpt>
      <trkpt lat="50.662837" lon="7.065362">
      </trkpt>
      <trkpt lat="50.664633" lon="7.0708">
      </trkpt>
      <trkpt lat="50.666287" lon="7.075825">
      </trkpt>
      <trkpt lat="50.66784" lon="7.080565">
      </trkpt>
      <trkpt lat="50.668508" lon="7.082625">
      </trkpt>
      <trkpt lat="50.66901" lon="7.084142">
      </trkpt>
      <trkpt lat="50.67153" lon="7.082027">
      </trkpt>
      <trkpt lat="50.672089" lon="7.082508">
      </trkpt>
      <trkpt lat="50.67271" lon="7.083114">
      </trkpt>
      <trkpt lat="50.673241" lon="7.083752">
      </trkpt>
      <trkpt lat="50.673799" lon="7.084071">
      </trkpt>
      <trkpt lat="50.674367" lon="7.083937">
      </trkpt>
      <trkpt lat="50.675326" lon="7.08407">
      </trkpt>
      <trkpt lat="50.676055" lon="7.084347">
      </trkpt>
      <trkpt lat="50.676662" lon="7.08449">
      </trkpt>
      <trkpt lat="50.677485" lon="7.085343">
      </trkpt>
      <trkpt lat="50.678314" lon="7.086035">
      </trkpt>
      <trkpt lat="50.678896" lon="7.086177">
      </trkpt>
      <trkpt lat="50.680036" lon="7.086061">
      </trkpt>
      <trkpt lat="50.680644" lon="7.085788">
      </trkpt>
      <trkpt lat="50.681184" lon="7.085897">
      </trkpt>
      <trkpt lat="50.681598" lon="7.085273">
      </trkpt>
      <trkpt lat="50.681979" lon="7.084536">
      </trkpt>
      <trkpt lat="50.682625" lon="7.084286">
      </trkpt>
      <trkpt lat="50.683396" lon="7.083953">
      </trkpt>
      <trkpt lat="50.683997" lon="7.083677">
      </trkpt>
      <trkpt lat="50.684871" lon="7.084251">
      </trkpt>
      <trkpt lat="50.685855" lon="7.086231">
      </trkpt>
      <trkpt lat="50.686365" lon="7.087247">
      </trkpt>
      <trkpt lat="50.687821" lon="7.09019">
      </trkpt>
      <trkpt lat="50.688104" lon="7.09108">
      </trkpt>
      <trkpt lat="50.688517" lon="7.09172">
      </trkpt>
      <trkpt lat="50.689731" lon="7.091726">
      </trkpt>
      <trkpt lat="50.690345" lon="7.091691">
      </trkpt>
      <trkpt lat="50.690941" lon="7.092291">
      </trkpt>
      <trkpt lat="50.69142" lon="7.092714">
      </trkpt>
      <trkpt lat="50.691918" lon="7.093148">
      </trkpt>
      <trkpt lat="50.692388" lon="7.09253">
      </trkpt>
      <trkpt lat="50.692863" lon="7.092093">
      </trkpt>
      <trkpt lat="50.693341" lon="7.092874">
      </trkpt>
      <trkpt lat="50.693739" lon="7.093675">
      </trkpt>
      <trkpt lat="50.69464" lon="7.093591">
      </trkpt>
      <trkpt lat="50.695249" lon="7.092619">
      </trkpt>
      <trkpt lat="50.696129" lon="7.091928">
      </trkpt>
      <trkpt lat="50.696885" lon="7.091632">
      </trkpt>
      <trkpt lat="50.698347" lon="7.092604">
      </trkpt>
      <trkpt lat="50.698931" lon="7.093024">
      </trkpt>
      <trkpt lat="50.699691" lon="7.092342">
      </trkpt>
      <trkpt lat="50.700043" lon="7.091667">
      </trkpt>
      <trkpt lat="50.700358" lon="7.090706">
      </trkpt>
      <trkpt lat="50.700807" lon="7.090223">
      </trkpt>
      <trkpt lat="50.701411" lon="7.089882">
      </trkpt>
      <trkpt lat="50.702031" lon="7.08948">
      </trkpt>
      <trkpt lat="50.70267" lon="7.089018">
      </trkpt>
      <trkpt lat="50.702663" lon="7.087737">
      </trkpt>
      <trkpt lat="50.702643" lon="7.086253">
      </trkpt>
      <trkpt lat="50.70329" lon="7.085704">
      </trkpt>
      <trkpt lat="50.704107" lon="7.085427">
      </trkpt>
      <trkpt lat="50.704587" lon="7.084782">
      </trkpt>
      <trkpt lat="50.705126" lon="7.084664">
      </trkpt>
      <trkpt lat="50.705841" lon="7.084959">
      </trkpt>
      <trkpt lat="50.706355" lon="7.085376">
      </trkpt>
      <trkpt lat="50.707011" lon="7.086007">
      </trkpt>
      <trkpt lat="50.707497" lon="7.085431">
      </trkpt>
      <trkpt lat="50.708149" lon="7.086005">
      </trkpt>
      <trkpt lat="50.708741" lon="7.086568">
      </trkpt>
      <trkpt lat="50.709275" lon="7.086994">
      </trkpt>
      <trkpt lat="50.70999" lon="7.08711">
      </trkpt>
      <trkpt lat="50.710911" lon="7.087818">
      </trkpt>
      <trkpt lat="50.711483" lon="7.088014">
      </trkpt>
      <trkpt lat="50.711331" lon="7.088892">
      </trkpt>
      <trkpt lat="50.712272" lon="7.089594">
      </trkpt>
      <trkpt lat="50.713085" lon="7.089682">
      </trkpt>
      <trkpt lat="50.713654" lon="7.08982">
      </trkpt>
      <trkpt lat="50.714297" lon="7.090446">
      </trkpt>
      <trkpt lat="50.714551" lon="7.089693">
      </trkpt>
      <trkpt lat="50.715302" lon="7.08916">
      </trkpt>
      <trkpt lat="50.716289" lon="7.088519">
      </trkpt>
      <trkpt lat="50.716786" lon="7.087887">
      </trkpt>
      <trkpt lat="50.717675" lon="7.087369">
      </trkpt>
      <trkpt lat="50.718416" lon="7.086771">
      </trkpt>
      <trkpt lat="50.718294" lon="7.085822">
      </trkpt>
      <trkpt lat="50.718858" lon="7.085769">
      </trkpt>
      <trkpt lat="50.719359" lon="7.086261">
      </trkpt>
      <trkpt lat="50.719931" lon="7.087026">
      </trkpt>
      <trkpt lat="50.720547" lon="7.087337">
      </trkpt>
      <trkpt lat="50.721189" lon="7.087774">
      </trkpt>
      <trkpt lat="50.72197" lon="7.088311">
      </trkpt>
      <trkpt lat="50.722603" lon="7.08873">
      </trkpt>
      <trkpt lat="50.723345" lon="7.089266">
      </trkpt>
      <trkpt lat="50.724137" lon="7.089851">
      </trkpt>
      <trkpt lat="50.724612" lon="7.090332">
      </trkpt>
      <trkpt lat="50.725137" lon="7.090956">
      </trkpt>
      <trkpt lat="50.725619" lon="7.091559">
      </trkpt>
      <trkpt lat="50.726209" lon="7.092264">
      </trkpt>
      <trkpt lat="50.726468" lon="7.093178">
      </trkpt>
      <trkpt lat="50.726406" lon="7.094121">
      </trkpt>
      <trkpt lat="50.727381" lon="7.095372">
      </trkpt>
      <trkpt lat="50.727956" lon="7.096109">
      </trkpt>
      <trkpt lat="50.728454" lon="7.096756">
      </trkpt>
      <trkpt lat="50.729151" lon="7.09764">
      </trkpt>
      <trkpt lat="50.730551" lon="7.099416">
      </trkpt>
    </trkseg>
  </trk>
</gpx>