<?xml version="1.0" encoding="UTF-8"?>
<gpx xmlns="http://www.topografix.com/GPX/1/1" xmlns:xsi="http://www.w3.org/2001/XMLSchema-instance" xsi:schemaLocation="http://www.topografix.com/GPX/1/1 http://www.topografix.com/GPX/1/1/gpx.xsd" version="1.1" creator="gpx.py -- https://github.com/tkrajina/gpxpy">
  <metadata>
    <name>053</name>
  </metadata>
  <wpt lat="50.688095" lon="7.235135">
    <name>Bench</name>
    <sym>Picnic Area</sym>
  </wpt>
  <trk>
    <name>053</name>
    <trkseg>
      <trkpt lat="50.734376" lon="7.103884">
      </trkpt>
      <trkpt lat="50.734998" lon="7.104011">
      </trkpt>
      <trkpt lat="50.73552" lon="7.104395">
      </trkpt>
      <trkpt lat="50.735778" lon="7.105198">
      </trkpt>
      <trkpt lat="50.736045" lon="7.106103">
      </trkpt>
      <trkpt lat="50.7366" lon="7.105918">
      </trkpt>
      <trkpt lat="50.737277" lon="7.105735">
      </trkpt>
      <trkpt lat="50.73765" lon="7.106707">
      </trkpt>
      <trkpt lat="50.738118" lon="7.110063">
      </trkpt>
      <trkpt lat="50.738574" lon="7.11341">
      </trkpt>
      <trkpt lat="50.738727" lon="7.114479">
      </trkpt>
      <trkpt lat="50.738828" lon="7.115368">
      </trkpt>
      <trkpt lat="50.738415" lon="7.116284">
      </trkpt>
      <trkpt lat="50.738653" lon="7.117344">
      </trkpt>
      <trkpt lat="50.738183" lon="7.117998">
      </trkpt>
      <trkpt lat="50.738164" lon="7.118934">
      </trkpt>
      <trkpt lat="50.737584" lon="7.119483">
      </trkpt>
      <trkpt lat="50.737194" lon="7.120152">
      </trkpt>
      <trkpt lat="50.737061" lon="7.121211">
      </trkpt>
      <trkpt lat="50.736535" lon="7.122273">
      </trkpt>
      <trkpt lat="50.736141" lon="7.122886">
      </trkpt>
      <trkpt lat="50.735661" lon="7.123398">
      </trkpt>
      <trkpt lat="50.734983" lon="7.124149">
      </trkpt>
      <trkpt lat="50.734353" lon="7.125184">
      </trkpt>
      <trkpt lat="50.733849" lon="7.125901">
      </trkpt>
      <trkpt lat="50.733289" lon="7.126661">
      </trkpt>
      <trkpt lat="50.7326" lon="7.127582">
      </trkpt>
      <trkpt lat="50.731836" lon="7.128619">
      </trkpt>
      <trkpt lat="50.731413" lon="7.129291">
      </trkpt>
      <trkpt lat="50.732048" lon="7.13029">
      </trkpt>
      <trkpt lat="50.732394" lon="7.13105">
      </trkpt>
      <trkpt lat="50.732731" lon="7.131948">
      </trkpt>
      <trkpt lat="50.733091" lon="7.132968">
      </trkpt>
      <trkpt lat="50.734091" lon="7.132241">
      </trkpt>
      <trkpt lat="50.734656" lon="7.132332">
      </trkpt>
      <trkpt lat="50.73513" lon="7.13418">
      </trkpt>
      <trkpt lat="50.734503" lon="7.134774">
      </trkpt>
      <trkpt lat="50.735172" lon="7.136867">
      </trkpt>
      <trkpt lat="50.735218" lon="7.137985">
      </trkpt>
      <trkpt lat="50.735125" lon="7.138913">
      </trkpt>
      <trkpt lat="50.734634" lon="7.139559">
      </trkpt>
      <trkpt lat="50.734195" lon="7.140089">
      </trkpt>
      <trkpt lat="50.73355" lon="7.139976">
      </trkpt>
      <trkpt lat="50.732951" lon="7.139754">
      </trkpt>
      <trkpt lat="50.732383" lon="7.139292">
      </trkpt>
      <trkpt lat="50.731808" lon="7.139805">
      </trkpt>
      <trkpt lat="50.731688" lon="7.140652">
      </trkpt>
      <trkpt lat="50.731919" lon="7.142109">
      </trkpt>
      <trkpt lat="50.732265" lon="7.143004">
      </trkpt>
      <trkpt lat="50.732693" lon="7.143865">
      </trkpt>
      <trkpt lat="50.733185" lon="7.144587">
      </trkpt>
      <trkpt lat="50.733586" lon="7.145183">
      </trkpt>
      <trkpt lat="50.734537" lon="7.145993">
      </trkpt>
      <trkpt lat="50.735426" lon="7.146625">
      </trkpt>
      <trkpt lat="50.735937" lon="7.147191">
      </trkpt>
      <trkpt lat="50.736407" lon="7.148633">
      </trkpt>
      <trkpt lat="50.735824" lon="7.148466">
      </trkpt>
      <trkpt lat="50.734954" lon="7.149335">
      </trkpt>
      <trkpt lat="50.73572" lon="7.15135">
      </trkpt>
      <trkpt lat="50.736103" lon="7.153031">
      </trkpt>
      <trkpt lat="50.736228" lon="7.154082">
      </trkpt>
      <trkpt lat="50.735345" lon="7.153838">
      </trkpt>
      <trkpt lat="50.734781" lon="7.154031">
      </trkpt>
      <trkpt lat="50.733799" lon="7.154121">
      </trkpt>
      <trkpt lat="50.732937" lon="7.154784">
      </trkpt>
      <trkpt lat="50.732272" lon="7.154943">
      </trkpt>
      <trkpt lat="50.731148" lon="7.154992">
      </trkpt>
      <trkpt lat="50.730514" lon="7.155428">
      </trkpt>
      <trkpt lat="50.730012" lon="7.15613">
      </trkpt>
      <trkpt lat="50.729811" lon="7.157148">
      </trkpt>
      <trkpt lat="50.72977" lon="7.158229">
      </trkpt>
      <trkpt lat="50.730195" lon="7.159552">
      </trkpt>
      <trkpt lat="50.729777" lon="7.160178">
      </trkpt>
      <trkpt lat="50.729159" lon="7.159755">
      </trkpt>
      <trkpt lat="50.728346" lon="7.159404">
      </trkpt>
      <trkpt lat="50.728123" lon="7.160321">
      </trkpt>
      <trkpt lat="50.72837" lon="7.161592">
      </trkpt>
      <trkpt lat="50.728636" lon="7.162815">
      </trkpt>
      <trkpt lat="50.728715" lon="7.163749">
      </trkpt>
      <trkpt lat="50.729052" lon="7.165168">
      </trkpt>
      <trkpt lat="50.728899" lon="7.166226">
      </trkpt>
      <trkpt lat="50.728398" lon="7.165859">
      </trkpt>
      <trkpt lat="50.727875" lon="7.165517">
      </trkpt>
      <trkpt lat="50.727538" lon="7.166541">
      </trkpt>
      <trkpt lat="50.727133" lon="7.167705">
      </trkpt>
      <trkpt lat="50.726772" lon="7.168419">
      </trkpt>
      <trkpt lat="50.726284" lon="7.16901">
      </trkpt>
      <trkpt lat="50.725535" lon="7.169411">
      </trkpt>
      <trkpt lat="50.724752" lon="7.169632">
      </trkpt>
      <trkpt lat="50.724039" lon="7.169731">
      </trkpt>
      <trkpt lat="50.723386" lon="7.169189">
      </trkpt>
      <trkpt lat="50.722815" lon="7.169224">
      </trkpt>
      <trkpt lat="50.72232" lon="7.169702">
      </trkpt>
      <trkpt lat="50.721512" lon="7.169768">
      </trkpt>
      <trkpt lat="50.721104" lon="7.171435">
      </trkpt>
      <trkpt lat="50.721019" lon="7.172414">
      </trkpt>
      <trkpt lat="50.720533" lon="7.174133">
      </trkpt>
      <trkpt lat="50.720058" lon="7.17521">
      </trkpt>
      <trkpt lat="50.719448" lon="7.176506">
      </trkpt>
      <trkpt lat="50.719151" lon="7.177228">
      </trkpt>
      <trkpt lat="50.718725" lon="7.178191">
      </trkpt>
      <trkpt lat="50.718393" lon="7.179263">
      </trkpt>
      <trkpt lat="50.717889" lon="7.181516">
      </trkpt>
      <trkpt lat="50.717564" lon="7.183326">
      </trkpt>
      <trkpt lat="50.717589" lon="7.184317">
      </trkpt>
      <trkpt lat="50.717434" lon="7.185815">
      </trkpt>
      <trkpt lat="50.717175" lon="7.187167">
      </trkpt>
      <trkpt lat="50.716739" lon="7.188314">
      </trkpt>
      <trkpt lat="50.716218" lon="7.188981">
      </trkpt>
      <trkpt lat="50.71571" lon="7.189627">
      </trkpt>
      <trkpt lat="50.715116" lon="7.191039">
      </trkpt>
      <trkpt lat="50.714738" lon="7.191856">
      </trkpt>
      <trkpt lat="50.71428" lon="7.193234">
      </trkpt>
      <trkpt lat="50.713515" lon="7.194997">
      </trkpt>
      <trkpt lat="50.713181" lon="7.195751">
      </trkpt>
      <trkpt lat="50.71312" lon="7.196643">
      </trkpt>
      <trkpt lat="50.712797" lon="7.197467">
      </trkpt>
      <trkpt lat="50.712306" lon="7.198467">
      </trkpt>
      <trkpt lat="50.711988" lon="7.199241">
      </trkpt>
      <trkpt lat="50.711487" lon="7.199562">
      </trkpt>
      <trkpt lat="50.711609" lon="7.200398">
      </trkpt>
      <trkpt lat="50.711264" lon="7.20134">
      </trkpt>
      <trkpt lat="50.710741" lon="7.201895">
      </trkpt>
      <trkpt lat="50.709906" lon="7.202804">
      </trkpt>
      <trkpt lat="50.709331" lon="7.202976">
      </trkpt>
      <trkpt lat="50.708749" lon="7.202139">
      </trkpt>
      <trkpt lat="50.707982" lon="7.202695">
      </trkpt>
      <trkpt lat="50.707362" lon="7.203794">
      </trkpt>
      <trkpt lat="50.706755" lon="7.204196">
      </trkpt>
      <trkpt lat="50.706037" lon="7.204585">
      </trkpt>
      <trkpt lat="50.705241" lon="7.205345">
      </trkpt>
      <trkpt lat="50.704577" lon="7.206258">
      </trkpt>
      <trkpt lat="50.704391" lon="7.2073">
      </trkpt>
      <trkpt lat="50.704333" lon="7.208423">
      </trkpt>
      <trkpt lat="50.704281" lon="7.210002">
      </trkpt>
      <trkpt lat="50.703668" lon="7.210801">
      </trkpt>
      <trkpt lat="50.703212" lon="7.21134">
      </trkpt>
      <trkpt lat="50.702097" lon="7.211461">
      </trkpt>
      <trkpt lat="50.70166" lon="7.212008">
      </trkpt>
      <trkpt lat="50.700705" lon="7.212131">
      </trkpt>
      <trkpt lat="50.700051" lon="7.212451">
      </trkpt>
      <trkpt lat="50.698631" lon="7.213112">
      </trkpt>
      <trkpt lat="50.697964" lon="7.213651">
      </trkpt>
      <trkpt lat="50.697046" lon="7.214114">
      </trkpt>
      <trkpt lat="50.696671" lon="7.213427">
      </trkpt>
      <trkpt lat="50.6965" lon="7.212513">
      </trkpt>
      <trkpt lat="50.696344" lon="7.211632">
      </trkpt>
      <trkpt lat="50.695916" lon="7.210926">
      </trkpt>
      <trkpt lat="50.69534" lon="7.210048">
      </trkpt>
      <trkpt lat="50.694835" lon="7.208608">
      </trkpt>
      <trkpt lat="50.694549" lon="7.207848">
      </trkpt>
      <trkpt lat="50.693934" lon="7.207196">
      </trkpt>
      <trkpt lat="50.693475" lon="7.208208">
      </trkpt>
      <trkpt lat="50.693236" lon="7.208992">
      </trkpt>
      <trkpt lat="50.692145" lon="7.210767">
      </trkpt>
      <trkpt lat="50.691418" lon="7.211812">
      </trkpt>
      <trkpt lat="50.691069" lon="7.21255">
      </trkpt>
      <trkpt lat="50.690612" lon="7.213951">
      </trkpt>
      <trkpt lat="50.690411" lon="7.214787">
      </trkpt>
      <trkpt lat="50.690671" lon="7.215826">
      </trkpt>
      <trkpt lat="50.690766" lon="7.217306">
      </trkpt>
      <trkpt lat="50.690527" lon="7.218561">
      </trkpt>
      <trkpt lat="50.689988" lon="7.219849">
      </trkpt>
      <trkpt lat="50.68987" lon="7.221996">
      </trkpt>
      <trkpt lat="50.690358" lon="7.222426">
      </trkpt>
      <trkpt lat="50.689763" lon="7.223327">
      </trkpt>
      <trkpt lat="50.689058" lon="7.22368">
      </trkpt>
      <trkpt lat="50.688671" lon="7.222278">
      </trkpt>
      <trkpt lat="50.688179" lon="7.222699">
      </trkpt>
      <trkpt lat="50.687646" lon="7.224267">
      </trkpt>
      <trkpt lat="50.687165" lon="7.225325">
      </trkpt>
      <trkpt lat="50.686805" lon="7.226103">
      </trkpt>
      <trkpt lat="50.686431" lon="7.22681">
      </trkpt>
      <trkpt lat="50.686096" lon="7.227869">
      </trkpt>
      <trkpt lat="50.685794" lon="7.228856">
      </trkpt>
      <trkpt lat="50.685601" lon="7.229859">
      </trkpt>
      <trkpt lat="50.685159" lon="7.230957">
      </trkpt>
      <trkpt lat="50.684754" lon="7.231574">
      </trkpt>
      <trkpt lat="50.683932" lon="7.23227">
      </trkpt>
      <trkpt lat="50.682993" lon="7.232568">
      </trkpt>
      <trkpt lat="50.682162" lon="7.232703">
      </trkpt>
      <trkpt lat="50.681674" lon="7.233216">
      </trkpt>
      <trkpt lat="50.680894" lon="7.234406">
      </trkpt>
      <trkpt lat="50.680282" lon="7.234765">
      </trkpt>
      <trkpt lat="50.680285" lon="7.235911">
      </trkpt>
      <trkpt lat="50.680256" lon="7.236921">
      </trkpt>
      <trkpt lat="50.679996" lon="7.2379">
      </trkpt>
      <trkpt lat="50.67993" lon="7.239243">
      </trkpt>
      <trkpt lat="50.679814" lon="7.240155">
      </trkpt>
      <trkpt lat="50.68005" lon="7.24096">
      </trkpt>
      <trkpt lat="50.680634" lon="7.24204">
      </trkpt>
      <trkpt lat="50.680914" lon="7.243501">
      </trkpt>
      <trkpt lat="50.680276" lon="7.243669">
      </trkpt>
      <trkpt lat="50.679877" lon="7.244633">
      </trkpt>
      <trkpt lat="50.679242" lon="7.245643">
      </trkpt>
      <trkpt lat="50.678633" lon="7.245777">
      </trkpt>
      <trkpt lat="50.67827" lon="7.246525">
      </trkpt>
      <trkpt lat="50.677733" lon="7.247197">
      </trkpt>
      <trkpt lat="50.677415" lon="7.248175">
      </trkpt>
      <trkpt lat="50.676788" lon="7.248811">
      </trkpt>
      <trkpt lat="50.675516" lon="7.250029">
      </trkpt>
      <trkpt lat="50.674802" lon="7.250806">
      </trkpt>
      <trkpt lat="50.674225" lon="7.251689">
      </trkpt>
      <trkpt lat="50.673948" lon="7.252791">
      </trkpt>
      <trkpt lat="50.673671" lon="7.253533">
      </trkpt>
      <trkpt lat="50.673131" lon="7.253545">
      </trkpt>
      <trkpt lat="50.672589" lon="7.253769">
      </trkpt>
      <trkpt lat="50.672164" lon="7.254762">
      </trkpt>
      <trkpt lat="50.671697" lon="7.255783">
      </trkpt>
      <trkpt lat="50.671261" lon="7.2566">
      </trkpt>
      <trkpt lat="50.67055" lon="7.257104">
      </trkpt>
      <trkpt lat="50.670223" lon="7.256399">
      </trkpt>
      <trkpt lat="50.670079" lon="7.255466">
      </trkpt>
      <trkpt lat="50.669729" lon="7.254767">
      </trkpt>
      <trkpt lat="50.669151" lon="7.254181">
      </trkpt>
      <trkpt lat="50.668581" lon="7.253322">
      </trkpt>
      <trkpt lat="50.668001" lon="7.25357">
      </trkpt>
      <trkpt lat="50.667493" lon="7.253913">
      </trkpt>
      <trkpt lat="50.66691" lon="7.252688">
      </trkpt>
      <trkpt lat="50.666556" lon="7.252002">
      </trkpt>
      <trkpt lat="50.665656" lon="7.252369">
      </trkpt>
      <trkpt lat="50.665383" lon="7.2532">
      </trkpt>
      <trkpt lat="50.664937" lon="7.253756">
      </trkpt>
      <trkpt lat="50.664305" lon="7.254835">
      </trkpt>
      <trkpt lat="50.664979" lon="7.254756">
      </trkpt>
      <trkpt lat="50.665608" lon="7.254576">
      </trkpt>
      <trkpt lat="50.666207" lon="7.254736">
      </trkpt>
      <trkpt lat="50.666628" lon="7.255378">
      </trkpt>
      <trkpt lat="50.666458" lon="7.256624">
      </trkpt>
      <trkpt lat="50.666066" lon="7.257274">
      </trkpt>
      <trkpt lat="50.665937" lon="7.258462">
      </trkpt>
      <trkpt lat="50.665371" lon="7.259037">
      </trkpt>
      <trkpt lat="50.664793" lon="7.258846">
      </trkpt>
      <trkpt lat="50.664195" lon="7.259536">
      </trkpt>
      <trkpt lat="50.663856" lon="7.260398">
      </trkpt>
      <trkpt lat="50.663734" lon="7.261566">
      </trkpt>
      <trkpt lat="50.663942" lon="7.262388">
      </trkpt>
      <trkpt lat="50.664678" lon="7.262464">
      </trkpt>
      <trkpt lat="50.665245" lon="7.262743">
      </trkpt>
      <trkpt lat="50.666571" lon="7.2637">
      </trkpt>
      <trkpt lat="50.667106" lon="7.26396">
      </trkpt>
      <trkpt lat="50.667152" lon="7.265636">
      </trkpt>
      <trkpt lat="50.668017" lon="7.266231">
      </trkpt>
      <trkpt lat="50.668846" lon="7.2659">
      </trkpt>
      <trkpt lat="50.66931" lon="7.265047">
      </trkpt>
      <trkpt lat="50.669613" lon="7.263575">
      </trkpt>
      <trkpt lat="50.670324" lon="7.262993">
      </trkpt>
      <trkpt lat="50.671032" lon="7.262567">
      </trkpt>
      <trkpt lat="50.671634" lon="7.261886">
      </trkpt>
      <trkpt lat="50.672237" lon="7.262696">
      </trkpt>
      <trkpt lat="50.672645" lon="7.263846">
      </trkpt>
      <trkpt lat="50.673302" lon="7.26445">
      </trkpt>
      <trkpt lat="50.674218" lon="7.264688">
      </trkpt>
      <trkpt lat="50.674754" lon="7.264801">
      </trkpt>
      <trkpt lat="50.675232" lon="7.26412">
      </trkpt>
      <trkpt lat="50.675801" lon="7.26397">
      </trkpt>
      <trkpt lat="50.676493" lon="7.264181">
      </trkpt>
      <trkpt lat="50.677115" lon="7.26476">
      </trkpt>
      <trkpt lat="50.677668" lon="7.265239">
      </trkpt>
      <trkpt lat="50.678201" lon="7.265498">
      </trkpt>
      <trkpt lat="50.678639" lon="7.266026">
      </trkpt>
      <trkpt lat="50.679544" lon="7.266665">
      </trkpt>
      <trkpt lat="50.680105" lon="7.266949">
      </trkpt>
      <trkpt lat="50.67984" lon="7.26583">
      </trkpt>
      <trkpt lat="50.679587" lon="7.264329">
      </trkpt>
      <trkpt lat="50.679708" lon="7.263243">
      </trkpt>
      <trkpt lat="50.680098" lon="7.262125">
      </trkpt>
      <trkpt lat="50.680796" lon="7.262448">
      </trkpt>
      <trkpt lat="50.68115" lon="7.261681">
      </trkpt>
      <trkpt lat="50.68138" lon="7.26083">
      </trkpt>
      <trkpt lat="50.682049" lon="7.259972">
      </trkpt>
      <trkpt lat="50.683157" lon="7.258504">
      </trkpt>
      <trkpt lat="50.68379" lon="7.257409">
      </trkpt>
      <trkpt lat="50.684089" lon="7.256482">
      </trkpt>
      <trkpt lat="50.684535" lon="7.255643">
      </trkpt>
      <trkpt lat="50.685441" lon="7.254941">
      </trkpt>
      <trkpt lat="50.686582" lon="7.25406">
      </trkpt>
      <trkpt lat="50.687098" lon="7.25366">
      </trkpt>
      <trkpt lat="50.687774" lon="7.253137">
      </trkpt>
      <trkpt lat="50.688285" lon="7.252752">
      </trkpt>
      <trkpt lat="50.688851" lon="7.252184">
      </trkpt>
      <trkpt lat="50.689387" lon="7.251567">
      </trkpt>
      <trkpt lat="50.689747" lon="7.250874">
      </trkpt>
      <trkpt lat="50.690383" lon="7.249981">
      </trkpt>
      <trkpt lat="50.690711" lon="7.249117">
      </trkpt>
      <trkpt lat="50.691067" lon="7.24845">
      </trkpt>
      <trkpt lat="50.691564" lon="7.24719">
      </trkpt>
      <trkpt lat="50.692012" lon="7.246689">
      </trkpt>
      <trkpt lat="50.692739" lon="7.246227">
      </trkpt>
      <trkpt lat="50.693402" lon="7.245745">
      </trkpt>
      <trkpt lat="50.69458" lon="7.245794">
      </trkpt>
      <trkpt lat="50.694623" lon="7.244715">
      </trkpt>
      <trkpt lat="50.694486" lon="7.24369">
      </trkpt>
      <trkpt lat="50.694001" lon="7.243264">
      </trkpt>
      <trkpt lat="50.693336" lon="7.242924">
      </trkpt>
      <trkpt lat="50.692597" lon="7.243031">
      </trkpt>
      <trkpt lat="50.692048" lon="7.242827">
      </trkpt>
      <trkpt lat="50.691761" lon="7.241487">
      </trkpt>
      <trkpt lat="50.691176" lon="7.240393">
      </trkpt>
      <trkpt lat="50.69048" lon="7.240208">
      </trkpt>
      <trkpt lat="50.688993" lon="7.239424">
      </trkpt>
      <trkpt lat="50.688298" lon="7.238838">
      </trkpt>
      <trkpt lat="50.687538" lon="7.23833">
      </trkpt>
      <trkpt lat="50.686864" lon="7.237116">
      </trkpt>
      <trkpt lat="50.686433" lon="7.235823">
      </trkpt>
      <trkpt lat="50.686849" lon="7.235086">
      </trkpt>
      <trkpt lat="50.687514" lon="7.235039">
      </trkpt>
      <trkpt lat="50.688144" lon="7.235245">
      </trkpt>
      <trkpt lat="50.687544" lon="7.234211">
      </trkpt>
      <trkpt lat="50.687088" lon="7.233029">
      </trkpt>
      <trkpt lat="50.686521" lon="7.232731">
      </trkpt>
      <trkpt lat="50.686106" lon="7.23209">
      </trkpt>
      <trkpt lat="50.685816" lon="7.231139">
      </trkpt>
      <trkpt lat="50.685908" lon="7.230098">
      </trkpt>
      <trkpt lat="50.686072" lon="7.229188">
      </trkpt>
      <trkpt lat="50.686091" lon="7.228268">
      </trkpt>
      <trkpt lat="50.686431" lon="7.22681">
      </trkpt>
      <trkpt lat="50.686805" lon="7.226103">
      </trkpt>
      <trkpt lat="50.68702" lon="7.225279">
      </trkpt>
      <trkpt lat="50.686992" lon="7.223607">
      </trkpt>
      <trkpt lat="50.687247" lon="7.222533">
      </trkpt>
      <trkpt lat="50.687512" lon="7.220819">
      </trkpt>
      <trkpt lat="50.687904" lon="7.219824">
      </trkpt>
      <trkpt lat="50.687906" lon="7.21852">
      </trkpt>
      <trkpt lat="50.687795" lon="7.217531">
      </trkpt>
      <trkpt lat="50.687457" lon="7.216275">
      </trkpt>
      <trkpt lat="50.687406" lon="7.215375">
      </trkpt>
      <trkpt lat="50.687405" lon="7.214397">
      </trkpt>
      <trkpt lat="50.68824" lon="7.212377">
      </trkpt>
      <trkpt lat="50.6886" lon="7.211152">
      </trkpt>
      <trkpt lat="50.690068" lon="7.208941">
      </trkpt>
      <trkpt lat="50.690259" lon="7.208082">
      </trkpt>
      <trkpt lat="50.690391" lon="7.207109">
      </trkpt>
      <trkpt lat="50.690471" lon="7.20593">
      </trkpt>
      <trkpt lat="50.690443" lon="7.20469">
      </trkpt>
      <trkpt lat="50.690347" lon="7.203342">
      </trkpt>
      <trkpt lat="50.690061" lon="7.202236">
      </trkpt>
      <trkpt lat="50.690303" lon="7.200683">
      </trkpt>
      <trkpt lat="50.690736" lon="7.199366">
      </trkpt>
      <trkpt lat="50.690165" lon="7.198767">
      </trkpt>
      <trkpt lat="50.690104" lon="7.197149">
      </trkpt>
      <trkpt lat="50.690618" lon="7.196268">
      </trkpt>
      <trkpt lat="50.691192" lon="7.195549">
      </trkpt>
      <trkpt lat="50.691615" lon="7.194859">
      </trkpt>
      <trkpt lat="50.692143" lon="7.194158">
      </trkpt>
      <trkpt lat="50.692731" lon="7.193587">
      </trkpt>
      <trkpt lat="50.693374" lon="7.19323">
      </trkpt>
      <trkpt lat="50.693573" lon="7.19227">
      </trkpt>
      <trkpt lat="50.694004" lon="7.191729">
      </trkpt>
      <trkpt lat="50.69458" lon="7.191505">
      </trkpt>
      <trkpt lat="50.695167" lon="7.191851">
      </trkpt>
      <trkpt lat="50.695591" lon="7.190978">
      </trkpt>
      <trkpt lat="50.695436" lon="7.189895">
      </trkpt>
      <trkpt lat="50.69577" lon="7.188257">
      </trkpt>
      <trkpt lat="50.696227" lon="7.187762">
      </trkpt>
      <trkpt lat="50.696776" lon="7.187218">
      </trkpt>
      <trkpt lat="50.696404" lon="7.186426">
      </trkpt>
      <trkpt lat="50.696072" lon="7.18552">
      </trkpt>
      <trkpt lat="50.695749" lon="7.18466">
      </trkpt>
      <trkpt lat="50.695376" lon="7.183492">
      </trkpt>
      <trkpt lat="50.695121" lon="7.182639">
      </trkpt>
      <trkpt lat="50.69484" lon="7.181683">
      </trkpt>
      <trkpt lat="50.694527" lon="7.18061">
      </trkpt>
      <trkpt lat="50.69429" lon="7.179806">
      </trkpt>
      <trkpt lat="50.69394" lon="7.179001">
      </trkpt>
      <trkpt lat="50.694283" lon="7.177943">
      </trkpt>
      <trkpt lat="50.694785" lon="7.177594">
      </trkpt>
      <trkpt lat="50.69558" lon="7.177232">
      </trkpt>
      <trkpt lat="50.696404" lon="7.176715">
      </trkpt>
      <trkpt lat="50.6969" lon="7.176291">
      </trkpt>
      <trkpt lat="50.69742" lon="7.175906">
      </trkpt>
      <trkpt lat="50.697986" lon="7.175603">
      </trkpt>
      <trkpt lat="50.697885" lon="7.174751">
      </trkpt>
      <trkpt lat="50.69868" lon="7.174174">
      </trkpt>
      <trkpt lat="50.700503" lon="7.173516">
      </trkpt>
      <trkpt lat="50.70207" lon="7.173042">
      </trkpt>
      <trkpt lat="50.702887" lon="7.172789">
      </trkpt>
      <trkpt lat="50.703528" lon="7.172447">
      </trkpt>
      <trkpt lat="50.704507" lon="7.17161">
      </trkpt>
      <trkpt lat="50.705977" lon="7.170048">
      </trkpt>
      <trkpt lat="50.707263" lon="7.168646">
      </trkpt>
      <trkpt lat="50.708536" lon="7.167239">
      </trkpt>
      <trkpt lat="50.709003" lon="7.166521">
      </trkpt>
      <trkpt lat="50.709432" lon="7.165934">
      </trkpt>
      <trkpt lat="50.710042" lon="7.165197">
      </trkpt>
      <trkpt lat="50.710448" lon="7.164621">
      </trkpt>
      <trkpt lat="50.710981" lon="7.163973">
      </trkpt>
      <trkpt lat="50.711591" lon="7.163231">
      </trkpt>
      <trkpt lat="50.712279" lon="7.162275">
      </trkpt>
      <trkpt lat="50.712756" lon="7.161333">
      </trkpt>
      <trkpt lat="50.713872" lon="7.159659">
      </trkpt>
      <trkpt lat="50.714795" lon="7.158024">
      </trkpt>
      <trkpt lat="50.715313" lon="7.156938">
      </trkpt>
      <trkpt lat="50.715704" lon="7.156112">
      </trkpt>
      <trkpt lat="50.716052" lon="7.154962">
      </trkpt>
      <trkpt lat="50.716469" lon="7.153393">
      </trkpt>
      <trkpt lat="50.716837" lon="7.15237">
      </trkpt>
      <trkpt lat="50.717219" lon="7.151346">
      </trkpt>
      <trkpt lat="50.717815" lon="7.150457">
      </trkpt>
      <trkpt lat="50.718086" lon="7.14965">
      </trkpt>
      <trkpt lat="50.71887" lon="7.14724">
      </trkpt>
      <trkpt lat="50.719424" lon="7.146999">
      </trkpt>
      <trkpt lat="50.719545" lon="7.145798">
      </trkpt>
      <trkpt lat="50.719569" lon="7.144439">
      </trkpt>
      <trkpt lat="50.720087" lon="7.142744">
      </trkpt>
      <trkpt lat="50.720365" lon="7.141542">
      </trkpt>
      <trkpt lat="50.720644" lon="7.140029">
      </trkpt>
      <trkpt lat="50.72092" lon="7.139027">
      </trkpt>
      <trkpt lat="50.7213" lon="7.137843">
      </trkpt>
      <trkpt lat="50.721602" lon="7.13623">
      </trkpt>
      <trkpt lat="50.721818" lon="7.13526">
      </trkpt>
      <trkpt lat="50.722207" lon="7.13395">
      </trkpt>
      <trkpt lat="50.722616" lon="7.132389">
      </trkpt>
      <trkpt lat="50.722805" lon="7.131554">
      </trkpt>
      <trkpt lat="50.723474" lon="7.130675">
      </trkpt>
      <trkpt lat="50.723776" lon="7.129941">
      </trkpt>
      <trkpt lat="50.724122" lon="7.128739">
      </trkpt>
      <trkpt lat="50.724311" lon="7.127783">
      </trkpt>
      <trkpt lat="50.724686" lon="7.127102">
      </trkpt>
      <trkpt lat="50.724915" lon="7.126289">
      </trkpt>
      <trkpt lat="50.72524" lon="7.125419">
      </trkpt>
      <trkpt lat="50.725556" lon="7.124623">
      </trkpt>
      <trkpt lat="50.726112" lon="7.12367">
      </trkpt>
      <trkpt lat="50.726669" lon="7.12226">
      </trkpt>
      <trkpt lat="50.727042" lon="7.121631">
      </trkpt>
      <trkpt lat="50.727925" lon="7.120168">
      </trkpt>
      <trkpt lat="50.728578" lon="7.119298">
      </trkpt>
      <trkpt lat="50.729053" lon="7.118825">
      </trkpt>
      <trkpt lat="50.729929" lon="7.118032">
      </trkpt>
      <trkpt lat="50.730618" lon="7.117443">
      </trkpt>
      <trkpt lat="50.731408" lon="7.116873">
      </trkpt>
      <trkpt lat="50.732339" lon="7.116281">
      </trkpt>
      <trkpt lat="50.733398" lon="7.115877">
      </trkpt>
      <trkpt lat="50.734095" lon="7.115509">
      </trkpt>
      <trkpt lat="50.73487" lon="7.115281">
      </trkpt>
      <trkpt lat="50.735596" lon="7.11497">
      </trkpt>
      <trkpt lat="50.73619" lon="7.114754">
      </trkpt>
      <trkpt lat="50.736919" lon="7.114499">
      </trkpt>
      <trkpt lat="50.737851" lon="7.114176">
      </trkpt>
    </trkseg>
  </trk>
</gpx>