<?xml version="1.0" encoding="UTF-8"?>
<gpx xmlns="http://www.topografix.com/GPX/1/1" xmlns:xsi="http://www.w3.org/2001/XMLSchema-instance" xsi:schemaLocation="http://www.topografix.com/GPX/1/1 http://www.topografix.com/GPX/1/1/gpx.xsd" version="1.1" creator="gpx.py -- https://github.com/tkrajina/gpxpy">
  <metadata>
    <name>054</name>
  </metadata>
  <wpt lat="50.733263" lon="7.070168">
    <name>Green Strip</name>
    <sym>Flag, Blue</sym>
  </wpt>
  <wpt lat="50.731564" lon="7.087872">
    <name>Memorial in Baumschulpark</name>
    <sym>Flag, Blue</sym>
  </wpt>
  <trk>
    <name>054</name>
    <trkseg>
      <trkpt lat="50.734398" lon="7.103745">
      </trkpt>
      <trkpt lat="50.733769" lon="7.10391">
      </trkpt>
      <trkpt lat="50.733188" lon="7.103172">
      </trkpt>
      <trkpt lat="50.732619" lon="7.102447">
      </trkpt>
      <trkpt lat="50.732138" lon="7.101498">
      </trkpt>
      <trkpt lat="50.731709" lon="7.100973">
      </trkpt>
      <trkpt lat="50.731935" lon="7.10005">
      </trkpt>
      <trkpt lat="50.732145" lon="7.099024">
      </trkpt>
      <trkpt lat="50.731609" lon="7.099425">
      </trkpt>
      <trkpt lat="50.731128" lon="7.098938">
      </trkpt>
      <trkpt lat="50.729749" lon="7.097762">
      </trkpt>
      <trkpt lat="50.7282" lon="7.095811">
      </trkpt>
      <trkpt lat="50.727562" lon="7.095">
      </trkpt>
      <trkpt lat="50.727031" lon="7.094314">
      </trkpt>
      <trkpt lat="50.72652" lon="7.093734">
      </trkpt>
      <trkpt lat="50.726503" lon="7.092808">
      </trkpt>
      <trkpt lat="50.725873" lon="7.091868">
      </trkpt>
      <trkpt lat="50.725137" lon="7.090956">
      </trkpt>
      <trkpt lat="50.724683" lon="7.090389">
      </trkpt>
      <trkpt lat="50.724612" lon="7.089274">
      </trkpt>
      <trkpt lat="50.72509" lon="7.088301">
      </trkpt>
      <trkpt lat="50.726105" lon="7.086315">
      </trkpt>
      <trkpt lat="50.726616" lon="7.085644">
      </trkpt>
      <trkpt lat="50.727027" lon="7.084351">
      </trkpt>
      <trkpt lat="50.726576" lon="7.083569">
      </trkpt>
      <trkpt lat="50.727006" lon="7.082668">
      </trkpt>
      <trkpt lat="50.727529" lon="7.082245">
      </trkpt>
      <trkpt lat="50.727446" lon="7.08093">
      </trkpt>
      <trkpt lat="50.727315" lon="7.079974">
      </trkpt>
      <trkpt lat="50.727187" lon="7.078748">
      </trkpt>
      <trkpt lat="50.727073" lon="7.077889">
      </trkpt>
      <trkpt lat="50.72696" lon="7.077035">
      </trkpt>
      <trkpt lat="50.726603" lon="7.076257">
      </trkpt>
      <trkpt lat="50.726993" lon="7.075667">
      </trkpt>
      <trkpt lat="50.726707" lon="7.074874">
      </trkpt>
      <trkpt lat="50.72624" lon="7.074364">
      </trkpt>
      <trkpt lat="50.725837" lon="7.073639">
      </trkpt>
      <trkpt lat="50.725756" lon="7.072692">
      </trkpt>
      <trkpt lat="50.725953" lon="7.07156">
      </trkpt>
      <trkpt lat="50.725739" lon="7.070756">
      </trkpt>
      <trkpt lat="50.725331" lon="7.070161">
      </trkpt>
      <trkpt lat="50.725219" lon="7.069245">
      </trkpt>
      <trkpt lat="50.725969" lon="7.068482">
      </trkpt>
      <trkpt lat="50.726506" lon="7.067912">
      </trkpt>
      <trkpt lat="50.727182" lon="7.067206">
      </trkpt>
      <trkpt lat="50.727687" lon="7.066699">
      </trkpt>
      <trkpt lat="50.727414" lon="7.063978">
      </trkpt>
      <trkpt lat="50.727285" lon="7.063096">
      </trkpt>
      <trkpt lat="50.727057" lon="7.061882">
      </trkpt>
      <trkpt lat="50.728331" lon="7.058383">
      </trkpt>
      <trkpt lat="50.728623" lon="7.056994">
      </trkpt>
      <trkpt lat="50.728956" lon="7.054797">
      </trkpt>
      <trkpt lat="50.728923" lon="7.051328">
      </trkpt>
      <trkpt lat="50.728977" lon="7.049666">
      </trkpt>
      <trkpt lat="50.728936" lon="7.048384">
      </trkpt>
      <trkpt lat="50.728937" lon="7.047526">
      </trkpt>
      <trkpt lat="50.728417" lon="7.046615">
      </trkpt>
      <trkpt lat="50.728336" lon="7.044582">
      </trkpt>
      <trkpt lat="50.728566" lon="7.042969">
      </trkpt>
      <trkpt lat="50.727935" lon="7.041853">
      </trkpt>
      <trkpt lat="50.727471" lon="7.040162">
      </trkpt>
      <trkpt lat="50.727111" lon="7.039116">
      </trkpt>
      <trkpt lat="50.726774" lon="7.037907">
      </trkpt>
      <trkpt lat="50.726608" lon="7.03668">
      </trkpt>
      <trkpt lat="50.726352" lon="7.035724">
      </trkpt>
      <trkpt lat="50.725848" lon="7.034459">
      </trkpt>
      <trkpt lat="50.725487" lon="7.03352">
      </trkpt>
      <trkpt lat="50.724807" lon="7.033201">
      </trkpt>
      <trkpt lat="50.724205" lon="7.032773">
      </trkpt>
      <trkpt lat="50.723972" lon="7.031343">
      </trkpt>
      <trkpt lat="50.723775" lon="7.02852">
      </trkpt>
      <trkpt lat="50.723692" lon="7.027537">
      </trkpt>
      <trkpt lat="50.723563" lon="7.026479">
      </trkpt>
      <trkpt lat="50.723254" lon="7.025673">
      </trkpt>
      <trkpt lat="50.722656" lon="7.024166">
      </trkpt>
      <trkpt lat="50.722323" lon="7.023383">
      </trkpt>
      <trkpt lat="50.721868" lon="7.022581">
      </trkpt>
      <trkpt lat="50.721422" lon="7.021698">
      </trkpt>
      <trkpt lat="50.721017" lon="7.02109">
      </trkpt>
      <trkpt lat="50.720369" lon="7.020305">
      </trkpt>
      <trkpt lat="50.719837" lon="7.019632">
      </trkpt>
      <trkpt lat="50.719558" lon="7.018629">
      </trkpt>
      <trkpt lat="50.719175" lon="7.017323">
      </trkpt>
      <trkpt lat="50.718849" lon="7.016426">
      </trkpt>
      <trkpt lat="50.718263" lon="7.01483">
      </trkpt>
      <trkpt lat="50.718048" lon="7.013741">
      </trkpt>
      <trkpt lat="50.717682" lon="7.013074">
      </trkpt>
      <trkpt lat="50.717164" lon="7.012567">
      </trkpt>
      <trkpt lat="50.716739" lon="7.011711">
      </trkpt>
      <trkpt lat="50.716602" lon="7.010859">
      </trkpt>
      <trkpt lat="50.715937" lon="7.009255">
      </trkpt>
      <trkpt lat="50.715486" lon="7.007626">
      </trkpt>
      <trkpt lat="50.714958" lon="7.006833">
      </trkpt>
      <trkpt lat="50.715266" lon="7.006093">
      </trkpt>
      <trkpt lat="50.714833" lon="7.005056">
      </trkpt>
      <trkpt lat="50.714465" lon="7.004225">
      </trkpt>
      <trkpt lat="50.71407" lon="7.00333">
      </trkpt>
      <trkpt lat="50.713861" lon="7.002194">
      </trkpt>
      <trkpt lat="50.713887" lon="7.001088">
      </trkpt>
      <trkpt lat="50.713418" lon="6.999531">
      </trkpt>
      <trkpt lat="50.713032" lon="6.998139">
      </trkpt>
      <trkpt lat="50.712747" lon="6.997184">
      </trkpt>
      <trkpt lat="50.712162" lon="6.997823">
      </trkpt>
      <trkpt lat="50.711902" lon="6.999594">
      </trkpt>
      <trkpt lat="50.711346" lon="6.999518">
      </trkpt>
      <trkpt lat="50.71105" lon="6.998237">
      </trkpt>
      <trkpt lat="50.710774" lon="6.997373">
      </trkpt>
      <trkpt lat="50.709863" lon="6.997136">
      </trkpt>
      <trkpt lat="50.709093" lon="6.997433">
      </trkpt>
      <trkpt lat="50.709048" lon="6.998442">
      </trkpt>
      <trkpt lat="50.708687" lon="6.999464">
      </trkpt>
      <trkpt lat="50.708701" lon="7.000466">
      </trkpt>
      <trkpt lat="50.708308" lon="6.999659">
      </trkpt>
      <trkpt lat="50.707951" lon="6.998402">
      </trkpt>
      <trkpt lat="50.707125" lon="6.998328">
      </trkpt>
      <trkpt lat="50.706467" lon="6.998265">
      </trkpt>
      <trkpt lat="50.705876" lon="6.998114">
      </trkpt>
      <trkpt lat="50.705406" lon="6.997577">
      </trkpt>
      <trkpt lat="50.704996" lon="6.996242">
      </trkpt>
      <trkpt lat="50.704456" lon="6.995464">
      </trkpt>
      <trkpt lat="50.703959" lon="6.994619">
      </trkpt>
      <trkpt lat="50.703878" lon="6.992544">
      </trkpt>
      <trkpt lat="50.70356" lon="6.991011">
      </trkpt>
      <trkpt lat="50.702626" lon="6.989324">
      </trkpt>
      <trkpt lat="50.702525" lon="6.987932">
      </trkpt>
      <trkpt lat="50.702269" lon="6.987042">
      </trkpt>
      <trkpt lat="50.70203" lon="6.986101">
      </trkpt>
      <trkpt lat="50.701617" lon="6.984755">
      </trkpt>
      <trkpt lat="50.701633" lon="6.98382">
      </trkpt>
      <trkpt lat="50.701607" lon="6.982227">
      </trkpt>
      <trkpt lat="50.701563" lon="6.980799">
      </trkpt>
      <trkpt lat="50.699001" lon="6.983424">
      </trkpt>
      <trkpt lat="50.69745" lon="6.977884">
      </trkpt>
      <trkpt lat="50.695689" lon="6.971642">
      </trkpt>
      <trkpt lat="50.695689" lon="6.970771">
      </trkpt>
      <trkpt lat="50.695425" lon="6.969421">
      </trkpt>
      <trkpt lat="50.695248" lon="6.96836">
      </trkpt>
      <trkpt lat="50.694942" lon="6.965388">
      </trkpt>
      <trkpt lat="50.694837" lon="6.964291">
      </trkpt>
      <trkpt lat="50.694894" lon="6.961911">
      </trkpt>
      <trkpt lat="50.694756" lon="6.960407">
      </trkpt>
      <trkpt lat="50.694328" lon="6.959533">
      </trkpt>
      <trkpt lat="50.693565" lon="6.958118">
      </trkpt>
      <trkpt lat="50.69383" lon="6.957163">
      </trkpt>
      <trkpt lat="50.694001" lon="6.955862">
      </trkpt>
      <trkpt lat="50.694116" lon="6.953328">
      </trkpt>
      <trkpt lat="50.694459" lon="6.952231">
      </trkpt>
      <trkpt lat="50.694874" lon="6.950188">
      </trkpt>
      <trkpt lat="50.694022" lon="6.947914">
      </trkpt>
      <trkpt lat="50.694357" lon="6.947144">
      </trkpt>
      <trkpt lat="50.694887" lon="6.945919">
      </trkpt>
      <trkpt lat="50.695332" lon="6.943822">
      </trkpt>
      <trkpt lat="50.695323" lon="6.942948">
      </trkpt>
      <trkpt lat="50.695837" lon="6.942501">
      </trkpt>
      <trkpt lat="50.696808" lon="6.941124">
      </trkpt>
      <trkpt lat="50.696663" lon="6.940016">
      </trkpt>
      <trkpt lat="50.696231" lon="6.939062">
      </trkpt>
      <trkpt lat="50.699349" lon="6.938015">
      </trkpt>
      <trkpt lat="50.700808" lon="6.937443">
      </trkpt>
      <trkpt lat="50.700358" lon="6.934574">
      </trkpt>
      <trkpt lat="50.700198" lon="6.933511">
      </trkpt>
      <trkpt lat="50.699911" lon="6.931696">
      </trkpt>
      <trkpt lat="50.69976" lon="6.930851">
      </trkpt>
      <trkpt lat="50.699509" lon="6.929999">
      </trkpt>
      <trkpt lat="50.699244" lon="6.928839">
      </trkpt>
      <trkpt lat="50.699334" lon="6.927612">
      </trkpt>
      <trkpt lat="50.699204" lon="6.92671">
      </trkpt>
      <trkpt lat="50.699302" lon="6.925845">
      </trkpt>
      <trkpt lat="50.700066" lon="6.925409">
      </trkpt>
      <trkpt lat="50.702248" lon="6.92443">
      </trkpt>
      <trkpt lat="50.703839" lon="6.922693">
      </trkpt>
      <trkpt lat="50.70373" lon="6.921495">
      </trkpt>
      <trkpt lat="50.70409" lon="6.9206">
      </trkpt>
      <trkpt lat="50.704714" lon="6.920207">
      </trkpt>
      <trkpt lat="50.705222" lon="6.919572">
      </trkpt>
      <trkpt lat="50.705603" lon="6.918885">
      </trkpt>
      <trkpt lat="50.706126" lon="6.917848">
      </trkpt>
      <trkpt lat="50.706619" lon="6.91749">
      </trkpt>
      <trkpt lat="50.707406" lon="6.917226">
      </trkpt>
      <trkpt lat="50.707938" lon="6.916876">
      </trkpt>
      <trkpt lat="50.708531" lon="6.916765">
      </trkpt>
      <trkpt lat="50.709096" lon="6.916443">
      </trkpt>
      <trkpt lat="50.709735" lon="6.915907">
      </trkpt>
      <trkpt lat="50.710352" lon="6.91554">
      </trkpt>
      <trkpt lat="50.710943" lon="6.915248">
      </trkpt>
      <trkpt lat="50.711496" lon="6.915361">
      </trkpt>
      <trkpt lat="50.71253" lon="6.915688">
      </trkpt>
      <trkpt lat="50.713079" lon="6.916097">
      </trkpt>
      <trkpt lat="50.713707" lon="6.916193">
      </trkpt>
      <trkpt lat="50.714046" lon="6.917172">
      </trkpt>
      <trkpt lat="50.713713" lon="6.918053">
      </trkpt>
      <trkpt lat="50.713304" lon="6.91876">
      </trkpt>
      <trkpt lat="50.713011" lon="6.919545">
      </trkpt>
      <trkpt lat="50.713073" lon="6.920647">
      </trkpt>
      <trkpt lat="50.713461" lon="6.921301">
      </trkpt>
      <trkpt lat="50.713497" lon="6.922154">
      </trkpt>
      <trkpt lat="50.714033" lon="6.922305">
      </trkpt>
      <trkpt lat="50.714357" lon="6.923079">
      </trkpt>
      <trkpt lat="50.714495" lon="6.924567">
      </trkpt>
      <trkpt lat="50.714499" lon="6.925891">
      </trkpt>
      <trkpt lat="50.714478" lon="6.926964">
      </trkpt>
      <trkpt lat="50.714379" lon="6.932656">
      </trkpt>
      <trkpt lat="50.714313" lon="6.937092">
      </trkpt>
      <trkpt lat="50.71561" lon="6.936364">
      </trkpt>
      <trkpt lat="50.716367" lon="6.936208">
      </trkpt>
      <trkpt lat="50.717828" lon="6.936254">
      </trkpt>
      <trkpt lat="50.718786" lon="6.935995">
      </trkpt>
      <trkpt lat="50.719851" lon="6.935454">
      </trkpt>
      <trkpt lat="50.721269" lon="6.934684">
      </trkpt>
      <trkpt lat="50.72144" lon="6.937286">
      </trkpt>
      <trkpt lat="50.721528" lon="6.938388">
      </trkpt>
      <trkpt lat="50.721753" lon="6.941568">
      </trkpt>
      <trkpt lat="50.721919" lon="6.943935">
      </trkpt>
      <trkpt lat="50.722023" lon="6.944957">
      </trkpt>
      <trkpt lat="50.722697" lon="6.950512">
      </trkpt>
      <trkpt lat="50.721077" lon="6.954975">
      </trkpt>
      <trkpt lat="50.72076" lon="6.955798">
      </trkpt>
      <trkpt lat="50.72015" lon="6.957407">
      </trkpt>
      <trkpt lat="50.719833" lon="6.958394">
      </trkpt>
      <trkpt lat="50.719441" lon="6.959377">
      </trkpt>
      <trkpt lat="50.719062" lon="6.960539">
      </trkpt>
      <trkpt lat="50.718044" lon="6.963121">
      </trkpt>
      <trkpt lat="50.717508" lon="6.964698">
      </trkpt>
      <trkpt lat="50.715869" lon="6.96911">
      </trkpt>
      <trkpt lat="50.716481" lon="6.969509">
      </trkpt>
      <trkpt lat="50.717155" lon="6.969579">
      </trkpt>
      <trkpt lat="50.717847" lon="6.969616">
      </trkpt>
      <trkpt lat="50.718497" lon="6.969951">
      </trkpt>
      <trkpt lat="50.718977" lon="6.970399">
      </trkpt>
      <trkpt lat="50.719677" lon="6.970653">
      </trkpt>
      <trkpt lat="50.720365" lon="6.97086">
      </trkpt>
      <trkpt lat="50.720968" lon="6.971251">
      </trkpt>
      <trkpt lat="50.722205" lon="6.971691">
      </trkpt>
      <trkpt lat="50.72274" lon="6.971871">
      </trkpt>
      <trkpt lat="50.723922" lon="6.972173">
      </trkpt>
      <trkpt lat="50.724676" lon="6.97234">
      </trkpt>
      <trkpt lat="50.725643" lon="6.972646">
      </trkpt>
      <trkpt lat="50.725842" lon="6.971082">
      </trkpt>
      <trkpt lat="50.725726" lon="6.970087">
      </trkpt>
      <trkpt lat="50.725441" lon="6.968769">
      </trkpt>
      <trkpt lat="50.726048" lon="6.96818">
      </trkpt>
      <trkpt lat="50.726637" lon="6.967417">
      </trkpt>
      <trkpt lat="50.726973" lon="6.966392">
      </trkpt>
      <trkpt lat="50.727266" lon="6.965428">
      </trkpt>
      <trkpt lat="50.727854" lon="6.966268">
      </trkpt>
      <trkpt lat="50.728772" lon="6.967095">
      </trkpt>
      <trkpt lat="50.72921" lon="6.967814">
      </trkpt>
      <trkpt lat="50.729647" lon="6.968313">
      </trkpt>
      <trkpt lat="50.730053" lon="6.968973">
      </trkpt>
      <trkpt lat="50.730551" lon="6.96972">
      </trkpt>
      <trkpt lat="50.730068" lon="6.970828">
      </trkpt>
      <trkpt lat="50.729902" lon="6.971684">
      </trkpt>
      <trkpt lat="50.730295" lon="6.972344">
      </trkpt>
      <trkpt lat="50.730637" lon="6.973246">
      </trkpt>
      <trkpt lat="50.731261" lon="6.974118">
      </trkpt>
      <trkpt lat="50.731647" lon="6.975097">
      </trkpt>
      <trkpt lat="50.732144" lon="6.976005">
      </trkpt>
      <trkpt lat="50.732727" lon="6.976844">
      </trkpt>
      <trkpt lat="50.733715" lon="6.977493">
      </trkpt>
      <trkpt lat="50.731691" lon="6.981179">
      </trkpt>
      <trkpt lat="50.73124" lon="6.981872">
      </trkpt>
      <trkpt lat="50.73053" lon="6.983263">
      </trkpt>
      <trkpt lat="50.73141" lon="6.984262">
      </trkpt>
      <trkpt lat="50.732082" lon="6.985416">
      </trkpt>
      <trkpt lat="50.732273" lon="6.986247">
      </trkpt>
      <trkpt lat="50.732746" lon="6.987143">
      </trkpt>
      <trkpt lat="50.733771" lon="6.987656">
      </trkpt>
      <trkpt lat="50.734835" lon="6.988148">
      </trkpt>
      <trkpt lat="50.735381" lon="6.988709">
      </trkpt>
      <trkpt lat="50.735989" lon="6.990743">
      </trkpt>
      <trkpt lat="50.736331" lon="6.991636">
      </trkpt>
      <trkpt lat="50.736758" lon="6.99238">
      </trkpt>
      <trkpt lat="50.736997" lon="6.993445">
      </trkpt>
      <trkpt lat="50.737342" lon="6.994154">
      </trkpt>
      <trkpt lat="50.737462" lon="6.994999">
      </trkpt>
      <trkpt lat="50.737474" lon="6.995851">
      </trkpt>
      <trkpt lat="50.737693" lon="6.996642">
      </trkpt>
      <trkpt lat="50.737693" lon="6.997564">
      </trkpt>
      <trkpt lat="50.737663" lon="6.998471">
      </trkpt>
      <trkpt lat="50.737093" lon="6.998743">
      </trkpt>
      <trkpt lat="50.736738" lon="6.999544">
      </trkpt>
      <trkpt lat="50.736193" lon="7.000067">
      </trkpt>
      <trkpt lat="50.736743" lon="7.000992">
      </trkpt>
      <trkpt lat="50.736212" lon="7.001829">
      </trkpt>
      <trkpt lat="50.735867" lon="7.002533">
      </trkpt>
      <trkpt lat="50.7355" lon="7.003382">
      </trkpt>
      <trkpt lat="50.734811" lon="7.004421">
      </trkpt>
      <trkpt lat="50.734402" lon="7.005529">
      </trkpt>
      <trkpt lat="50.733894" lon="7.005847">
      </trkpt>
      <trkpt lat="50.73424" lon="7.007071">
      </trkpt>
      <trkpt lat="50.734653" lon="7.007674">
      </trkpt>
      <trkpt lat="50.735628" lon="7.009365">
      </trkpt>
      <trkpt lat="50.735137" lon="7.009888">
      </trkpt>
      <trkpt lat="50.734646" lon="7.010768">
      </trkpt>
      <trkpt lat="50.734751" lon="7.011969">
      </trkpt>
      <trkpt lat="50.735179" lon="7.013247">
      </trkpt>
      <trkpt lat="50.735662" lon="7.014132">
      </trkpt>
      <trkpt lat="50.73615" lon="7.014891">
      </trkpt>
      <trkpt lat="50.736723" lon="7.015701">
      </trkpt>
      <trkpt lat="50.737684" lon="7.01708">
      </trkpt>
      <trkpt lat="50.738192" lon="7.018344">
      </trkpt>
      <trkpt lat="50.738414" lon="7.019149">
      </trkpt>
      <trkpt lat="50.738429" lon="7.020404">
      </trkpt>
      <trkpt lat="50.738336" lon="7.022461">
      </trkpt>
      <trkpt lat="50.73693" lon="7.023737">
      </trkpt>
      <trkpt lat="50.736471" lon="7.024202">
      </trkpt>
      <trkpt lat="50.735805" lon="7.026713">
      </trkpt>
      <trkpt lat="50.735154" lon="7.029375">
      </trkpt>
      <trkpt lat="50.735424" lon="7.030164">
      </trkpt>
      <trkpt lat="50.735747" lon="7.030903">
      </trkpt>
      <trkpt lat="50.734901" lon="7.032422">
      </trkpt>
      <trkpt lat="50.734062" lon="7.032788">
      </trkpt>
      <trkpt lat="50.733979" lon="7.033779">
      </trkpt>
      <trkpt lat="50.734249" lon="7.035284">
      </trkpt>
      <trkpt lat="50.734678" lon="7.037236">
      </trkpt>
      <trkpt lat="50.733872" lon="7.037474">
      </trkpt>
      <trkpt lat="50.733953" lon="7.039415">
      </trkpt>
      <trkpt lat="50.733833" lon="7.040254">
      </trkpt>
      <trkpt lat="50.733409" lon="7.041012">
      </trkpt>
      <trkpt lat="50.733374" lon="7.042333">
      </trkpt>
      <trkpt lat="50.733079" lon="7.043601">
      </trkpt>
      <trkpt lat="50.732888" lon="7.044808">
      </trkpt>
      <trkpt lat="50.731791" lon="7.046761">
      </trkpt>
      <trkpt lat="50.732379" lon="7.047351">
      </trkpt>
      <trkpt lat="50.733336" lon="7.047632">
      </trkpt>
      <trkpt lat="50.733557" lon="7.048654">
      </trkpt>
      <trkpt lat="50.732963" lon="7.051745">
      </trkpt>
      <trkpt lat="50.732825" lon="7.052569">
      </trkpt>
      <trkpt lat="50.733453" lon="7.054079">
      </trkpt>
      <trkpt lat="50.733897" lon="7.054576">
      </trkpt>
      <trkpt lat="50.733852" lon="7.055612">
      </trkpt>
      <trkpt lat="50.733821" lon="7.056778">
      </trkpt>
      <trkpt lat="50.733776" lon="7.057741">
      </trkpt>
      <trkpt lat="50.73365" lon="7.058821">
      </trkpt>
      <trkpt lat="50.733403" lon="7.059586">
      </trkpt>
      <trkpt lat="50.732704" lon="7.061009">
      </trkpt>
      <trkpt lat="50.732322" lon="7.061923">
      </trkpt>
      <trkpt lat="50.731893" lon="7.062864">
      </trkpt>
      <trkpt lat="50.731543" lon="7.063628">
      </trkpt>
      <trkpt lat="50.730704" lon="7.064159">
      </trkpt>
      <trkpt lat="50.730286" lon="7.064997">
      </trkpt>
      <trkpt lat="50.731002" lon="7.065157">
      </trkpt>
      <trkpt lat="50.731628" lon="7.065302">
      </trkpt>
      <trkpt lat="50.732288" lon="7.065731">
      </trkpt>
      <trkpt lat="50.732851" lon="7.066344">
      </trkpt>
      <trkpt lat="50.733533" lon="7.067067">
      </trkpt>
      <trkpt lat="50.733938" lon="7.067948">
      </trkpt>
      <trkpt lat="50.734134" lon="7.06899">
      </trkpt>
      <trkpt lat="50.733588" lon="7.069267">
      </trkpt>
      <trkpt lat="50.733284" lon="7.070195">
      </trkpt>
      <trkpt lat="50.732852" lon="7.071023">
      </trkpt>
      <trkpt lat="50.732345" lon="7.071679">
      </trkpt>
      <trkpt lat="50.732954" lon="7.072443">
      </trkpt>
      <trkpt lat="50.733362" lon="7.073177">
      </trkpt>
      <trkpt lat="50.733424" lon="7.074379">
      </trkpt>
      <trkpt lat="50.732978" lon="7.075113">
      </trkpt>
      <trkpt lat="50.732327" lon="7.075957">
      </trkpt>
      <trkpt lat="50.731766" lon="7.076034">
      </trkpt>
      <trkpt lat="50.731203" lon="7.076667">
      </trkpt>
      <trkpt lat="50.73061" lon="7.077495">
      </trkpt>
      <trkpt lat="50.73018" lon="7.078185">
      </trkpt>
      <trkpt lat="50.730186" lon="7.07905">
      </trkpt>
      <trkpt lat="50.730591" lon="7.079806">
      </trkpt>
      <trkpt lat="50.731068" lon="7.08051">
      </trkpt>
      <trkpt lat="50.731701" lon="7.081398">
      </trkpt>
      <trkpt lat="50.732109" lon="7.082022">
      </trkpt>
      <trkpt lat="50.731693" lon="7.082871">
      </trkpt>
      <trkpt lat="50.731278" lon="7.083619">
      </trkpt>
      <trkpt lat="50.730847" lon="7.084561">
      </trkpt>
      <trkpt lat="50.731438" lon="7.085133">
      </trkpt>
      <trkpt lat="50.731998" lon="7.085676">
      </trkpt>
      <trkpt lat="50.731823" lon="7.086745">
      </trkpt>
      <trkpt lat="50.731627" lon="7.08758">
      </trkpt>
      <trkpt lat="50.731337" lon="7.088384">
      </trkpt>
      <trkpt lat="50.730746" lon="7.088817">
      </trkpt>
      <trkpt lat="50.730657" lon="7.089715">
      </trkpt>
      <trkpt lat="50.731096" lon="7.090715">
      </trkpt>
      <trkpt lat="50.731311" lon="7.09155">
      </trkpt>
      <trkpt lat="50.731549" lon="7.092499">
      </trkpt>
      <trkpt lat="50.731797" lon="7.093472">
      </trkpt>
      <trkpt lat="50.731956" lon="7.094388">
      </trkpt>
      <trkpt lat="50.731796" lon="7.095776">
      </trkpt>
      <trkpt lat="50.731466" lon="7.096809">
      </trkpt>
      <trkpt lat="50.731191" lon="7.097656">
      </trkpt>
      <trkpt lat="50.73094" lon="7.09842">
      </trkpt>
      <trkpt lat="50.731125" lon="7.099427">
      </trkpt>
      <trkpt lat="50.731914" lon="7.098615">
      </trkpt>
      <trkpt lat="50.732166" lon="7.099479">
      </trkpt>
      <trkpt lat="50.732864" lon="7.099906">
      </trkpt>
      <trkpt lat="50.733282" lon="7.100581">
      </trkpt>
      <trkpt lat="50.733698" lon="7.101282">
      </trkpt>
      <trkpt lat="50.734437" lon="7.102231">
      </trkpt>
      <trkpt lat="50.734816" lon="7.10298">
      </trkpt>
      <trkpt lat="50.735244" lon="7.10382">
      </trkpt>
      <trkpt lat="50.735681" lon="7.104889">
      </trkpt>
      <trkpt lat="50.735939" lon="7.105724">
      </trkpt>
      <trkpt lat="50.736127" lon="7.10665">
      </trkpt>
      <trkpt lat="50.736245" lon="7.107509">
      </trkpt>
    </trkseg>
  </trk>
</gpx>