<?xml version="1.0" encoding="UTF-8"?>
<gpx xmlns="http://www.topografix.com/GPX/1/1" xmlns:xsi="http://www.w3.org/2001/XMLSchema-instance" xsi:schemaLocation="http://www.topografix.com/GPX/1/1 http://www.topografix.com/GPX/1/1/gpx.xsd" version="1.1" creator="gpx.py -- https://github.com/tkrajina/gpxpy">
  <metadata>
    <name>055</name>
  </metadata>
  <wpt lat="50.72538" lon="7.015497">
    <name>Narrow Path in Naturpark Rheinland</name>
    <sym>Flag, Blue</sym>
  </wpt>
  <wpt lat="50.723378" lon="7.008811">
    <name>Forest Path in Naturpark Rheinland</name>
    <sym>Flag, Blue</sym>
  </wpt>
  <wpt lat="50.750125" lon="6.919581">
    <name>View of Snow-Covered Fields and Evergreen Trees in Naturpark Rheinland</name>
    <sym>Flag, Blue</sym>
  </wpt>
  <wpt lat="50.730605" lon="6.956847">
    <name>Römerhof Golf Course</name>
    <sym>Flag, Blue</sym>
  </wpt>
  <wpt lat="50.71185" lon="6.979981">
    <name>Shelter at Breite Allee</name>
    <sym>Picnic Area</sym>
  </wpt>
  <wpt lat="50.716435" lon="7.009101">
    <name>Fields and Horses in Naturpark Rheinland</name>
    <sym>Flag, Blue</sym>
  </wpt>
  <trk>
    <name>055</name>
    <trkseg>
      <trkpt lat="50.734117" lon="7.104293">
      </trkpt>
      <trkpt lat="50.733665" lon="7.103773">
      </trkpt>
      <trkpt lat="50.733188" lon="7.103172">
      </trkpt>
      <trkpt lat="50.732619" lon="7.102447">
      </trkpt>
      <trkpt lat="50.732138" lon="7.101498">
      </trkpt>
      <trkpt lat="50.731709" lon="7.100973">
      </trkpt>
      <trkpt lat="50.731935" lon="7.10005">
      </trkpt>
      <trkpt lat="50.732145" lon="7.099024">
      </trkpt>
      <trkpt lat="50.731609" lon="7.099425">
      </trkpt>
      <trkpt lat="50.731073" lon="7.098836">
      </trkpt>
      <trkpt lat="50.729749" lon="7.097762">
      </trkpt>
      <trkpt lat="50.7282" lon="7.095811">
      </trkpt>
      <trkpt lat="50.727562" lon="7.095">
      </trkpt>
      <trkpt lat="50.727127" lon="7.094283">
      </trkpt>
      <trkpt lat="50.726618" lon="7.093799">
      </trkpt>
      <trkpt lat="50.726503" lon="7.092808">
      </trkpt>
      <trkpt lat="50.725873" lon="7.091868">
      </trkpt>
      <trkpt lat="50.725576" lon="7.091136">
      </trkpt>
      <trkpt lat="50.72608" lon="7.09016">
      </trkpt>
      <trkpt lat="50.726444" lon="7.089456">
      </trkpt>
      <trkpt lat="50.726878" lon="7.088615">
      </trkpt>
      <trkpt lat="50.727336" lon="7.087722">
      </trkpt>
      <trkpt lat="50.727696" lon="7.086991">
      </trkpt>
      <trkpt lat="50.728053" lon="7.086307">
      </trkpt>
      <trkpt lat="50.728535" lon="7.085411">
      </trkpt>
      <trkpt lat="50.728362" lon="7.084538">
      </trkpt>
      <trkpt lat="50.728039" lon="7.083813">
      </trkpt>
      <trkpt lat="50.727733" lon="7.082919">
      </trkpt>
      <trkpt lat="50.727485" lon="7.081997">
      </trkpt>
      <trkpt lat="50.727446" lon="7.08093">
      </trkpt>
      <trkpt lat="50.727315" lon="7.079974">
      </trkpt>
      <trkpt lat="50.727187" lon="7.078748">
      </trkpt>
      <trkpt lat="50.727073" lon="7.077889">
      </trkpt>
      <trkpt lat="50.72696" lon="7.077035">
      </trkpt>
      <trkpt lat="50.726569" lon="7.076192">
      </trkpt>
      <trkpt lat="50.727056" lon="7.07554">
      </trkpt>
      <trkpt lat="50.726707" lon="7.074874">
      </trkpt>
      <trkpt lat="50.72624" lon="7.074364">
      </trkpt>
      <trkpt lat="50.725837" lon="7.073639">
      </trkpt>
      <trkpt lat="50.725756" lon="7.072692">
      </trkpt>
      <trkpt lat="50.725953" lon="7.07156">
      </trkpt>
      <trkpt lat="50.725739" lon="7.070756">
      </trkpt>
      <trkpt lat="50.725331" lon="7.070161">
      </trkpt>
      <trkpt lat="50.724956" lon="7.069539">
      </trkpt>
      <trkpt lat="50.724828" lon="7.068665">
      </trkpt>
      <trkpt lat="50.723971" lon="7.067043">
      </trkpt>
      <trkpt lat="50.724803" lon="7.066052">
      </trkpt>
      <trkpt lat="50.725369" lon="7.065527">
      </trkpt>
      <trkpt lat="50.726064" lon="7.064313">
      </trkpt>
      <trkpt lat="50.726425" lon="7.063638">
      </trkpt>
      <trkpt lat="50.726989" lon="7.062589">
      </trkpt>
      <trkpt lat="50.727191" lon="7.061436">
      </trkpt>
      <trkpt lat="50.728331" lon="7.058383">
      </trkpt>
      <trkpt lat="50.728623" lon="7.056994">
      </trkpt>
      <trkpt lat="50.728956" lon="7.054797">
      </trkpt>
      <trkpt lat="50.728923" lon="7.051328">
      </trkpt>
      <trkpt lat="50.728977" lon="7.049666">
      </trkpt>
      <trkpt lat="50.728936" lon="7.048384">
      </trkpt>
      <trkpt lat="50.728937" lon="7.047526">
      </trkpt>
      <trkpt lat="50.728417" lon="7.046615">
      </trkpt>
      <trkpt lat="50.728336" lon="7.044582">
      </trkpt>
      <trkpt lat="50.728566" lon="7.042969">
      </trkpt>
      <trkpt lat="50.727935" lon="7.041853">
      </trkpt>
      <trkpt lat="50.727471" lon="7.040162">
      </trkpt>
      <trkpt lat="50.727111" lon="7.039116">
      </trkpt>
      <trkpt lat="50.726774" lon="7.037907">
      </trkpt>
      <trkpt lat="50.726603" lon="7.036672">
      </trkpt>
      <trkpt lat="50.726352" lon="7.035724">
      </trkpt>
      <trkpt lat="50.725848" lon="7.034459">
      </trkpt>
      <trkpt lat="50.725487" lon="7.03352">
      </trkpt>
      <trkpt lat="50.724807" lon="7.033201">
      </trkpt>
      <trkpt lat="50.724205" lon="7.032773">
      </trkpt>
      <trkpt lat="50.723775" lon="7.02852">
      </trkpt>
      <trkpt lat="50.723692" lon="7.027537">
      </trkpt>
      <trkpt lat="50.723585" lon="7.026587">
      </trkpt>
      <trkpt lat="50.723254" lon="7.025673">
      </trkpt>
      <trkpt lat="50.724028" lon="7.024787">
      </trkpt>
      <trkpt lat="50.723596" lon="7.023643">
      </trkpt>
      <trkpt lat="50.723658" lon="7.022554">
      </trkpt>
      <trkpt lat="50.723409" lon="7.021514">
      </trkpt>
      <trkpt lat="50.724152" lon="7.020623">
      </trkpt>
      <trkpt lat="50.724719" lon="7.020008">
      </trkpt>
      <trkpt lat="50.72489" lon="7.019161">
      </trkpt>
      <trkpt lat="50.725561" lon="7.019318">
      </trkpt>
      <trkpt lat="50.725398" lon="7.018495">
      </trkpt>
      <trkpt lat="50.725562" lon="7.017679">
      </trkpt>
      <trkpt lat="50.725101" lon="7.01685">
      </trkpt>
      <trkpt lat="50.725119" lon="7.015888">
      </trkpt>
      <trkpt lat="50.725874" lon="7.013973">
      </trkpt>
      <trkpt lat="50.725766" lon="7.013056">
      </trkpt>
      <trkpt lat="50.725146" lon="7.012158">
      </trkpt>
      <trkpt lat="50.724649" lon="7.01164">
      </trkpt>
      <trkpt lat="50.724071" lon="7.010837">
      </trkpt>
      <trkpt lat="50.723779" lon="7.010075">
      </trkpt>
      <trkpt lat="50.723367" lon="7.008822">
      </trkpt>
      <trkpt lat="50.72291" lon="7.008285">
      </trkpt>
      <trkpt lat="50.722262" lon="7.008007">
      </trkpt>
      <trkpt lat="50.721588" lon="7.007887">
      </trkpt>
      <trkpt lat="50.721404" lon="7.00708">
      </trkpt>
      <trkpt lat="50.72161" lon="7.006016">
      </trkpt>
      <trkpt lat="50.721544" lon="7.005105">
      </trkpt>
      <trkpt lat="50.721278" lon="7.004187">
      </trkpt>
      <trkpt lat="50.720811" lon="7.003516">
      </trkpt>
      <trkpt lat="50.720187" lon="7.003239">
      </trkpt>
      <trkpt lat="50.720892" lon="7.001555">
      </trkpt>
      <trkpt lat="50.72109" lon="7.000743">
      </trkpt>
      <trkpt lat="50.720701" lon="7.00013">
      </trkpt>
      <trkpt lat="50.720086" lon="6.999396">
      </trkpt>
      <trkpt lat="50.719535" lon="6.998562">
      </trkpt>
      <trkpt lat="50.718973" lon="6.997644">
      </trkpt>
      <trkpt lat="50.718211" lon="6.99575">
      </trkpt>
      <trkpt lat="50.718796" lon="6.994974">
      </trkpt>
      <trkpt lat="50.719367" lon="6.994651">
      </trkpt>
      <trkpt lat="50.719697" lon="6.993906">
      </trkpt>
      <trkpt lat="50.720088" lon="6.993057">
      </trkpt>
      <trkpt lat="50.720897" lon="6.99255">
      </trkpt>
      <trkpt lat="50.721443" lon="6.991921">
      </trkpt>
      <trkpt lat="50.72179" lon="6.991109">
      </trkpt>
      <trkpt lat="50.723288" lon="6.989986">
      </trkpt>
      <trkpt lat="50.723494" lon="6.989183">
      </trkpt>
      <trkpt lat="50.72385" lon="6.98798">
      </trkpt>
      <trkpt lat="50.724092" lon="6.987109">
      </trkpt>
      <trkpt lat="50.724727" lon="6.988031">
      </trkpt>
      <trkpt lat="50.725387" lon="6.988742">
      </trkpt>
      <trkpt lat="50.725819" lon="6.989264">
      </trkpt>
      <trkpt lat="50.725998" lon="6.98801">
      </trkpt>
      <trkpt lat="50.726413" lon="6.987427">
      </trkpt>
      <trkpt lat="50.726941" lon="6.987076">
      </trkpt>
      <trkpt lat="50.727501" lon="6.986703">
      </trkpt>
      <trkpt lat="50.728177" lon="6.986606">
      </trkpt>
      <trkpt lat="50.728781" lon="6.986581">
      </trkpt>
      <trkpt lat="50.729342" lon="6.986851">
      </trkpt>
      <trkpt lat="50.729998" lon="6.986785">
      </trkpt>
      <trkpt lat="50.729982" lon="6.985875">
      </trkpt>
      <trkpt lat="50.729849" lon="6.984987">
      </trkpt>
      <trkpt lat="50.730129" lon="6.983959">
      </trkpt>
      <trkpt lat="50.73053" lon="6.983263">
      </trkpt>
      <trkpt lat="50.730932" lon="6.982405">
      </trkpt>
      <trkpt lat="50.731473" lon="6.981045">
      </trkpt>
      <trkpt lat="50.733715" lon="6.977493">
      </trkpt>
      <trkpt lat="50.734376" lon="6.97753">
      </trkpt>
      <trkpt lat="50.735442" lon="6.977077">
      </trkpt>
      <trkpt lat="50.735821" lon="6.976133">
      </trkpt>
      <trkpt lat="50.736395" lon="6.975654">
      </trkpt>
      <trkpt lat="50.73671" lon="6.974697">
      </trkpt>
      <trkpt lat="50.737196" lon="6.973907">
      </trkpt>
      <trkpt lat="50.737723" lon="6.972457">
      </trkpt>
      <trkpt lat="50.738172" lon="6.971227">
      </trkpt>
      <trkpt lat="50.738508" lon="6.970295">
      </trkpt>
      <trkpt lat="50.739205" lon="6.967564">
      </trkpt>
      <trkpt lat="50.738781" lon="6.966461">
      </trkpt>
      <trkpt lat="50.739939" lon="6.965557">
      </trkpt>
      <trkpt lat="50.74013" lon="6.96348">
      </trkpt>
      <trkpt lat="50.740217" lon="6.961454">
      </trkpt>
      <trkpt lat="50.740343" lon="6.958607">
      </trkpt>
      <trkpt lat="50.740993" lon="6.95649">
      </trkpt>
      <trkpt lat="50.741418" lon="6.955881">
      </trkpt>
      <trkpt lat="50.741802" lon="6.954538">
      </trkpt>
      <trkpt lat="50.742706" lon="6.951112">
      </trkpt>
      <trkpt lat="50.742925" lon="6.950087">
      </trkpt>
      <trkpt lat="50.743236" lon="6.948667">
      </trkpt>
      <trkpt lat="50.743681" lon="6.947014">
      </trkpt>
      <trkpt lat="50.744132" lon="6.945331">
      </trkpt>
      <trkpt lat="50.744637" lon="6.943462">
      </trkpt>
      <trkpt lat="50.745558" lon="6.941131">
      </trkpt>
      <trkpt lat="50.746091" lon="6.938949">
      </trkpt>
      <trkpt lat="50.746335" lon="6.936964">
      </trkpt>
      <trkpt lat="50.745193" lon="6.936197">
      </trkpt>
      <trkpt lat="50.744423" lon="6.935679">
      </trkpt>
      <trkpt lat="50.741756" lon="6.933906">
      </trkpt>
      <trkpt lat="50.741113" lon="6.933075">
      </trkpt>
      <trkpt lat="50.740451" lon="6.932241">
      </trkpt>
      <trkpt lat="50.737562" lon="6.928529">
      </trkpt>
      <trkpt lat="50.738222" lon="6.925643">
      </trkpt>
      <trkpt lat="50.738871" lon="6.923078">
      </trkpt>
      <trkpt lat="50.740678" lon="6.920778">
      </trkpt>
      <trkpt lat="50.739418" lon="6.919816">
      </trkpt>
      <trkpt lat="50.738208" lon="6.918882">
      </trkpt>
      <trkpt lat="50.737836" lon="6.918067">
      </trkpt>
      <trkpt lat="50.737477" lon="6.91477">
      </trkpt>
      <trkpt lat="50.738371" lon="6.912396">
      </trkpt>
      <trkpt lat="50.73921" lon="6.91121">
      </trkpt>
      <trkpt lat="50.74046" lon="6.909443">
      </trkpt>
      <trkpt lat="50.743195" lon="6.912235">
      </trkpt>
      <trkpt lat="50.744306" lon="6.913006">
      </trkpt>
      <trkpt lat="50.746008" lon="6.915055">
      </trkpt>
      <trkpt lat="50.74735" lon="6.916696">
      </trkpt>
      <trkpt lat="50.748719" lon="6.918353">
      </trkpt>
      <trkpt lat="50.750009" lon="6.919903">
      </trkpt>
      <trkpt lat="50.749128" lon="6.922443">
      </trkpt>
      <trkpt lat="50.748702" lon="6.923624">
      </trkpt>
      <trkpt lat="50.749145" lon="6.924771">
      </trkpt>
      <trkpt lat="50.749544" lon="6.92583">
      </trkpt>
      <trkpt lat="50.749158" lon="6.927165">
      </trkpt>
      <trkpt lat="50.748792" lon="6.928075">
      </trkpt>
      <trkpt lat="50.749176" lon="6.929585">
      </trkpt>
      <trkpt lat="50.75041" lon="6.930555">
      </trkpt>
      <trkpt lat="50.751068" lon="6.93106">
      </trkpt>
      <trkpt lat="50.752229" lon="6.931954">
      </trkpt>
      <trkpt lat="50.752092" lon="6.932903">
      </trkpt>
      <trkpt lat="50.751966" lon="6.93377">
      </trkpt>
      <trkpt lat="50.752031" lon="6.934721">
      </trkpt>
      <trkpt lat="50.751153" lon="6.936014">
      </trkpt>
      <trkpt lat="50.749847" lon="6.937964">
      </trkpt>
      <trkpt lat="50.749651" lon="6.939759">
      </trkpt>
      <trkpt lat="50.749273" lon="6.941203">
      </trkpt>
      <trkpt lat="50.748969" lon="6.942494">
      </trkpt>
      <trkpt lat="50.747894" lon="6.945195">
      </trkpt>
      <trkpt lat="50.747419" lon="6.946968">
      </trkpt>
      <trkpt lat="50.74709" lon="6.948194">
      </trkpt>
      <trkpt lat="50.746309" lon="6.951033">
      </trkpt>
      <trkpt lat="50.743236" lon="6.948667">
      </trkpt>
      <trkpt lat="50.741813" lon="6.94805">
      </trkpt>
      <trkpt lat="50.739729" lon="6.947207">
      </trkpt>
      <trkpt lat="50.739074" lon="6.950339">
      </trkpt>
      <trkpt lat="50.738768" lon="6.953358">
      </trkpt>
      <trkpt lat="50.737765" lon="6.952606">
      </trkpt>
      <trkpt lat="50.736664" lon="6.953962">
      </trkpt>
      <trkpt lat="50.733866" lon="6.952596">
      </trkpt>
      <trkpt lat="50.730658" lon="6.956905">
      </trkpt>
      <trkpt lat="50.728445" lon="6.96153">
      </trkpt>
      <trkpt lat="50.728137" lon="6.96229">
      </trkpt>
      <trkpt lat="50.727943" lon="6.963183">
      </trkpt>
      <trkpt lat="50.727008" lon="6.962709">
      </trkpt>
      <trkpt lat="50.726534" lon="6.961679">
      </trkpt>
      <trkpt lat="50.725811" lon="6.961839">
      </trkpt>
      <trkpt lat="50.724856" lon="6.96083">
      </trkpt>
      <trkpt lat="50.724182" lon="6.962349">
      </trkpt>
      <trkpt lat="50.72435" lon="6.964406">
      </trkpt>
      <trkpt lat="50.724361" lon="6.965509">
      </trkpt>
      <trkpt lat="50.725046" lon="6.967813">
      </trkpt>
      <trkpt lat="50.725465" lon="6.968639">
      </trkpt>
      <trkpt lat="50.725462" lon="6.969522">
      </trkpt>
      <trkpt lat="50.725842" lon="6.971082">
      </trkpt>
      <trkpt lat="50.725819" lon="6.972088">
      </trkpt>
      <trkpt lat="50.725094" lon="6.972423">
      </trkpt>
      <trkpt lat="50.724376" lon="6.972326">
      </trkpt>
      <trkpt lat="50.722348" lon="6.97177">
      </trkpt>
      <trkpt lat="50.721341" lon="6.971419">
      </trkpt>
      <trkpt lat="50.720761" lon="6.97107">
      </trkpt>
      <trkpt lat="50.719677" lon="6.970653">
      </trkpt>
      <trkpt lat="50.718977" lon="6.970399">
      </trkpt>
      <trkpt lat="50.718497" lon="6.969951">
      </trkpt>
      <trkpt lat="50.717847" lon="6.969616">
      </trkpt>
      <trkpt lat="50.717155" lon="6.969579">
      </trkpt>
      <trkpt lat="50.716574" lon="6.96955">
      </trkpt>
      <trkpt lat="50.716035" lon="6.969224">
      </trkpt>
      <trkpt lat="50.714849" lon="6.97193">
      </trkpt>
      <trkpt lat="50.711904" lon="6.979961">
      </trkpt>
      <trkpt lat="50.712325" lon="6.98105">
      </trkpt>
      <trkpt lat="50.712886" lon="6.982926">
      </trkpt>
      <trkpt lat="50.713205" lon="6.983719">
      </trkpt>
      <trkpt lat="50.713055" lon="6.984597">
      </trkpt>
      <trkpt lat="50.712628" lon="6.985155">
      </trkpt>
      <trkpt lat="50.712813" lon="6.987893">
      </trkpt>
      <trkpt lat="50.712797" lon="6.989153">
      </trkpt>
      <trkpt lat="50.712925" lon="6.989998">
      </trkpt>
      <trkpt lat="50.712837" lon="6.990861">
      </trkpt>
      <trkpt lat="50.711918" lon="6.99066">
      </trkpt>
      <trkpt lat="50.711521" lon="6.99178">
      </trkpt>
      <trkpt lat="50.711782" lon="6.992987">
      </trkpt>
      <trkpt lat="50.711644" lon="6.994018">
      </trkpt>
      <trkpt lat="50.711866" lon="6.994889">
      </trkpt>
      <trkpt lat="50.712626" lon="6.996869">
      </trkpt>
      <trkpt lat="50.713032" lon="6.998139">
      </trkpt>
      <trkpt lat="50.713225" lon="6.999084">
      </trkpt>
      <trkpt lat="50.713887" lon="7.001088">
      </trkpt>
      <trkpt lat="50.713861" lon="7.002194">
      </trkpt>
      <trkpt lat="50.714123" lon="7.002975">
      </trkpt>
      <trkpt lat="50.71442" lon="7.003832">
      </trkpt>
      <trkpt lat="50.714833" lon="7.005056">
      </trkpt>
      <trkpt lat="50.715254" lon="7.006036">
      </trkpt>
      <trkpt lat="50.714958" lon="7.006833">
      </trkpt>
      <trkpt lat="50.715486" lon="7.007626">
      </trkpt>
      <trkpt lat="50.716271" lon="7.008824">
      </trkpt>
      <trkpt lat="50.718261" lon="7.012896">
      </trkpt>
      <trkpt lat="50.718048" lon="7.013741">
      </trkpt>
      <trkpt lat="50.718263" lon="7.01483">
      </trkpt>
      <trkpt lat="50.718849" lon="7.016426">
      </trkpt>
      <trkpt lat="50.719175" lon="7.017323">
      </trkpt>
      <trkpt lat="50.719471" lon="7.018036">
      </trkpt>
      <trkpt lat="50.719597" lon="7.018901">
      </trkpt>
      <trkpt lat="50.720148" lon="7.020203">
      </trkpt>
      <trkpt lat="50.720686" lon="7.020471">
      </trkpt>
      <trkpt lat="50.72121" lon="7.021365">
      </trkpt>
      <trkpt lat="50.721868" lon="7.022581">
      </trkpt>
      <trkpt lat="50.722323" lon="7.023383">
      </trkpt>
      <trkpt lat="50.722656" lon="7.024166">
      </trkpt>
      <trkpt lat="50.723026" lon="7.025109">
      </trkpt>
      <trkpt lat="50.723519" lon="7.02636">
      </trkpt>
      <trkpt lat="50.723692" lon="7.027537">
      </trkpt>
      <trkpt lat="50.723775" lon="7.02852">
      </trkpt>
      <trkpt lat="50.724046" lon="7.032408">
      </trkpt>
      <trkpt lat="50.724807" lon="7.033201">
      </trkpt>
      <trkpt lat="50.725487" lon="7.03352">
      </trkpt>
      <trkpt lat="50.725848" lon="7.034459">
      </trkpt>
      <trkpt lat="50.726352" lon="7.035724">
      </trkpt>
      <trkpt lat="50.726603" lon="7.036672">
      </trkpt>
      <trkpt lat="50.726774" lon="7.037907">
      </trkpt>
      <trkpt lat="50.727111" lon="7.039116">
      </trkpt>
      <trkpt lat="50.727471" lon="7.040162">
      </trkpt>
      <trkpt lat="50.727768" lon="7.04144">
      </trkpt>
      <trkpt lat="50.728247" lon="7.042292">
      </trkpt>
      <trkpt lat="50.728337" lon="7.044474">
      </trkpt>
      <trkpt lat="50.728331" lon="7.045943">
      </trkpt>
      <trkpt lat="50.728929" lon="7.047182">
      </trkpt>
      <trkpt lat="50.728955" lon="7.04807">
      </trkpt>
      <trkpt lat="50.728997" lon="7.049054">
      </trkpt>
      <trkpt lat="50.729721" lon="7.048703">
      </trkpt>
      <trkpt lat="50.730265" lon="7.048631">
      </trkpt>
      <trkpt lat="50.73085" lon="7.048286">
      </trkpt>
      <trkpt lat="50.73128" lon="7.048986">
      </trkpt>
      <trkpt lat="50.732382" lon="7.048827">
      </trkpt>
      <trkpt lat="50.732993" lon="7.048696">
      </trkpt>
      <trkpt lat="50.733557" lon="7.048654">
      </trkpt>
      <trkpt lat="50.733162" lon="7.050733">
      </trkpt>
      <trkpt lat="50.732861" lon="7.052267">
      </trkpt>
      <trkpt lat="50.733069" lon="7.053245">
      </trkpt>
      <trkpt lat="50.733453" lon="7.054079">
      </trkpt>
      <trkpt lat="50.733897" lon="7.054576">
      </trkpt>
      <trkpt lat="50.733852" lon="7.055612">
      </trkpt>
      <trkpt lat="50.733821" lon="7.056778">
      </trkpt>
      <trkpt lat="50.733776" lon="7.057741">
      </trkpt>
      <trkpt lat="50.73365" lon="7.058821">
      </trkpt>
      <trkpt lat="50.733382" lon="7.059648">
      </trkpt>
      <trkpt lat="50.732704" lon="7.061009">
      </trkpt>
      <trkpt lat="50.732322" lon="7.061923">
      </trkpt>
      <trkpt lat="50.731893" lon="7.062864">
      </trkpt>
      <trkpt lat="50.731543" lon="7.063628">
      </trkpt>
      <trkpt lat="50.730704" lon="7.064159">
      </trkpt>
      <trkpt lat="50.730286" lon="7.064997">
      </trkpt>
      <trkpt lat="50.72841" lon="7.067929">
      </trkpt>
      <trkpt lat="50.727891" lon="7.068771">
      </trkpt>
      <trkpt lat="50.727332" lon="7.069655">
      </trkpt>
      <trkpt lat="50.726908" lon="7.070337">
      </trkpt>
      <trkpt lat="50.726401" lon="7.071791">
      </trkpt>
      <trkpt lat="50.726861" lon="7.072347">
      </trkpt>
      <trkpt lat="50.726645" lon="7.073143">
      </trkpt>
      <trkpt lat="50.726114" lon="7.074223">
      </trkpt>
      <trkpt lat="50.725834" lon="7.07514">
      </trkpt>
      <trkpt lat="50.725343" lon="7.075924">
      </trkpt>
      <trkpt lat="50.724842" lon="7.076642">
      </trkpt>
      <trkpt lat="50.724167" lon="7.077396">
      </trkpt>
      <trkpt lat="50.723489" lon="7.078662">
      </trkpt>
      <trkpt lat="50.723182" lon="7.079377">
      </trkpt>
      <trkpt lat="50.723039" lon="7.080298">
      </trkpt>
      <trkpt lat="50.722909" lon="7.081289">
      </trkpt>
      <trkpt lat="50.722755" lon="7.082425">
      </trkpt>
      <trkpt lat="50.722442" lon="7.084305">
      </trkpt>
      <trkpt lat="50.723158" lon="7.084982">
      </trkpt>
      <trkpt lat="50.723652" lon="7.085774">
      </trkpt>
      <trkpt lat="50.724098" lon="7.086489">
      </trkpt>
      <trkpt lat="50.724712" lon="7.08749">
      </trkpt>
      <trkpt lat="50.725145" lon="7.088197">
      </trkpt>
      <trkpt lat="50.724642" lon="7.089212">
      </trkpt>
      <trkpt lat="50.724268" lon="7.089966">
      </trkpt>
      <trkpt lat="50.724873" lon="7.090617">
      </trkpt>
      <trkpt lat="50.72546" lon="7.091361">
      </trkpt>
      <trkpt lat="50.726153" lon="7.092198">
      </trkpt>
      <trkpt lat="50.726468" lon="7.093178">
      </trkpt>
      <trkpt lat="50.726814" lon="7.09404">
      </trkpt>
      <trkpt lat="50.727562" lon="7.095">
      </trkpt>
      <trkpt lat="50.7282" lon="7.095811">
      </trkpt>
      <trkpt lat="50.729509" lon="7.097466">
      </trkpt>
      <trkpt lat="50.730696" lon="7.098974">
      </trkpt>
      <trkpt lat="50.731163" lon="7.099612">
      </trkpt>
      <trkpt lat="50.731914" lon="7.098615">
      </trkpt>
      <trkpt lat="50.732039" lon="7.099623">
      </trkpt>
      <trkpt lat="50.731839" lon="7.100481">
      </trkpt>
      <trkpt lat="50.732138" lon="7.101498">
      </trkpt>
      <trkpt lat="50.732602" lon="7.102189">
      </trkpt>
      <trkpt lat="50.733318" lon="7.103238">
      </trkpt>
      <trkpt lat="50.733818" lon="7.103684">
      </trkpt>
    </trkseg>
  </trk>
</gpx>