<?xml version="1.0" encoding="UTF-8"?>
<gpx xmlns="http://www.topografix.com/GPX/1/1" xmlns:xsi="http://www.w3.org/2001/XMLSchema-instance" xsi:schemaLocation="http://www.topografix.com/GPX/1/1 http://www.topografix.com/GPX/1/1/gpx.xsd" version="1.1" creator="gpx.py -- https://github.com/tkrajina/gpxpy">
  <metadata>
    <name>057</name>
  </metadata>
  <wpt lat="50.786144" lon="7.138504">
    <name>Narrow Path Along the Sieg in Siegaue</name>
    <sym>Flag, Blue</sym>
  </wpt>
  <wpt lat="50.809246" lon="7.184683">
    <name>Trerichsweiher Forest Trail</name>
    <sym>Flag, Blue</sym>
  </wpt>
  <trk>
    <name>057</name>
    <trkseg>
      <trkpt lat="50.734524" lon="7.103473">
      </trkpt>
      <trkpt lat="50.734165" lon="7.104228">
      </trkpt>
      <trkpt lat="50.734034" lon="7.105598">
      </trkpt>
      <trkpt lat="50.734674" lon="7.105605">
      </trkpt>
      <trkpt lat="50.73527" lon="7.105278">
      </trkpt>
      <trkpt lat="50.735939" lon="7.105724">
      </trkpt>
      <trkpt lat="50.7366" lon="7.105918">
      </trkpt>
      <trkpt lat="50.737277" lon="7.105735">
      </trkpt>
      <trkpt lat="50.73765" lon="7.106707">
      </trkpt>
      <trkpt lat="50.738118" lon="7.110063">
      </trkpt>
      <trkpt lat="50.738574" lon="7.11341">
      </trkpt>
      <trkpt lat="50.738727" lon="7.114479">
      </trkpt>
      <trkpt lat="50.738828" lon="7.115368">
      </trkpt>
      <trkpt lat="50.740418" lon="7.115133">
      </trkpt>
      <trkpt lat="50.741214" lon="7.114927">
      </trkpt>
      <trkpt lat="50.741983" lon="7.114821">
      </trkpt>
      <trkpt lat="50.742593" lon="7.1147">
      </trkpt>
      <trkpt lat="50.743181" lon="7.114608">
      </trkpt>
      <trkpt lat="50.744031" lon="7.114546">
      </trkpt>
      <trkpt lat="50.74521" lon="7.114504">
      </trkpt>
      <trkpt lat="50.745998" lon="7.114403">
      </trkpt>
      <trkpt lat="50.746705" lon="7.114088">
      </trkpt>
      <trkpt lat="50.747324" lon="7.113644">
      </trkpt>
      <trkpt lat="50.747951" lon="7.113169">
      </trkpt>
      <trkpt lat="50.748463" lon="7.112744">
      </trkpt>
      <trkpt lat="50.749493" lon="7.111977">
      </trkpt>
      <trkpt lat="50.750021" lon="7.112718">
      </trkpt>
      <trkpt lat="50.750508" lon="7.113524">
      </trkpt>
      <trkpt lat="50.750993" lon="7.114002">
      </trkpt>
      <trkpt lat="50.75143" lon="7.114824">
      </trkpt>
      <trkpt lat="50.752372" lon="7.114707">
      </trkpt>
      <trkpt lat="50.753358" lon="7.114456">
      </trkpt>
      <trkpt lat="50.755136" lon="7.114282">
      </trkpt>
      <trkpt lat="50.756026" lon="7.114208">
      </trkpt>
      <trkpt lat="50.756691" lon="7.114141">
      </trkpt>
      <trkpt lat="50.757416" lon="7.113946">
      </trkpt>
      <trkpt lat="50.758394" lon="7.113994">
      </trkpt>
      <trkpt lat="50.759296" lon="7.113937">
      </trkpt>
      <trkpt lat="50.760129" lon="7.113835">
      </trkpt>
      <trkpt lat="50.760335" lon="7.11476">
      </trkpt>
      <trkpt lat="50.761441" lon="7.113823">
      </trkpt>
      <trkpt lat="50.762256" lon="7.112919">
      </trkpt>
      <trkpt lat="50.763211" lon="7.11171">
      </trkpt>
      <trkpt lat="50.764237" lon="7.110204">
      </trkpt>
      <trkpt lat="50.765044" lon="7.108875">
      </trkpt>
      <trkpt lat="50.765901" lon="7.107332">
      </trkpt>
      <trkpt lat="50.766711" lon="7.10571">
      </trkpt>
      <trkpt lat="50.767351" lon="7.104306">
      </trkpt>
      <trkpt lat="50.769437" lon="7.10334">
      </trkpt>
      <trkpt lat="50.770336" lon="7.103024">
      </trkpt>
      <trkpt lat="50.770931" lon="7.103098">
      </trkpt>
      <trkpt lat="50.77165" lon="7.103252">
      </trkpt>
      <trkpt lat="50.772762" lon="7.103552">
      </trkpt>
      <trkpt lat="50.773334" lon="7.103415">
      </trkpt>
      <trkpt lat="50.773329" lon="7.104293">
      </trkpt>
      <trkpt lat="50.773198" lon="7.105303">
      </trkpt>
      <trkpt lat="50.773491" lon="7.106926">
      </trkpt>
      <trkpt lat="50.77424" lon="7.10917">
      </trkpt>
      <trkpt lat="50.773672" lon="7.110136">
      </trkpt>
      <trkpt lat="50.772601" lon="7.111218">
      </trkpt>
      <trkpt lat="50.771345" lon="7.112493">
      </trkpt>
      <trkpt lat="50.771807" lon="7.113627">
      </trkpt>
      <trkpt lat="50.772027" lon="7.114433">
      </trkpt>
      <trkpt lat="50.772187" lon="7.115817">
      </trkpt>
      <trkpt lat="50.772303" lon="7.117235">
      </trkpt>
      <trkpt lat="50.772425" lon="7.11911">
      </trkpt>
      <trkpt lat="50.772575" lon="7.120481">
      </trkpt>
      <trkpt lat="50.773003" lon="7.122097">
      </trkpt>
      <trkpt lat="50.773411" lon="7.122914">
      </trkpt>
      <trkpt lat="50.774448" lon="7.124564">
      </trkpt>
      <trkpt lat="50.775002" lon="7.125158">
      </trkpt>
      <trkpt lat="50.775749" lon="7.125695">
      </trkpt>
      <trkpt lat="50.776356" lon="7.126159">
      </trkpt>
      <trkpt lat="50.776916" lon="7.126453">
      </trkpt>
      <trkpt lat="50.778408" lon="7.126942">
      </trkpt>
      <trkpt lat="50.780199" lon="7.127715">
      </trkpt>
      <trkpt lat="50.781567" lon="7.128564">
      </trkpt>
      <trkpt lat="50.782624" lon="7.129636">
      </trkpt>
      <trkpt lat="50.783211" lon="7.130247">
      </trkpt>
      <trkpt lat="50.784365" lon="7.132019">
      </trkpt>
      <trkpt lat="50.785083" lon="7.13388">
      </trkpt>
      <trkpt lat="50.785808" lon="7.136761">
      </trkpt>
      <trkpt lat="50.786037" lon="7.137866">
      </trkpt>
      <trkpt lat="50.786473" lon="7.139206">
      </trkpt>
      <trkpt lat="50.78694" lon="7.140365">
      </trkpt>
      <trkpt lat="50.78822" lon="7.141532">
      </trkpt>
      <trkpt lat="50.789127" lon="7.142762">
      </trkpt>
      <trkpt lat="50.789859" lon="7.143446">
      </trkpt>
      <trkpt lat="50.790618" lon="7.143087">
      </trkpt>
      <trkpt lat="50.79135" lon="7.142975">
      </trkpt>
      <trkpt lat="50.792084" lon="7.14283">
      </trkpt>
      <trkpt lat="50.792681" lon="7.142265">
      </trkpt>
      <trkpt lat="50.793128" lon="7.141751">
      </trkpt>
      <trkpt lat="50.794107" lon="7.141817">
      </trkpt>
      <trkpt lat="50.794929" lon="7.142735">
      </trkpt>
      <trkpt lat="50.795998" lon="7.144826">
      </trkpt>
      <trkpt lat="50.796854" lon="7.147361">
      </trkpt>
      <trkpt lat="50.796982" lon="7.148505">
      </trkpt>
      <trkpt lat="50.797196" lon="7.149555">
      </trkpt>
      <trkpt lat="50.797947" lon="7.15266">
      </trkpt>
      <trkpt lat="50.798229" lon="7.154113">
      </trkpt>
      <trkpt lat="50.798256" lon="7.156182">
      </trkpt>
      <trkpt lat="50.798135" lon="7.157057">
      </trkpt>
      <trkpt lat="50.798005" lon="7.158592">
      </trkpt>
      <trkpt lat="50.798024" lon="7.159725">
      </trkpt>
      <trkpt lat="50.798114" lon="7.160919">
      </trkpt>
      <trkpt lat="50.7982" lon="7.162022">
      </trkpt>
      <trkpt lat="50.7984" lon="7.163339">
      </trkpt>
      <trkpt lat="50.798467" lon="7.164689">
      </trkpt>
      <trkpt lat="50.798653" lon="7.165625">
      </trkpt>
      <trkpt lat="50.798889" lon="7.167061">
      </trkpt>
      <trkpt lat="50.799235" lon="7.167974">
      </trkpt>
      <trkpt lat="50.799727" lon="7.169407">
      </trkpt>
      <trkpt lat="50.800098" lon="7.171368">
      </trkpt>
      <trkpt lat="50.800338" lon="7.172258">
      </trkpt>
      <trkpt lat="50.800917" lon="7.173902">
      </trkpt>
      <trkpt lat="50.801376" lon="7.174537">
      </trkpt>
      <trkpt lat="50.802" lon="7.175103">
      </trkpt>
      <trkpt lat="50.802709" lon="7.175419">
      </trkpt>
      <trkpt lat="50.803239" lon="7.175154">
      </trkpt>
      <trkpt lat="50.803962" lon="7.175073">
      </trkpt>
      <trkpt lat="50.804896" lon="7.175535">
      </trkpt>
      <trkpt lat="50.805539" lon="7.175845">
      </trkpt>
      <trkpt lat="50.805246" lon="7.177285">
      </trkpt>
      <trkpt lat="50.804906" lon="7.178337">
      </trkpt>
      <trkpt lat="50.805146" lon="7.177207">
      </trkpt>
      <trkpt lat="50.805982" lon="7.177451">
      </trkpt>
      <trkpt lat="50.806983" lon="7.178666">
      </trkpt>
      <trkpt lat="50.807024" lon="7.179523">
      </trkpt>
      <trkpt lat="50.8068" lon="7.180326">
      </trkpt>
      <trkpt lat="50.807325" lon="7.180654">
      </trkpt>
      <trkpt lat="50.808073" lon="7.18148">
      </trkpt>
      <trkpt lat="50.809086" lon="7.184454">
      </trkpt>
      <trkpt lat="50.809693" lon="7.185064">
      </trkpt>
      <trkpt lat="50.810512" lon="7.186051">
      </trkpt>
      <trkpt lat="50.811083" lon="7.186331">
      </trkpt>
      <trkpt lat="50.811026" lon="7.185419">
      </trkpt>
      <trkpt lat="50.811589" lon="7.185732">
      </trkpt>
      <trkpt lat="50.811991" lon="7.18742">
      </trkpt>
      <trkpt lat="50.811937" lon="7.188318">
      </trkpt>
      <trkpt lat="50.812341" lon="7.188946">
      </trkpt>
      <trkpt lat="50.812734" lon="7.189999">
      </trkpt>
      <trkpt lat="50.813272" lon="7.191048">
      </trkpt>
      <trkpt lat="50.813801" lon="7.19246">
      </trkpt>
      <trkpt lat="50.814121" lon="7.193292">
      </trkpt>
      <trkpt lat="50.81438" lon="7.194214">
      </trkpt>
      <trkpt lat="50.814978" lon="7.194052">
      </trkpt>
      <trkpt lat="50.815809" lon="7.194629">
      </trkpt>
      <trkpt lat="50.816562" lon="7.196098">
      </trkpt>
      <trkpt lat="50.817086" lon="7.196713">
      </trkpt>
      <trkpt lat="50.81682" lon="7.197567">
      </trkpt>
      <trkpt lat="50.816417" lon="7.19851">
      </trkpt>
      <trkpt lat="50.818121" lon="7.198897">
      </trkpt>
      <trkpt lat="50.819225" lon="7.19884">
      </trkpt>
      <trkpt lat="50.819778" lon="7.198954">
      </trkpt>
      <trkpt lat="50.820481" lon="7.19931">
      </trkpt>
      <trkpt lat="50.821066" lon="7.199697">
      </trkpt>
      <trkpt lat="50.821711" lon="7.200256">
      </trkpt>
      <trkpt lat="50.822219" lon="7.200896">
      </trkpt>
      <trkpt lat="50.822744" lon="7.201729">
      </trkpt>
      <trkpt lat="50.823494" lon="7.203358">
      </trkpt>
      <trkpt lat="50.824019" lon="7.204273">
      </trkpt>
      <trkpt lat="50.824614" lon="7.204873">
      </trkpt>
      <trkpt lat="50.825359" lon="7.205254">
      </trkpt>
      <trkpt lat="50.826056" lon="7.20538">
      </trkpt>
      <trkpt lat="50.825695" lon="7.20723">
      </trkpt>
      <trkpt lat="50.825456" lon="7.208028">
      </trkpt>
      <trkpt lat="50.824762" lon="7.209384">
      </trkpt>
      <trkpt lat="50.824472" lon="7.210116">
      </trkpt>
      <trkpt lat="50.823857" lon="7.212706">
      </trkpt>
      <trkpt lat="50.820996" lon="7.213178">
      </trkpt>
      <trkpt lat="50.819825" lon="7.213309">
      </trkpt>
      <trkpt lat="50.817505" lon="7.220336">
      </trkpt>
      <trkpt lat="50.817034" lon="7.221571">
      </trkpt>
      <trkpt lat="50.816831" lon="7.22522">
      </trkpt>
      <trkpt lat="50.816753" lon="7.226937">
      </trkpt>
      <trkpt lat="50.816881" lon="7.228834">
      </trkpt>
      <trkpt lat="50.817511" lon="7.232829">
      </trkpt>
      <trkpt lat="50.817928" lon="7.23437">
      </trkpt>
      <trkpt lat="50.818481" lon="7.236482">
      </trkpt>
      <trkpt lat="50.817585" lon="7.238681">
      </trkpt>
      <trkpt lat="50.812222" lon="7.237229">
      </trkpt>
      <trkpt lat="50.811402" lon="7.237342">
      </trkpt>
      <trkpt lat="50.811803" lon="7.240198">
      </trkpt>
      <trkpt lat="50.811974" lon="7.241268">
      </trkpt>
      <trkpt lat="50.81228" lon="7.242708">
      </trkpt>
      <trkpt lat="50.811849" lon="7.244564">
      </trkpt>
      <trkpt lat="50.81108" lon="7.245116">
      </trkpt>
      <trkpt lat="50.810654" lon="7.244201">
      </trkpt>
      <trkpt lat="50.810066" lon="7.243639">
      </trkpt>
      <trkpt lat="50.80961" lon="7.243071">
      </trkpt>
      <trkpt lat="50.809011" lon="7.24254">
      </trkpt>
      <trkpt lat="50.808613" lon="7.24186">
      </trkpt>
      <trkpt lat="50.808223" lon="7.241089">
      </trkpt>
      <trkpt lat="50.807677" lon="7.240796">
      </trkpt>
      <trkpt lat="50.807792" lon="7.242077">
      </trkpt>
      <trkpt lat="50.807317" lon="7.241505">
      </trkpt>
      <trkpt lat="50.806986" lon="7.242317">
      </trkpt>
      <trkpt lat="50.806428" lon="7.242619">
      </trkpt>
      <trkpt lat="50.806142" lon="7.241523">
      </trkpt>
      <trkpt lat="50.805781" lon="7.240418">
      </trkpt>
      <trkpt lat="50.805234" lon="7.239868">
      </trkpt>
      <trkpt lat="50.804724" lon="7.239306">
      </trkpt>
      <trkpt lat="50.804096" lon="7.238744">
      </trkpt>
      <trkpt lat="50.803546" lon="7.238342">
      </trkpt>
      <trkpt lat="50.802657" lon="7.2377">
      </trkpt>
      <trkpt lat="50.801895" lon="7.237275">
      </trkpt>
      <trkpt lat="50.800354" lon="7.238053">
      </trkpt>
      <trkpt lat="50.799857" lon="7.238811">
      </trkpt>
      <trkpt lat="50.798988" lon="7.240289">
      </trkpt>
      <trkpt lat="50.797382" lon="7.237333">
      </trkpt>
      <trkpt lat="50.795984" lon="7.232097">
      </trkpt>
      <trkpt lat="50.794741" lon="7.232894">
      </trkpt>
      <trkpt lat="50.79433" lon="7.231781">
      </trkpt>
      <trkpt lat="50.794069" lon="7.230973">
      </trkpt>
      <trkpt lat="50.793449" lon="7.23015">
      </trkpt>
      <trkpt lat="50.7923" lon="7.22913">
      </trkpt>
      <trkpt lat="50.791665" lon="7.228629">
      </trkpt>
      <trkpt lat="50.790151" lon="7.227466">
      </trkpt>
      <trkpt lat="50.789586" lon="7.226815">
      </trkpt>
      <trkpt lat="50.788995" lon="7.226053">
      </trkpt>
      <trkpt lat="50.788499" lon="7.225164">
      </trkpt>
      <trkpt lat="50.788037" lon="7.224504">
      </trkpt>
      <trkpt lat="50.78757" lon="7.224047">
      </trkpt>
      <trkpt lat="50.786737" lon="7.223266">
      </trkpt>
      <trkpt lat="50.785471" lon="7.222777">
      </trkpt>
      <trkpt lat="50.784676" lon="7.222185">
      </trkpt>
      <trkpt lat="50.78388" lon="7.224197">
      </trkpt>
      <trkpt lat="50.783615" lon="7.22327">
      </trkpt>
      <trkpt lat="50.782687" lon="7.222568">
      </trkpt>
      <trkpt lat="50.78203" lon="7.222507">
      </trkpt>
      <trkpt lat="50.78144" lon="7.222409">
      </trkpt>
      <trkpt lat="50.780595" lon="7.222061">
      </trkpt>
      <trkpt lat="50.780085" lon="7.221541">
      </trkpt>
      <trkpt lat="50.779736" lon="7.220863">
      </trkpt>
      <trkpt lat="50.779456" lon="7.220096">
      </trkpt>
      <trkpt lat="50.779331" lon="7.221796">
      </trkpt>
      <trkpt lat="50.778478" lon="7.221194">
      </trkpt>
      <trkpt lat="50.777895" lon="7.220966">
      </trkpt>
      <trkpt lat="50.777135" lon="7.220849">
      </trkpt>
      <trkpt lat="50.776424" lon="7.220996">
      </trkpt>
      <trkpt lat="50.775146" lon="7.221264">
      </trkpt>
      <trkpt lat="50.774495" lon="7.221486">
      </trkpt>
      <trkpt lat="50.77387" lon="7.221725">
      </trkpt>
      <trkpt lat="50.772852" lon="7.222194">
      </trkpt>
      <trkpt lat="50.772244" lon="7.222899">
      </trkpt>
      <trkpt lat="50.771562" lon="7.223524">
      </trkpt>
      <trkpt lat="50.770025" lon="7.224959">
      </trkpt>
      <trkpt lat="50.768707" lon="7.226855">
      </trkpt>
      <trkpt lat="50.76723" lon="7.22956">
      </trkpt>
      <trkpt lat="50.766715" lon="7.230489">
      </trkpt>
      <trkpt lat="50.766376" lon="7.231493">
      </trkpt>
      <trkpt lat="50.766029" lon="7.232252">
      </trkpt>
      <trkpt lat="50.765358" lon="7.232374">
      </trkpt>
      <trkpt lat="50.764743" lon="7.232935">
      </trkpt>
      <trkpt lat="50.764054" lon="7.233547">
      </trkpt>
      <trkpt lat="50.763621" lon="7.234642">
      </trkpt>
      <trkpt lat="50.763009" lon="7.234701">
      </trkpt>
      <trkpt lat="50.762403" lon="7.234419">
      </trkpt>
      <trkpt lat="50.761821" lon="7.234538">
      </trkpt>
      <trkpt lat="50.761002" lon="7.234762">
      </trkpt>
      <trkpt lat="50.759498" lon="7.237622">
      </trkpt>
      <trkpt lat="50.758753" lon="7.236374">
      </trkpt>
      <trkpt lat="50.75816" lon="7.235009">
      </trkpt>
      <trkpt lat="50.757619" lon="7.234097">
      </trkpt>
      <trkpt lat="50.75693" lon="7.233292">
      </trkpt>
      <trkpt lat="50.756417" lon="7.232934">
      </trkpt>
      <trkpt lat="50.755116" lon="7.233875">
      </trkpt>
      <trkpt lat="50.753591" lon="7.235954">
      </trkpt>
      <trkpt lat="50.752569" lon="7.237396">
      </trkpt>
      <trkpt lat="50.751909" lon="7.23816">
      </trkpt>
      <trkpt lat="50.751072" lon="7.238286">
      </trkpt>
      <trkpt lat="50.750223" lon="7.238696">
      </trkpt>
      <trkpt lat="50.749617" lon="7.23944">
      </trkpt>
      <trkpt lat="50.74907" lon="7.239292">
      </trkpt>
      <trkpt lat="50.748418" lon="7.238853">
      </trkpt>
      <trkpt lat="50.748152" lon="7.23802">
      </trkpt>
      <trkpt lat="50.747586" lon="7.237453">
      </trkpt>
      <trkpt lat="50.746983" lon="7.237246">
      </trkpt>
      <trkpt lat="50.747409" lon="7.235838">
      </trkpt>
      <trkpt lat="50.74774" lon="7.23456">
      </trkpt>
      <trkpt lat="50.748491" lon="7.231668">
      </trkpt>
      <trkpt lat="50.748723" lon="7.230097">
      </trkpt>
      <trkpt lat="50.748724" lon="7.229105">
      </trkpt>
      <trkpt lat="50.748669" lon="7.228185">
      </trkpt>
      <trkpt lat="50.748533" lon="7.226226">
      </trkpt>
      <trkpt lat="50.748501" lon="7.22492">
      </trkpt>
      <trkpt lat="50.748463" lon="7.223793">
      </trkpt>
      <trkpt lat="50.748516" lon="7.222697">
      </trkpt>
      <trkpt lat="50.748842" lon="7.221882">
      </trkpt>
      <trkpt lat="50.749597" lon="7.221019">
      </trkpt>
      <trkpt lat="50.751565" lon="7.219224">
      </trkpt>
      <trkpt lat="50.752311" lon="7.218436">
      </trkpt>
      <trkpt lat="50.752455" lon="7.217507">
      </trkpt>
      <trkpt lat="50.75225" lon="7.216199">
      </trkpt>
      <trkpt lat="50.752555" lon="7.213919">
      </trkpt>
      <trkpt lat="50.752952" lon="7.212786">
      </trkpt>
      <trkpt lat="50.753066" lon="7.211515">
      </trkpt>
      <trkpt lat="50.752908" lon="7.209765">
      </trkpt>
      <trkpt lat="50.753098" lon="7.207421">
      </trkpt>
      <trkpt lat="50.753606" lon="7.205941">
      </trkpt>
      <trkpt lat="50.753821" lon="7.204881">
      </trkpt>
      <trkpt lat="50.753228" lon="7.204448">
      </trkpt>
      <trkpt lat="50.752585" lon="7.204827">
      </trkpt>
      <trkpt lat="50.752008" lon="7.205021">
      </trkpt>
      <trkpt lat="50.75077" lon="7.204072">
      </trkpt>
      <trkpt lat="50.74983" lon="7.202827">
      </trkpt>
      <trkpt lat="50.749711" lon="7.201709">
      </trkpt>
      <trkpt lat="50.749294" lon="7.200017">
      </trkpt>
      <trkpt lat="50.748529" lon="7.199601">
      </trkpt>
      <trkpt lat="50.746746" lon="7.197043">
      </trkpt>
      <trkpt lat="50.746179" lon="7.196158">
      </trkpt>
      <trkpt lat="50.745522" lon="7.19572">
      </trkpt>
      <trkpt lat="50.74469" lon="7.195142">
      </trkpt>
      <trkpt lat="50.743871" lon="7.194935">
      </trkpt>
      <trkpt lat="50.743027" lon="7.195317">
      </trkpt>
      <trkpt lat="50.741965" lon="7.196451">
      </trkpt>
      <trkpt lat="50.74109" lon="7.197086">
      </trkpt>
      <trkpt lat="50.740503" lon="7.196915">
      </trkpt>
      <trkpt lat="50.740017" lon="7.196148">
      </trkpt>
      <trkpt lat="50.739909" lon="7.195046">
      </trkpt>
      <trkpt lat="50.739869" lon="7.194184">
      </trkpt>
      <trkpt lat="50.739806" lon="7.193096">
      </trkpt>
      <trkpt lat="50.739759" lon="7.192032">
      </trkpt>
      <trkpt lat="50.739718" lon="7.191015">
      </trkpt>
      <trkpt lat="50.739573" lon="7.189616">
      </trkpt>
      <trkpt lat="50.739382" lon="7.188386">
      </trkpt>
      <trkpt lat="50.739528" lon="7.186908">
      </trkpt>
      <trkpt lat="50.74004" lon="7.186438">
      </trkpt>
      <trkpt lat="50.740298" lon="7.184784">
      </trkpt>
      <trkpt lat="50.739551" lon="7.184173">
      </trkpt>
      <trkpt lat="50.739072" lon="7.183614">
      </trkpt>
      <trkpt lat="50.738544" lon="7.184206">
      </trkpt>
      <trkpt lat="50.73753" lon="7.184286">
      </trkpt>
      <trkpt lat="50.73709" lon="7.183737">
      </trkpt>
      <trkpt lat="50.736405" lon="7.182671">
      </trkpt>
      <trkpt lat="50.735435" lon="7.182578">
      </trkpt>
      <trkpt lat="50.735158" lon="7.183796">
      </trkpt>
      <trkpt lat="50.734372" lon="7.1837">
      </trkpt>
      <trkpt lat="50.734384" lon="7.182604">
      </trkpt>
      <trkpt lat="50.734589" lon="7.181766">
      </trkpt>
      <trkpt lat="50.735016" lon="7.180993">
      </trkpt>
      <trkpt lat="50.735807" lon="7.180479">
      </trkpt>
      <trkpt lat="50.736307" lon="7.179185">
      </trkpt>
      <trkpt lat="50.737244" lon="7.177746">
      </trkpt>
      <trkpt lat="50.736677" lon="7.177148">
      </trkpt>
      <trkpt lat="50.735948" lon="7.176322">
      </trkpt>
      <trkpt lat="50.735471" lon="7.175684">
      </trkpt>
      <trkpt lat="50.735389" lon="7.174185">
      </trkpt>
      <trkpt lat="50.735282" lon="7.172904">
      </trkpt>
      <trkpt lat="50.734749" lon="7.17249">
      </trkpt>
      <trkpt lat="50.734157" lon="7.17188">
      </trkpt>
      <trkpt lat="50.733735" lon="7.170497">
      </trkpt>
      <trkpt lat="50.733589" lon="7.169439">
      </trkpt>
      <trkpt lat="50.733848" lon="7.168043">
      </trkpt>
      <trkpt lat="50.734195" lon="7.165623">
      </trkpt>
      <trkpt lat="50.734287" lon="7.164728">
      </trkpt>
      <trkpt lat="50.73401" lon="7.16202">
      </trkpt>
      <trkpt lat="50.733847" lon="7.160913">
      </trkpt>
      <trkpt lat="50.733469" lon="7.159864">
      </trkpt>
      <trkpt lat="50.732919" lon="7.158606">
      </trkpt>
      <trkpt lat="50.732401" lon="7.157251">
      </trkpt>
      <trkpt lat="50.731972" lon="7.155447">
      </trkpt>
      <trkpt lat="50.731719" lon="7.154533">
      </trkpt>
      <trkpt lat="50.731654" lon="7.153576">
      </trkpt>
      <trkpt lat="50.732002" lon="7.152881">
      </trkpt>
      <trkpt lat="50.732486" lon="7.152382">
      </trkpt>
      <trkpt lat="50.73184" lon="7.151463">
      </trkpt>
      <trkpt lat="50.731253" lon="7.150581">
      </trkpt>
      <trkpt lat="50.730969" lon="7.149682">
      </trkpt>
      <trkpt lat="50.730459" lon="7.149305">
      </trkpt>
      <trkpt lat="50.729826" lon="7.149224">
      </trkpt>
      <trkpt lat="50.72918" lon="7.149109">
      </trkpt>
      <trkpt lat="50.728554" lon="7.149609">
      </trkpt>
      <trkpt lat="50.727959" lon="7.149408">
      </trkpt>
      <trkpt lat="50.727462" lon="7.148545">
      </trkpt>
      <trkpt lat="50.727048" lon="7.147986">
      </trkpt>
      <trkpt lat="50.726095" lon="7.146843">
      </trkpt>
      <trkpt lat="50.725528" lon="7.146213">
      </trkpt>
      <trkpt lat="50.724749" lon="7.145246">
      </trkpt>
      <trkpt lat="50.724206" lon="7.144657">
      </trkpt>
      <trkpt lat="50.723757" lon="7.144151">
      </trkpt>
      <trkpt lat="50.723051" lon="7.143349">
      </trkpt>
      <trkpt lat="50.722522" lon="7.142845">
      </trkpt>
      <trkpt lat="50.721776" lon="7.142385">
      </trkpt>
      <trkpt lat="50.72118" lon="7.142464">
      </trkpt>
      <trkpt lat="50.72078" lon="7.143048">
      </trkpt>
      <trkpt lat="50.720237" lon="7.143241">
      </trkpt>
      <trkpt lat="50.720039" lon="7.144084">
      </trkpt>
      <trkpt lat="50.719336" lon="7.144309">
      </trkpt>
      <trkpt lat="50.716722" lon="7.142497">
      </trkpt>
      <trkpt lat="50.714917" lon="7.141246">
      </trkpt>
      <trkpt lat="50.713231" lon="7.139959">
      </trkpt>
      <trkpt lat="50.712669" lon="7.139453">
      </trkpt>
      <trkpt lat="50.712187" lon="7.138622">
      </trkpt>
      <trkpt lat="50.712803" lon="7.139033">
      </trkpt>
      <trkpt lat="50.71335" lon="7.139001">
      </trkpt>
      <trkpt lat="50.713877" lon="7.138213">
      </trkpt>
      <trkpt lat="50.714505" lon="7.138628">
      </trkpt>
      <trkpt lat="50.715084" lon="7.139316">
      </trkpt>
      <trkpt lat="50.715691" lon="7.139551">
      </trkpt>
      <trkpt lat="50.716277" lon="7.13954">
      </trkpt>
      <trkpt lat="50.716733" lon="7.138982">
      </trkpt>
      <trkpt lat="50.717288" lon="7.137064">
      </trkpt>
      <trkpt lat="50.717621" lon="7.135722">
      </trkpt>
      <trkpt lat="50.717937" lon="7.134393">
      </trkpt>
      <trkpt lat="50.718168" lon="7.133254">
      </trkpt>
      <trkpt lat="50.718401" lon="7.132125">
      </trkpt>
      <trkpt lat="50.718676" lon="7.130738">
      </trkpt>
      <trkpt lat="50.718856" lon="7.129833">
      </trkpt>
      <trkpt lat="50.719118" lon="7.12862">
      </trkpt>
      <trkpt lat="50.719587" lon="7.126695">
      </trkpt>
      <trkpt lat="50.719859" lon="7.125743">
      </trkpt>
      <trkpt lat="50.720185" lon="7.124757">
      </trkpt>
      <trkpt lat="50.720912" lon="7.12284">
      </trkpt>
      <trkpt lat="50.721427" lon="7.121617">
      </trkpt>
      <trkpt lat="50.722446" lon="7.119719">
      </trkpt>
      <trkpt lat="50.723829" lon="7.117462">
      </trkpt>
      <trkpt lat="50.725152" lon="7.115492">
      </trkpt>
      <trkpt lat="50.725684" lon="7.11475">
      </trkpt>
      <trkpt lat="50.727075" lon="7.113114">
      </trkpt>
      <trkpt lat="50.727889" lon="7.112297">
      </trkpt>
      <trkpt lat="50.72845" lon="7.111791">
      </trkpt>
      <trkpt lat="50.729885" lon="7.110769">
      </trkpt>
      <trkpt lat="50.731859" lon="7.109381">
      </trkpt>
      <trkpt lat="50.732484" lon="7.109346">
      </trkpt>
      <trkpt lat="50.734562" lon="7.108362">
      </trkpt>
      <trkpt lat="50.735524" lon="7.107799">
      </trkpt>
    </trkseg>
  </trk>
</gpx>